,content_id,title,content_type_id,area_code,latitude,longitude,addr1,addr2
23,1826438,경찰혼,12,1,37.5263408571,126.9006431406,서울특별시 영등포구 국회대로 608,(당산동3가)
30,814237,고덕동 생태경관 보전지역,12,1,37.5670267098,127.1493110052,서울특별시 강동구 고덕동 396번지 일대,
39,2733969,과학동아천문대,12,1,37.5337300099,126.963378882,서울특별시 용산구 청파로 109,(한강로3가)
63,2761661,구강사,12,1,37.5449150194,127.1288607188,서울특별시 강동구 천중로 64,(천호동)
65,2553960,구로공단 노동자생활체험관,12,1,37.4828178318,126.8836153607,서울특별시 금천구 벚꽃로44길 17,(가산동)
66,3112063,구로구 반려견 놀이터,12,1,37.5082258503,126.8757403642,서울특별시 구로구 구로중앙로42길 27,구로구 반려견 놀이터
67,2591803,구로기계공구단지,12,1,37.5041347264,126.8795151353,서울특별시 구로구 구로중앙로 198,(구로동)
78,2793186,국악사랑,12,1,37.5829218735,126.9833340052,서울특별시 종로구 북촌로11길 35-16,(가회동)
139,2753103,대림어린이공원,12,1,37.4914005142,126.9030355727,서울특별시 영등포구 대림로 106,(대림동)
174,3006915,등나무근린공원,12,1,37.6407111019,127.0668719687,서울특별시 노원구 동일로 1238 서울시립 북서울미술관,
215,2753094,목5동성당,12,1,37.5333896158,126.8770200955,서울특별시 양천구 목동동로 353,(목동)
244,2763871,방배배수지체육공원,12,1,37.4727848312,126.9924835083,서울특별시 서초구 남부순환로296길 4-9,(방배동)
250,2661483,배봉산,12,1,37.5807819121,127.0643739039,서울특별시 동대문구 전농동,
260,3080622,번지피지오 옴니바디웍스청담,12,1,37.5253102705,127.0472464824,서울특별시 강남구 압구정로 461 (청담동),"211,212, 213호"
286,126943,북악스카이 팔각정,12,1,37.6020279352,126.9805670485,서울특별시 종로구 북악산로 267,(평창동)
323,1606009,삼청동오위장김춘영가옥,12,1,37.5586776601,126.9939920541,서울특별시 중구 퇴계로34길 28,(필동2가)
327,2500207,상수동 카페거리,12,1,37.5484886553,126.9214545083,서울특별시 마포구 상수동,
346,250362,서울 구 러시아공사관,12,1,37.5684261216,126.9714160575,서울특별시 중구 정동길 21-18,정동공원
360,126525,서울 선릉과정릉 [유네스코 세계유산],12,1,37.5074206801,127.0471803291,서울특별시 강남구 선릉로100길 1,
377,126520,서울 풍납동 토성,12,1,37.5375629524,127.1209255392,서울특별시 송파구 풍납동,72-1
383,1845253,"서울교통공사 차량기지(신정, 수서, 천왕기지)",12,1,37.5625755656,127.0572167398,서울특별시 성동구 천호대로 346,
395,126490,서울어린이대공원,12,1,37.5494219613,127.0807288607,서울특별시 광진구 능동로 216,(능동)
398,1164746,서울풍물시장 전통문화체험관,12,1,37.5730932173,127.0254887761,서울특별시 동대문구 천호대로4길 21,(신설동)
423,2553876,세운상가,12,1,37.5692681185,126.9952249747,서울특별시 종로구 청계천로 159,(장사동)
456,605445,승동교회,12,1,37.5712538383,126.9863146199,서울특별시 종로구 인사동길 7-1,(인사동)
490,126823,압구정 로데오거리,12,1,37.5268766055,127.0388971983,서울특별시 강남구 압구정동,일대
526,749355,영등포 신길동 홍어거리,12,1,37.5105456646,126.9115453697,서울특별시 영등포구 신길로 200-20,(신길동)
527,1603237,영등포근린공원,12,1,37.51531732,126.9108425219,서울특별시 영등포구 신길로 275,(영등포동)
530,596259,예지원,12,1,37.5515258689,127.002658134,서울특별시 중구 장충단로 72,(장충동2가)
534,3085458,오동근린공원 유아숲체험장,12,1,37.6322281396,127.0327447666,서울특별시 강북구 번동,산17-14
535,2778135,오류동역광장,12,1,37.4947462778,126.8430103921,서울특별시 구로구 경인로20나길 17,(오류동)
557,126499,용산가족공원,12,1,37.520106972,126.9845717812,서울특별시 용산구 서빙고로 185,
571,3065955,우이동만남의광장,12,1,37.6618909066,127.007729537,서울특별시 강북구 우이동,186-5
579,1829821,유관순열사상,12,1,37.5329264215,127.0677499556,"서울특별시 광진구 능동로 18 (자양동, 이튼타워리버3차)",
596,1829827,의열사(용산),12,1,37.5452647296,126.9605427036,서울특별시 용산구 효창원로 177-18,
597,2667611,이대거리,12,1,37.5579323782,126.9424606606,서울특별시 서대문구 대현동,(대현동)
601,2591829,이씨레물리노공원(구로근린공원),12,1,37.4970135079,126.8894255436,서울특별시 구로구 가마산로25길 21,(구로동)
605,970636,이촌한강공원,12,1,37.5178736527,126.9708647593,서울특별시 용산구 이촌로72길 62,(이촌동)
611,2401910,이태원 이슬람거리,12,1,37.5334001039,126.9975035607,서울특별시 용산구 우사단로,일대
622,3043794,자라나는 숲(광진숲 나루 전망대),12,1,37.5475808166,127.0977856934,서울특별시 광진구 광장동,401-14
623,331506,자매공원(앙카라공원),12,1,37.5180729154,126.9310100514,서울특별시 영등포구 여의대방로 372-1,(여의도동)
636,753954,전주이씨광평대군파묘역,12,1,37.4869238843,127.0930295156,서울특별시 강남구 광평로31길 20,(수서동)
638,1604580,전통염료식물원,12,1,37.5241397623,126.9804026025,서울특별시 용산구 서빙고로 137,(용산동6가)
659,127558,진관사(서울),12,1,37.6380064804,126.9469052095,서울특별시 은평구 진관길 73,
668,127642,창덕궁과 후원 [유네스코 세계유산],12,1,37.5809583673,126.9919888278,서울특별시 종로구 율곡로 99,(와룡동)
675,3060931,천마근린공원,12,1,37.5004373909,127.1588287023,서울특별시 송파구 성내천로35길 53 (마천동),
697,1364975,충무공 이순신 동상,12,1,37.5724868597,126.9769182186,서울특별시 종로구 세종대로 175,(세종로)
722,3081993,플레이스콤마,12,1,37.5377626741,126.7965828625,서울특별시 강서구 오정로 375 (오쇠동),
757,486685,호압사(서울),12,1,37.452544314,126.9253457441,서울특별시 금천구 호암로 278,(시흥동)
797,761181,SK텔레콤 미래기술체험관 T.um(티움),12,1,37.566396053,126.9853648438,서울특별시 중구 을지로 65,(을지로2가) SK T-타워
803,130233,가톨릭대학교 성신교정도서관,14,1,37.5859580079,127.0043347827,서울특별시 종로구 창경궁로 296-12,(혜화동)
832,2642151,갤러리JJ,14,1,37.5183635167,127.0284206157,서울특별시 강남구 논현로 745,(논현동)
840,130232,건국대학교 상허기념도서관,14,1,37.5428781974,127.0763072274,서울특별시 광진구 능동로 120,
850,2764310,고당기념관,14,1,37.5655129077,126.9901283238,서울특별시 중구 수표로 48-2,(저동2가)
856,130924,관세박물관,14,1,37.5181775216,127.0336451451,서울특별시 강남구 언주로 721,
877,130231,국립극장,14,1,37.5527228971,126.9996333755,서울특별시 중구 장충단로 59,(장충동2가)
878,3012859,국립극장 공연예술박물관,14,1,37.551800789,127.0000222551,서울특별시 중구 장충단로 59 (장충동2가),
879,3038260,국립기상박물관,14,1,37.5696203417,126.9666303489,서울특별시 종로구 송월동 1-1 국립기상박물관,
887,130173,국립현대미술관 덕수궁,14,1,37.5657876002,126.9748047119,서울특별시 중구 세종대로 99,
891,2764516,국토발전전시관,14,1,37.5668679459,126.9701134429,서울특별시 중구 정동길 18,(정동)
911,699241,김대중도서관,14,1,37.5569933677,126.9295757507,서울특별시 마포구 신촌로4길 5-26,(동교동)
932,2762852,농업박물관,14,1,37.5668984662,126.9683386037,서울특별시 중구 새문안로 16,(충정로1가)
933,129921,다도화랑,14,1,37.5229879379,127.0260901416,서울특별시 강남구 논현로159길 24,(신사동)
946,1849416,대한민국역사박물관,14,1,37.5739117094,126.9777819886,서울특별시 종로구 세종대로 198,(세종로)
949,736766,더페이지갤러리,14,1,37.5456689391,127.0428990795,서울특별시 성동구 서울숲2길 32-14,"(성수동1가,갤러리아 포레)"
959,130851,동림매듭공방,14,1,37.5817914891,126.9856032749,서울특별시 종로구 북촌로12길 10,
964,509267,두산갤러리,14,1,37.5718095925,127.0009799341,서울특별시 종로구 종로33길 15,(연지동)
989,3074742,마이아트뮤지엄,14,1,37.507643118,127.0605957683,서울특별시 강남구 테헤란로 518 한국섬유산업연합회,섬유센터빌딩 B1층
1010,3338707,뮤지엄한미 삼청,14,1,37.5883350888,126.9808924077,서울특별시 종로구 삼청로9길 45 (삼청동),
1014,3013185,바탕골소극장,14,1,37.5819112248,127.0025878347,서울특별시 종로구 동숭동,
1045,3082034,삼모아트센터,14,1,37.4823659172,126.9290390137,서울특별시 관악구 신원로 35 (신림동),삼모 더 프라임 타워 8층
1057,130448,서대문자연사박물관,14,1,37.5767495528,126.9378522148,서울특별시 서대문구 연희로32길 51,
1065,130198,서울국가무형문화재전수회관,14,1,37.5102008674,127.0446443698,서울특별시 강남구 봉은사로 406,(삼성동)
1069,130170,서울대학교 규장각,14,1,37.4639934641,126.9522096436,서울특별시 관악구 관악로 1,
1090,1845410,서울에너지드림센터,14,1,37.5630864227,126.8914679417,서울특별시 마포구 증산로 14,
1117,2751303,서울특별시교육청과학전시관 남부분관,14,1,37.4965940424,126.8854898029,서울특별시 구로구 구로중앙로27나길 21,(구로동)
1119,2773340,서울혁신파크,14,1,37.6088179801,126.9341710877,서울특별시 은평구 통일로 684,(녹번동)
1132,3043911,성북선잠박물관,14,1,37.5932848247,126.9982351308,서울특별시 성북구 성북로 96 (성북동),
1139,3080582,세실아트홀,14,1,37.5281929927,127.0318533579,서울특별시 강남구 언주로173길 20 (신사동),
1151,1799798,손기정기념관,14,1,37.556907925,126.9663390685,서울특별시 중구 손기정로 101,(만리동2가)
1158,2465130,송파여성문화회관,14,1,37.50592198,127.1097385677,서울특별시 송파구 백제고분로42길 5,(송파동)
1204,3335564,양천공원 책쉼터,14,1,37.5185800701,126.8682935295,서울특별시 양천구 목동동로 135 (신정동),서울 양천구 목동동로 111 양천공원 책쉼터
1215,130406,연우소극장,14,1,37.5869800652,127.0017377683,서울특별시 종로구 창경궁로35길 21,
1218,3082184,영등포아트홀,14,1,37.5260603248,126.9001237514,서울특별시 영등포구 국회대로 596 (당산동3가),영등포구민회관 내 영등포아트홀
1254,2739477,윤동주문학관,14,1,37.5921816175,126.9671657723,서울특별시 종로구 창의문로 119,(청운동)
1274,3056222,인사센트럴뮤지엄,14,1,37.574520076,126.9835675554,서울특별시 종로구 인사동길 49 (관훈동),B1
1278,231960,일본공보문화원,14,1,37.5768198642,126.9866477648,서울특별시 종로구 율곡로 64,(운니동)
1280,3013173,일신홀,14,1,37.5372192491,127.0055304997,서울특별시 용산구 한남동,
1298,130972,주한 프랑스문화원,14,1,37.5594938643,126.9735272291,서울특별시 중구 칠패로 42,
1307,719514,지식재산전문도서관,14,1,37.500135159,127.0329540519,서울특별시 강남구 테헤란로 131 한국지식재산센터,3층
1332,3080738,콘텐츠박스,14,1,37.5808113818,127.0041960524,서울특별시 종로구 동숭길 55 (동숭동),대학빌딩 B1
1350,2745583,플로팅아일랜드,14,1,37.5125052818,126.9959959554,서울특별시 서초구 올림픽대로 2085-14,(반포동)
1353,3085036,픽스굿 갤러리,14,1,37.6081464015,126.9656987868,서울특별시 종로구 평창11길 29 (평창동),
1372,3012716,한생연융합교육과학관,14,1,37.5892797098,126.9968353725,서울특별시 종로구 성균관로15길 32 (명륜1가),
1394,2762802,화폐박물관,14,1,37.5622047772,126.9800071179,서울특별시 중구 남대문로 39 (남대문로3가),
1406,2998565,High Street Italia (하이 스트리트 이탈리아),14,1,0.0,0.0,서울특별시 강남구 가로수길 69 엘큐브,elcube
1414,2773265,K현대미술관,14,1,37.5243519026,127.0391111394,서울특별시 강남구 선릉로 807,(신사동)
1418,3047617,MUSEUM 209,14,1,37.5139237687,127.1063803122,서울특별시 송파구 잠실로 209 (신천동),소피텔 앰배서더 호텔 3층
1426,1062450,SJ쿤스트할레,14,1,37.5205189389,127.0349227401,서울특별시 강남구 언주로148길 5,(논현동)
1427,3082213,TCC아트센터,14,1,37.5293654023,126.8949019125,서울특별시 영등포구 국회대로 539 (당산동4가),
1436,3014730,강북 캠퍼스 피크닉,15,1,37.6339636993,127.0133270431,서울특별시 강북구 인수봉로 159 (수유동),한신대학교 서울캠퍼스
1437,3114696,강북구 어린이날 축제,15,1,37.619724251,127.0445440464,서울특별시 강북구 월계로 173 (번동),
1440,3348515,건군 76주년 국군의 날,15,1,37.5416099454,126.9798799337,서울특별시 용산구 두텁바위로 54-99 (용산동2가),
1456,2756476,국가유산 조선왕릉축전,15,1,37.6323396298,127.2080371233,경기도 남양주시 홍유릉로 352-1 (금곡동),
1464,3324913,글로벌 라틴문화 페스티벌,15,1,37.5560322859,126.9249734186,서울특별시 마포구 어울마당로 136 (서교동),마포구 홍대 레드로드R2광장무대
1473,2657111,대한민국 청년미술축제: 아트그라운드 서울,15,1,37.5177178854,126.9580520415,서울특별시 용산구 양녕로 445 (이촌동),"노들갤러리 1관, 2관"
1476,2554931,댄싱노원 거리페스티벌,15,1,37.6553315254,127.0614081608,서울특별시 노원구 동일로 1414 롯데백화점,노해로 일원(롯데백화점 앞 - 순복음교회앞)
1477,3301089,더 라이프 스타일 박람회,15,1,37.4960890861,127.0707673919,서울특별시 강남구 남부순환로 3104 (대치동),
1490,2755544,릴랙스위크,15,1,37.4960890861,127.0707673919,서울특별시 강남구 남부순환로 3104 SETEC,(온라인 축제)
1491,3114538,매직드로잉 가족극 〈두들팝〉,15,1,37.5498911308,126.9136829551,"서울특별시 마포구 양화로 45 (서교동, 메세나폴리스)",
1504,3087397,별난주류여행,15,1,37.4996902526,127.0043094496,서울특별시 서초구 반포대로 222 (반포동),가톨릭성모병원 옴니버스파크
1508,2503125,브릿지워크한강,15,1,37.5445580545,126.8933655127,서울특별시 영등포구 노들로 113 양화개나리점,
1513,1847202,서대문독립축제,15,1,37.5746723659,126.9573421635,서울특별시 서대문구 통일로 251 (현저동),"서대문형무소역사관, 독립공원"
1515,2833059,서울 버스커 페스티벌,15,1,37.5177178854,126.9580520415,서울특별시 용산구 양녕로 445,노들섬
1523,706180,서울거리예술축제,15,1,37.5661348341,126.9777044385,서울특별시 중구 태평로1가,54-2
1524,2616325,서울국악축제,15,1,37.5773532075,126.9906584954,서울특별시 종로구 율곡로 102 (와룡동),
1542,2728896,서울스트리트댄스페스티벌,15,1,37.5581279115,126.8492608192,서울특별시 강서구 화곡로63길 65 (등촌동),"스카이아트홀 B1, B2"
1544,626944,서울억새축제,15,1,37.5675357894,126.8850267365,서울특별시 마포구 하늘공원로 95,월드컵공원 하늘공원
1550,142193,서울프린지페스티벌,15,1,37.5647227888,126.9163739577,"서울특별시 마포구 성미산로13길 84-3 (성산동, 함께주택4호)",101호
1563,2659594,세텍메가쇼 2022 시즌2,15,1,37.4957363721,127.0719811806,서울특별시 강남구 남부순환로 3104,(대치동)
1574,3045064,썬셋&썬라이즈워크,15,1,37.5511700886,126.9878733796,서울특별시 용산구 남산공원길 105 (용산동2가),
1579,2540520,양재천 벚꽃 등(燈) 축제,15,1,37.4766658159,127.0415289351,서울특별시 서초구 양재동,261-23
1583,3018712,얼루어 뷰티 페어,15,1,37.5476801133,127.0594252952,서울특별시 성동구 아차산로9길 41 (성수동2가),
1586,3354906,"연화, 설렘의 빛",15,1,37.5825967266,126.9730738387,서울특별시 종로구 효자로13길 45 (효자동),
1598,3091113,운현궁 설맞이 민속 한마당,15,1,37.575822761,126.986825555,서울특별시 종로구 삼일대로 464 (운니동),
1601,2671838,웰컴 대학로,15,1,37.5819417723,127.002329524,서울특별시 종로구 대학로 120,대학로 일대
1606,3000221,은평청년축제,15,1,37.6037767873,126.9278940249,서울특별시 은평구 녹번로 16 은평문화예술회관,은평문화예술회관
1608,790211,장애인문화예술축제 A+ Festival,15,1,37.5839799278,126.9746792089,서울특별시 종로구 청와대로 1 청와대,청와대 헬기장 및 춘추관
1610,142233,정동문화축제,15,1,37.5670957913,126.9753629579,서울특별시 중구 정동,(세종대로 19길 124)
1613,2753086,정신건강축제 - 내 마음을 가꾸는 정원,15,1,37.5542907868,126.9230347562,서울특별시 마포구 홍익로 18,
1617,3331111,제 1회 강남구 테헤란밸리 과학축제,15,1,37.4982186324,127.0283239716,서울특별시 강남구 강남대로 지하396 (역삼동),
1624,2911183,제38회 서울국제화장품·미용산업박람회 (2024 코스모뷰티서울),15,1,37.5119175967,127.059217995,서울특별시 강남구 영동대로 513 (삼성동),
1628,3348418,제로플 페스타,15,1,37.5316487745,127.0667500827,서울특별시 광진구 능동로 10 (자양동),
1633,2818837,종묘 묘현례,15,1,37.5710345779,126.9951471543,서울특별시 종로구 종로 157 (훈정동),
1635,3116057,중앙아시아 봄맞이축제,15,1,37.5692400356,126.9780820941,서울특별시 중구 태평로1가,1 청계광장
1642,2845946,"청춘, 커피페스티벌",15,1,37.5142459111,127.1040305171,서울특별시 송파구 올림픽로 300 롯데월드타워앤드롯데월드몰,서울 롯데월드타워 잔디광장
1647,3115909,코리아뷰티페스티벌,15,1,37.5640962986,126.9842011262,서울특별시 중구 명동길 35 (명동1가),
1649,3355712,풍납야시장,15,1,37.5373129844,127.1210921979,서울특별시 송파구 바람드리길 50 (풍납동),
1653,3111722,한강역사탐방,15,1,37.5263997727,126.9336095794,서울특별시 영등포구 여의동로 330 (여의도동),한강사업본부 여의도안내센터
1657,1799084,한국국제걷기대회,15,1,37.4776699781,127.1249713174,서울특별시 송파구 충민로 66,
1659,507531,한성백제문화제,15,1,37.5206092598,127.1150682209,서울특별시 송파구 올림픽로 424 올림픽공원,올림픽공원 평화의 광장
1667,3031258,2023 도서관 정책세미나,15,1,37.4976821568,127.0045483736,서울특별시 서초구 반포대로 201 (반포동),국제회의장
1669,2479634,2023 제20회 대한민국향토식문화대전(&남북음식문화축제),15,1,37.467391878,127.0407514903,서울특별시 서초구 강남대로 27 AT센터,제1전시장
1682,2563502,2024 대한민국 미술축제,15,1,37.5766118212,127.0014686424,서울특별시 종로구 대학로 57 (연건동),
1692,1539730,2024 이럴때 이런음악 해설이 있는 청소년음악회,15,1,37.5293048356,126.9249269552,서울특별시 영등포구 여의공원로 101 C.C.M.M빌딩,국민일보 빌딩 지하2층 영산아트홀
1693,293047,2024 인사동 엔틱&아트페어,15,1,37.574520076,126.9835675554,서울특별시 종로구 인사동길 49,
1705,1800991,4·19혁명국민문화제,15,1,37.6393938461,127.025670208,서울특별시 강북구 도봉로89길 13 (수유동),
1708,3347800,BEE PLACE <꿀벌의 Bee행 - 꿀벌아 돌아와!>,15,1,37.5655015943,126.9787960237,서울특별시 중구 을지로 지하12 (을지로1가),
1713,2968672,DDP 봄축제 : 디자인 동물원,15,1,37.566107632,127.0095709797,서울특별시 중구 을지로 281,
1716,3300357,FEALAC 25주년 기념 특별전,15,1,37.5716786179,126.9767821434,서울특별시 종로구 세종대로 지하172 (세종로),
1727,2384832,"가정의 달, 싱글을 위한 혼자 먹는 밥상 코스",25,1,37.5071013134,127.0494329104,,
1728,1920568,강북의 오래된 길을 따라 걷다,25,1,37.5985313567,126.9937770548,,
1729,1952962,경복궁 북쪽마을 북촌 즐기기,25,1,37.576072552,126.9768042386,,
1730,1920563,고풍스러움이 흐르는 북촌,25,1,37.57853359,126.9886864194,,
1731,1952975,과거와 현재의 시간이 겹쳐진 부암동길,25,1,37.5711257558,126.9685023578,,
1732,1952978,궁의 북쪽 자하문 돌아보기,25,1,37.5801859611,126.9767235747,,
1733,1951266,남산 자락 딸각발이를 만나러 가는 길,25,1,37.5581224015,127.0069353346,,
1734,1921815,남산을 중심으로 문화놀이,25,1,37.5591248302,126.9940059289,,
1735,2022929,"낮이 좋아? 밤이 좋아? 서울의 주경, 야경 여행코스",25,1,37.5759947835,126.9768292386,,
1736,1915423,도시의 고풍스러운 정취를 즐기다,25,1,37.5745534411,126.9855423744,,
1737,1886054,동대문 주변에서 만나는 역사의 현장,25,1,37.5760366281,126.9869922,,
1738,1915680,동대문 투어하기,25,1,37.5704793121,127.0076821392,,
1739,1951234,명동에서 이태원까지 서울의 낭만을...,25,1,37.5635547287,126.9860954133,,
1740,1915410,미술관과 아쿠아리움으로 떠나는 힐링 여행,25,1,37.5380968058,126.998894968,,
1741,1977723,북서울 꿈의 숲과 불암산에 올라 야경을 보다,25,1,37.6398362118,127.0673163977,,
1742,1953116,북촌을 중심으로 한 조선시대 생활 이야기,25,1,37.5812776131,126.9829674185,,
1743,1920559,빌딩 숲 강남 속에서 찾은 힐링,25,1,37.5071013134,127.0494329104,,
1744,1951271,사라진 성곽길을 따라 걷기,25,1,37.5760281134,126.976843125,,
1745,1977713,서울 양천구 서서울호수공원 코스,25,1,37.5270728494,126.8302467593,,
1746,1916658,서울 용산을 중심으로 알차게 하루 즐기기,25,1,37.5205154388,126.9946597403,,
1747,2385683,서울 해방촌의 이국적인 맛집을 찾아서,25,1,37.5447207531,126.9831045523,,
1748,2381373,서울시티투어 버스를 이용하면 서울여행이 쉬워진다,25,1,37.56914839,126.9786320464,,
1749,2036023,서울에서 전통주 체험을 할 수 있는 곳,25,1,37.5825022938,126.9731155042,,
1750,1977716,서울의 거리에 핀 세계의 멋과 맛 서래마을 탐방,25,1,37.4978236945,126.9982989386,,
1751,1914507,"서울의 놀거리, 볼거리를 하루에",25,1,37.5936514246,126.9968658003,,
1752,1951225,서울의 대문 숭례문과 그 주변의 사람들을 찾아,25,1,37.5599855058,126.9752992762,,
1753,1889328,서울의 랜드마크를 만나다,25,1,37.5554275981,126.9694943782,,
1754,1977718,서울의 상수동 이색골목 탐방,25,1,37.5600788565,126.9148464502,,
1756,2050509,서울의 아름다운 밤을 바라보다.,25,1,37.5673630692,127.0110958057,,
1757,1952958,서울의 역사 중심지를 걷다,25,1,37.5779914638,126.9595474247,,
1759,2030911,서촌에서 즐기는 즐거운 맛산책,25,1,37.5792026787,126.9732044783,,
1760,1953117,"성북동 마을과 고택, 예술가들의 이야기",25,1,37.5936180014,126.9916579427,,
1761,1953120,성북동 마을과 문화 유적 이야기,25,1,37.5985313567,126.9937770548,,
1762,1953121,성안 마을 혜화동의 어제와 오늘,25,1,37.5808974491,127.0022962231,,
1763,2390486,세련됨에 깃든 촌스러움이 정겹다. 부암동,25,1,37.5927259859,126.9664408229,,
1764,1977724,여의도 샛강을 따라 걷는 길,25,1,37.5189615106,126.9203498862,,
1766,1915719,오래된 시장의 북적임과 들꽃이 가득한 홍릉수목원에서 하루를 보내다,25,1,37.5790788412,127.0370542189,,
1767,2390484,잠실 관광특구 코스,25,1,37.5158429077,127.1017973416,,
1768,2037723,조선의 왕들이 지극히 아끼던 공간,25,1,37.5809583673,126.9919888278,,
1769,1914505,청계천을 돌아 경복궁에서 인사동까지,25,1,37.5691567219,126.9786237129,,
1770,1952971,청와대 앞 코스 돌아보기,25,1,37.5756364926,126.9768570246,,
1771,2383723,"태조 이성계, 조선을 건국하고 종묘와 사직을 세우다",25,1,37.5756752063,126.9673551116,,
1772,1951228,한양도성 남산 도시 숲부터 남대문 시장까지,25,1,37.5516394747,126.9876206116,,
1773,1953123,한양도성 안 궁궐과 학교이야기,25,1,37.6017918513,126.98052817,,
1774,1889319,한양의 500년 도읍을 거닐다,25,1,37.5745534411,126.9855423744,,
1775,2018415,혼자만의 시간이 필요할 때 떠나는 도심 속 나홀로 여행,25,1,37.5729669793,126.9557284701,,
1776,2590223,3·1운동의 정신을 느껴보는 서울 여행,25,1,37.5752811449,126.9861478542,,
1777,2038266,600년 역사의 재미난 스토리가 흐르는 골목,25,1,37.5790640424,126.9863810591,,
1778,2044565,‘충혼’의 수양벚꽃 마중하는 호젓한 꽃길,25,1,37.5013561691,126.9732511193,,
1781,131140,강서청소년회관,28,1,37.556480792,126.8442724314,서울특별시 강서구 공항대로42길 23-19,
1788,131617,관악구민운동장,28,1,37.4751755932,126.9574616287,서울특별시 관악구 낙성대로 40,(봉천동)
1791,3080519,광나루한강공원 광나루모형비행장,28,1,37.5404099326,127.1258333443,서울특별시 강동구 구천면로 192 (천호동),
1794,131519,그랜드하얏트 서울 아이스링크,28,1,37.5397493436,126.9962146098,서울특별시 용산구 소월로 322,
1795,131956,금호스포츠센터,28,1,37.6571563395,127.0628607539,서울특별시 노원구 상계로5길 32,
1797,3057076,난지한강공원물놀이장,28,1,37.5630252055,126.8851546298,서울특별시 마포구 한강난지로 162 (상암동),난지 한강공원 물놀이장
1798,2778449,남산국치길,28,1,37.5638965634,126.9976165758,서울특별시 중구,(회현동2가)
1801,2773417,다이브라이프,28,1,37.4881278323,127.011334137,서울특별시 서초구 반포대로20길 27,(서초동)
1803,2753381,더클라임,28,1,37.4852369419,127.0359069822,서울특별시 강남구 남부순환로 2615,"(도곡동,극동스타클래스) 지하1층"
1805,3076152,더클라임 마곡점,28,1,37.5606079049,126.8339038169,서울특별시 강서구 마곡동로 62 (마곡동),마곡사이언스타워 7층
1808,2946635,레전드히어로즈 잠실롯데월드몰점,28,1,37.5142459111,127.1040305171,서울특별시 송파구 신천동 29 롯데월드타워앤드롯데월드몰,3층
1809,3060926,롤퀸롤러장,28,1,37.5931074437,127.0191498961,서울특별시 성북구 동소문로20나길 47 (동선동1가),
1810,2768087,롤파크,28,1,37.5710121125,126.9814539585,서울특별시 종로구 종로 33,그랑서울 타워[1] 3층 롤파크
1815,3060929,마천청소년센터,28,1,37.4923910635,127.1566596841,서울특별시 송파구 성내천로 319 (마천동),마천청소년수련관
1821,1354065,"목동운동장(목동아이스링크,사격장)",28,1,37.5301456356,126.8819114075,서울특별시 양천구 안양천로 939,(목동)
1824,131136,문래청소년수련관,28,1,37.5188582745,126.8940106221,서울특별시 영등포구 문래로 110,(문래동3가)
1830,2763827,불암산종합스타디움,28,1,37.6388088412,127.0832594181,서울특별시 노원구 중계로 36,(공릉동)
1834,3060933,서서울호수공원물놀이장,28,1,37.5265729518,126.8327243255,서울특별시 양천구 남부순환로64길 26 (신월동),신월야구장
1835,130997,서울 YMCA 사회체육부,28,1,37.5704816924,126.9855674875,서울특별시 종로구 종로 69,(종로2가)
1839,1362516,서울마리나 요트&클럽,28,1,37.5348539529,126.9116252334,서울특별시 영등포구 여의서로 160,
1844,2743751,서울윈드서핑장,28,1,37.5268578839,127.0789852161,서울특별시 광진구 강변북로 2140,(자양동)
1845,1093200,서울종합운동장(잠실종합운동장),28,1,37.5148536263,127.0736415981,서울특별시 송파구 올림픽로 25,(잠실동)
1847,131408,서울특별시립 보라매청소년수련관,28,1,37.4906564343,126.9186119526,서울특별시 동작구 여의대방로20길 33,
1854,2674989,송정제방길,28,1,37.5546322529,127.0688131313,서울특별시 성동구 송정18가길 23-7,(송정동)
1855,3074766,슈터스클럽,28,1,0.0,0.0,,서울 강남구 강남대로96길 5 1층
1857,2782741,스포츠 360 플레이,28,1,37.5209871362,127.1229758237,서울특별시 송파구 올림픽로 424,(방이동)
1860,3351706,안산자락길,28,1,37.5712447878,126.9462682702,서울특별시 서대문구 봉원사길 75-66 (봉원동),봉원동 산2-1
1861,2591870,안양천 물놀이장,28,1,37.5065399201,126.874898822,서울특별시 구로구 경인로53길 127,
1864,2612154,양천구 둘레길(하천형),28,1,37.5115920667,126.8724127952,서울특별시 양천구 안양천로 711,(신정동)
1865,131727,어린이회관 눈썰매장,28,1,37.5459390073,127.0792846475,서울특별시 광진구 광나루로 441,(능동)
1869,595579,역삼청소년수련관(실내수영장),28,1,37.4940137916,127.0409618292,서울특별시 강남구 논현로64길 7,
1873,2758179,올림픽공원체조경기장,28,1,37.5209871362,127.1229758237,서울특별시 송파구 올림픽로 424,(방이동)
1874,131122,올림픽기념국민생활관,28,1,37.5905434879,126.9988407089,서울특별시 종로구 성균관로 91,(혜화동)
1875,2783318,와이키키레저,28,1,37.5589618514,126.8886655357,서울특별시 마포구 마포나루길 332,(상암동)
1877,2908314,우이동 가족캠핑장,28,1,37.6655461049,127.0115096437,서울특별시 강북구 삼양로181길 28 우이동 가족캠핑장 방문자센터,
1880,2757125,인서울27 골프클럽,28,1,37.5467727233,126.7957910157,서울특별시 강서구 오정로 443-198,(오곡동)
1897,131021,파라다이스 카지노 워커힐,28,1,37.5552218298,127.1107898477,서울특별시 광진구 워커힐로 177,쉐라톤워커힐 지하 1층
1904,131317,한강시민공원 여의도수영장(실외),28,1,37.5263886632,126.933612357,서울특별시 영등포구 여의동로 330,(여의도동)
1905,131318,한강시민공원 잠실수영장(실외),28,1,37.5176813118,127.0867514361,서울특별시 송파구 한가람로 65,
1907,3076230,한국체육대학교 실내빙상장,28,1,37.51751547,127.1314279315,서울특별시 송파구 양재대로 1239 (방이동),
1914,2535964,scg스포츠아카데미,28,1,37.6375893423,126.9179134227,서울특별시 은평구 통일로 1050,(진관동)
1916,1037020,[북악하늘길 2산책로] 하늘교~성북천발원지,28,1,37.6072052078,126.9859330794,서울특별시 성북구 성북동,
1917,1037027,[북악하늘길 3산책로] 북카페~숲속다리,28,1,37.6068219183,126.9858969827,서울특별시 성북구 성북동,
1920,1195655,[북한산 둘레길] 1 소나무숲길,28,1,37.6632297153,127.0119318925,서울특별시 강북구 삼양로173길 12,
1924,1196871,[북한산 둘레길] 4 솔샘길,28,1,37.6210484201,127.0069335488,서울특별시 성북구 솔샘로25길 121-50,(정릉동)
1925,1196886,[북한산 둘레길] 5 명상길,28,1,37.618559636,126.9966845547,서울특별시 성북구 정릉4동,(정릉동)
1926,1196890,[북한산 둘레길] 6 평창마을길,28,1,37.6148931265,126.9817138016,서울특별시 종로구 평창동,(평창동)
1930,1964911,[서울둘레길 1코스] 수락·불암산코스,28,1,37.6892273143,127.0465613247,서울특별시 노원구 중계동,산38-1
1931,1964912,[서울둘레길 2코스] 용마·아차산코스,28,1,37.6199221638,127.0841209895,서울특별시 노원구 화랑로 지하 510,(공릉동)
1934,1964922,[서울둘레길 5코스] 관악산코스,28,1,37.4747344068,126.9814372361,서울특별시 관악구 과천대로 941,(남현동)
1947,2950469,고운[한국관광 품질인증/Korea Quality],32,1,37.5830052419,126.9858393299,서울특별시 종로구 북촌로12길 35-1,
1968,2487684,남산호스텔,32,1,37.5580831159,126.9846040375,서울특별시 중구 퇴계로18길 67,(남산동2가)
1971,3337233,노보텔 앰배서더 서울 동대문 호텔 & 레지던스,32,1,37.5663519553,127.0043936669,서울특별시 중구 을지로 238 (을지로6가),
1977,2570238,능마루게스트하우스(Nungmaru Guesthouse),32,1,37.558783047,126.9852928439,서울특별시 중구 퇴계로20나길 2-15,(남산동2가)
1993,143005,동화킴스관광호텔,32,1,37.6095047467,126.9751367762,서울특별시 종로구 평창문화로 136,(평창동)
2008,2950473,락이당[한국관광 품질인증/Korea Quality],32,1,37.582785839,126.9867475868,서울특별시 종로구 계동길 121 121북촌,
2010,2586384,레스케이프 호텔 (L’Escape Hotel),32,1,37.5597189467,126.9795572285,서울특별시 중구 퇴계로 67,
2011,2576453,레이지폭스,32,1,37.5535740414,126.9139772681,서울특별시 마포구 양화로7길 66,(서교동) 3층
2013,3080539,렉스관광호텔,32,1,37.5144221668,127.020546444,서울특별시 강남구 강남대로 588 (논현동),
2014,142979,렉스호텔,32,1,37.5587135331,126.98096824,서울특별시 중구 퇴계로10길 23,
2015,3076237,로사나부티크호텔,32,1,37.5060550786,127.0975757814,서울특별시 송파구 삼학사로 98 (석촌동),
2016,2569543,로얄 홈스테이(로얄홈스테이),32,1,37.4748123521,126.9912835604,서울특별시 서초구 남부순환로 2183,"(방배동,방배래미안타워) 201동302호"
2031,2650639,리버사이드게스트하우스,32,1,37.5329878783,127.0873259497,서울특별시 광진구 뚝섬로 702-4,(자양동)
2054,2010907,베니키아 프리미어 호텔 베르누이,32,1,37.4974237964,126.845962826,서울특별시 구로구 경인로 229,(오류동)
2064,1871595,북촌마루 한옥 게스트하우스 [한국관광 품질인증/Korea Quality],32,1,37.5831719196,126.9875558355,서울특별시 종로구 창덕궁길 152,
2078,2570293,서울 타이완 게스트하우스,32,1,37.5581885778,126.9800488938,서울특별시 중구 퇴계로10길 20-18,(회현동1가)
2079,142734,서울신라호텔,32,1,37.5559337349,127.0051688913,서울특별시 중구 동호로 249,(장충동2가)
2083,2569150,서울이야기 한옥(서울이야기한옥게스트하우스),32,1,37.577005917,126.9846035015,서울특별시 종로구 율곡로5길 3-19,(안국동)
2086,2608045,서울타이완게스트하우스,32,1,37.5582191323,126.980212767,서울특별시 중구 퇴계로10길 20-14,(회현동1가)
2091,3103194,석촌별채,32,1,37.5116685416,127.1100939275,서울특별시 송파구 오금로17길 5-25 (방이동),
2092,3102210,선음재,32,1,37.5850966614,126.9856309563,서울특별시 종로구 북촌로 94-14 (가회동),선음재
2095,2650656,세화호스텔[한국관광 품질인증/Korea Quality],32,1,37.5747868333,126.9903308202,서울특별시 종로구 삼일대로32가길 50,
2114,2620077,시민의 집 민박,32,1,37.5046967527,127.089218247,서울특별시 송파구 삼전로8길 4-21,(삼전동) 501호
2122,3072227,아담한옥,32,1,37.5803885888,126.9696769883,서울특별시 종로구 필운대로6길 21 (통인동),
2131,2634181,아이올라2,32,1,37.5630425717,126.9244204938,서울특별시 마포구 동교로45길 3-6,(연남동)
2133,3056929,안테룸서울,32,1,37.5189189506,127.0252403337,서울특별시 강남구 도산대로 153 (신사동),
2156,3080826,오월호텔,32,1,37.5006324696,127.0410782986,서울특별시 강남구 언주로85길 27 (역삼동),
2175,3079777,이비스앰배서더 인사동,32,1,37.5743368685,126.9893920298,서울특별시 종로구 삼일대로30길 31 (익선동),
2187,142772,자이언트 호텔,32,1,37.5123645973,127.0497660645,서울특별시 강남구 봉은사로 459,(삼성동)
2193,2587214,제이한옥(JAY Hanok),32,1,37.582308127,126.9873364358,서울특별시 종로구 계동4길 9,(계동)
2200,136594,초콜릿,32,1,37.5293367694,126.8467646344,서울특별시 강서구 강서로5가길 24,
2206,3091256,컬리넌호텔 건대점,32,1,37.5506049478,127.0690660007,서울특별시 광진구 동일로 212 (군자동),
2213,1102250,코트야드 바이 메리어트 서울타임스퀘어,32,1,37.5172586345,126.9037292264,서울특별시 영등포구 영중로 15,
2219,2604229,타비야 게스트하우스,32,1,37.5680502343,126.9194291404,서울특별시 마포구 성미산로29길 29-8,(연남동)
2232,3044643,퍼즐스테이 하우스,32,1,37.6114856007,127.0045784804,서울특별시 성북구 솔샘로7길 40 (정릉동),
2237,3339644,포시즌스 호텔 서울 (광화문미래에셋호텔),32,1,37.5707509234,126.9754128499,서울특별시 종로구 새문안로 97 (당주동),
2252,1190304,하이서울유스호스텔,32,1,37.5251354876,126.9032234952,서울특별시 영등포구 영신로 200,
2255,2696383,한옥 201(Hanok 201),32,1,37.5805582961,126.9854144381,서울특별시 종로구 북촌로 40-3,(가회동)
2267,2528105,혜화1938 [한국관광 품질인증/Korea Quality],32,1,37.5895769306,126.99867964,서울특별시 종로구 성균관로16길 7,(명륜1가)
2279,142742,호텔 삼정,32,1,37.5086674298,127.0289347318,서울특별시 강남구 봉은사로 150,
2285,3080192,호텔GMS,32,1,37.5175448067,126.9090287349,서울특별시 영등포구 경인로 867 (영등포동3가),
2295,3080102,호텔베이 204(Hotel Bay204),32,1,37.6678519715,127.0436705321,서울특별시 도봉구 도봉로 710 (방학동),
2311,3080809,호텔페이토 삼성,32,1,37.5085040952,127.0587320249,서울특별시 강남구 테헤란로87길 9 (삼성동),
2341,2568938,Jeong's family(정스패밀리),32,1,37.5335103739,126.9512744357,서울특별시 용산구 효창원로8길 16,"(원효로4가,한성 한강수 아파트) 101동 903호"
2346,2907142,L7홍대,32,1,37.5558072531,126.9216848363,서울특별시 마포구 양화로 141 롯데호텔 L7홍대,
2351,2605482,Namsan Park House,32,1,37.5509283147,126.9803129643,서울특별시 용산구 두텁바위로69길 15-8,(후암동)303호
2353,2620120,PHILSTAY ETAEWON(필스테이 이태원 philstay itaewon),32,1,37.5357802833,126.9919567761,서울특별시 용산구 이태원로23길 32,(이태원동)
2356,3085304,Si호텔,32,1,37.4713247979,126.887895849,서울특별시 금천구 벚꽃로 182 (독산동),
2359,2576334,Tina`s Homestay,32,1,37.5059050538,127.0952287768,서울특별시 송파구 삼학사로19길 17,(삼전동) 5층
2360,2612236,Uncle Bo's Cozy Hut,32,1,37.5585653175,126.9245817161,서울특별시 마포구 월드컵북로2길 87,"(동교동,토우)202호"
2457,2910616,골든듀 롯데잠실,38,1,37.5123821225,127.0976311526,서울특별시 송파구 올림픽로 240,
2513,2894933,구호 한남점,38,1,37.5374719089,127.0005948309,서울특별시 용산구 이태원로 253,
2548,3306159,금박연,38,1,37.582655288,126.986172643,서울특별시 종로구 북촌로12길 24-12(가회동),
2575,2918284,꼼데가르송컬렉션현대무역점,38,1,37.5086679839,127.0597791462,서울특별시 강남구 테헤란로 517 3층,
2584,2912483,나무다움 롯데월드몰,38,1,37.5141653654,127.1040749597,서울특별시 송파구 올림픽로300,
2662,2924324,네이처컬렉션 광화문,38,1,37.5705176331,126.9763044417,"서울특별시 종로구 새문안로 105, ,1층(세종로,명현빌딩)",
2682,1030777,노스비치 (North Beach),38,1,37.5346221062,126.9931372569,서울특별시 용산구 이태원로 171,
2722,2923609,뉴에라현대목동점,38,1,37.5263292843,126.8747288364,서울특별시 양천구 목동동로257,
2757,2907205,다이소 신촌,38,1,37.5553658859,126.9355530292,서울특별시 마포구 신촌로 90,
2937,3306917,라이프워크,38,1,37.4782600918,126.8872262708,서울특별시 금천구 디지털로 185 (가산동),
3110,2908572,롯데백화점 간마점,38,1,37.4967859168,127.0534550587,서울특별시 강남구 도곡로 401,
3221,2924071,리버클레시컨대스타시티,38,1,37.5390535504,127.0712300203,서울특별시 광진구 능동로 92,
3245,3306215,린,38,1,37.4782600918,126.8872262708,서울특별시 금천구 디지털로 185 (가산동),
3312,3306287,메이크업포에버,38,1,37.4905482278,126.9249974851,서울특별시 관악구 봉천로 209 (봉천동),
3329,2910537,명동명약국,38,1,37.5638629408,126.9813263948,서울특별시 중구 남대문로7길 11102호,
3425,2907417,미스터서엔터테인먼트 주식회사,38,1,37.5617050195,126.9903173034,서울특별시 중구 수표로 5,
3437,3306174,밀라노 영등포로터리 지하쇼핑센터,38,1,37.516514329,126.9066734236,서울특별시 영등포구 경인로 843,영등포로터리지하쇼핑센터 16
3442,3307609,밀리밤 nc신구로,38,1,37.5012129024,126.8827871414,서울특별시 구로구 구로중앙로 152 (구로동),
3468,3307485,바쏘 nc신구로,38,1,37.5012129024,126.8827871414,서울특별시 구로구 구로중앙로 152 (구로동),
3470,2928936,바쏘 현대동대문,38,1,37.5687878415,127.0076821872,서울특별시 중구 장충단로13길 20,현대아울렛6층
3477,985232,박영숙요 (아틀리에서울),38,1,37.5733508125,126.9860812484,서울특별시 종로구 인사동길 30,
3775,2910043,서울파피루스,38,1,37.5685067916,126.9782987614,서울특별시 중구 세종대로 136,
3778,2477064,서촌나들이,38,1,37.5772389972,126.9720046434,서울특별시 종로구 자하문로 13,
3789,2925016,세계로약국 건대입구,38,1,37.5411810221,127.067944148,서울특별시 광진구 아차산로 219 삼영빌딩 1층,
3800,132218,세브도르 (Cep D'or),38,1,37.478954545,127.0474283341,서울특별시 강남구 언주로 431,
3820,3306130,소다 2001아울렛중계,38,1,37.6413416033,127.0679274101,서울특별시 노원구 동일로204가길 46 (중계동),
3844,2924015,쇼파드 롯데 잠실,38,1,37.5123821225,127.0976311526,서울특별시 송파구 올림픽로 240,
3965,3305411,시슬리,38,1,37.5687878415,127.0076821872,서울특별시 중구 장충단로13길 20 (을지로6가),
4250,3307443,에메필,38,1,37.4982186324,127.0283239716,서울특별시 강남구 강남대로 지하396,
4367,3307210,영지생각,38,1,37.567948858,126.8417473389,서울특별시 강서구 양천로 354 (가양동),
4388,2930414,오니츠카타이거 두타,38,1,37.5689100708,127.0088293006,서울특별시 중구 장충단로 275,지하1층21호
4457,1928475,올가홀푸드 방이점,38,1,37.5104023138,127.1263036,서울특별시 송파구 양재대로71길 4,(방이동)
4549,2922550,올리브영 보라매,38,1,37.4913286766,126.924108655,서울특별시 동작구 보라매로5가길 16,
4653,2922900,올리브영 은행나무사거리,38,1,37.4515885657,126.9083667608,서울특별시 금천구 금하로 705 (시흥동),
4883,1014424,이바돔 (아이파크몰점),38,1,37.5298527082,126.96485108,서울특별시 용산구 한강대로23길 55,
4925,2915550,입생로랑 롯데 본점,38,1,37.5654016461,126.981045821,서울특별시 중구 을지로 30,
4966,2911393,정관장 GS타워,38,1,37.5020822339,127.0373063786,"서울특별시 강남구 논현로 508, 1층",
5003,3306641,정호진,38,1,37.6146468109,127.0305315802,서울특별시 강북구 도봉로 62 (미아동),
5005,3306057,제로그램,38,1,37.5548915897,126.971746966,서울특별시 용산구 한강대로 405 (동자동),
5343,3307745,클라이드,38,1,37.4782600918,126.8872262708,서울특별시 금천구 디지털로 185 (가산동),
5409,3307155,탠디,38,1,37.6146468109,127.0305315802,서울특별시 강북구 도봉로 62 (미아동),
5461,2911786,톰포드여성 갤러리아,38,1,37.5279681978,127.0418357887,서울특별시 강남구 압구정로 407,
5469,3306079,튠,38,1,37.5406891747,127.0547314762,서울특별시 성동구 성수이로7가길 3 (성수동2가),
5577,3305890,폴로랄프로렌,38,1,37.6084530555,127.0287930253,서울특별시 성북구 길음동 20-1,
5709,2913952,하이마트 은평점,38,1,37.6006854125,126.9241027921,서울특별시 은평구 은평로 148,
5827,2927451,홈플러스 신내,38,1,37.615867253,127.0937535608,서울특별시 중랑구 신내로 201 (신내동),
5882,3305787,23에비뉴 강남역지하쇼핑센터,38,1,37.49866302,127.0280573169,서울특별시 강남구 테헤란로 101,강남역지하
5974,2913862,EW 뉴발란스 신림포도몰,38,1,37.4839046492,126.9302499714,서울특별시 관악구 신림로 330,
6078,2894158,LYNN 현대시티(아)동대문점,38,1,37.5687878415,127.0076821872,서울특별시 중구 장충단로13길 20,린코너(현대시티아울렛)
6137,2927567,SI 지컷 현대가든파이브,38,1,37.4776672007,127.1249768726,서울특별시 송파구 충민로 66,지컷
6237,402897,갯마을,39,1,37.523089704,126.9703535474,서울특별시 용산구 서빙고로 56,
6274,2685308,고모네원조콩탕,39,1,37.5297224671,127.1359632826,서울특별시 강동구 풍성로57길 13,
6292,2685311,고희,39,1,37.5801914329,126.9720795531,서울특별시 종로구 자하문로12길 17,
6391,2624898,까사빠보(구 호무랑),39,1,37.5609438324,126.9811237176,서울특별시 중구 소공로 63,
6420,581248,낙원(메이필드호텔),39,1,37.54788135,126.8194860451,서울특별시 강서구 방화대로 94,
6440,134754,남포면옥,39,1,37.5672875483,126.9816040503,서울특별시 중구 을지로3길 24,
6595,2843075,돈까스의집,39,1,37.5070159544,127.0906986015,서울특별시 송파구 삼전로 100 아카데미빌딩,
6603,2670585,돌곰네,39,1,37.5194135453,127.0367587153,서울특별시 강남구 언주로146길 18,
6663,2900649,뚝도지기,39,1,37.5379061629,127.0546426744,서울특별시 성동구 성수이로 30-4,
6688,2900435,락희옥 마포본점,39,1,37.5444257335,126.9491215459,서울특별시 마포구 백범로 170 공덕더샵아파트,101동 1층 상가내
6703,2900554,레이더,39,1,37.5436693715,127.054039788,서울특별시 성동구 연무장길 39-29,
6736,2757730,르한스,39,1,37.6041863408,126.9985375715,서울특별시 성북구 정릉로10길 127,(정릉동)
6799,2825055,만뽀스키우동 총본점,39,1,37.5476026418,126.9211323405,서울특별시 마포구 독막로14길 4,
6801,2642979,만족오향족발 시청,39,1,37.5633129102,126.9760491139,서울특별시 중구 서소문로 134-7,
6823,2899351,메쉬커피,39,1,37.5481714179,127.0424684913,서울특별시 성동구 서울숲길 43,
6830,2899368,메종 파이프그라운드,39,1,37.5445357444,127.0432879644,서울특별시 성동구 왕십리로 83-21 아크로 서울포레스트,"지하1층 B124호, B125호"
6876,2685262,모찌크림,39,1,37.565479425,126.9816346542,서울특별시 중구 을지로 30,
6940,2855151,민속돌솥설렁탕,39,1,37.5011104349,126.8995495059,서울특별시 영등포구 가마산로 366-1,
7019,2751802,별양집,39,1,37.5044626278,127.0436973963,서울특별시 강남구 테헤란로43길 17,(역삼동)
7042,2685572,봉산옥,39,1,37.4834450638,127.0124841644,서울특별시 서초구 반포대로8길 5-6,
7043,2682644,봉선마라탕,39,1,37.4922253257,126.8978249124,서울특별시 영등포구 도림로38길 11,
7123,2849301,사모님짬뽕,39,1,37.575130831,126.8122776038,서울특별시 강서구 금낭화로18길 10,
7154,2996373,삼천리골 돼지집,39,1,37.6433530035,126.9426137825,서울특별시 은평구 진관동,346-7
7352,2838449,스시토푸,39,1,37.5474559918,127.1067126625,서울특별시 광진구 아차산로 612,
7368,712621,시골감자국,39,1,37.5874673736,126.9167760561,서울특별시 은평구 응암로 174,
7430,1060809,아리랑,39,1,37.5765368491,127.0025463239,서울특별시 종로구 대학로 60,
7447,697349,아이러브신당동떡볶이,39,1,37.5631802871,127.0147455912,서울특별시 중구 퇴계로76길 50,
7488,2685264,야바이,39,1,37.5581710993,126.9346641418,서울특별시 서대문구 연세로7안길 37,
7492,2870620,양인환대,39,1,37.4855757825,127.0353931306,서울특별시 강남구 강남대로42길 17,
7563,2682688,연변냉면 2호,39,1,37.4927807818,126.8958695202,서울특별시 영등포구 도림로31길 4,
7658,2902549,온천집 익선,39,1,37.5740591309,126.9898308866,서울특별시 종로구 돈화문로11나길 31-8,
7679,2850243,외래향 서울대점,39,1,37.4818746892,126.9503954163,서울특별시 관악구 남부순환로 1801,
7726,135153,워킹온더클라우드,39,1,37.5196951091,126.9399230821,서울특별시 영등포구 63로 50,59층
7739,2643028,원조남산왕돈까스 명동,39,1,37.5647906569,126.9838928014,서울특별시 중구 명동7길 21,
7745,738667,원조홍어 본점,39,1,37.5106706536,126.9117342379,서울특별시 영등포구 신길로 200-22,
7779,2753157,으뜸횟집,39,1,37.5439237215,127.1429039138,서울특별시 강동구 양재대로122가길 39,(길동)
7789,2718865,을지다방,39,1,37.5662322965,126.9916864949,서울특별시 중구 을지로 124-1 (을지로3가),2층
7790,2804500,을지로 원형들,39,1,37.5625716946,126.996358395,서울특별시 중구 창경궁로1길 38,(충무로4가)
7809,2856707,이솔라 레스토랑,39,1,37.5123025381,126.9965764639,서울특별시 서초구 올림픽대로 2085-14,
7827,2875239,이화만두,39,1,37.5547629672,127.078473359,서울특별시 광진구 능동로 278-1,
7854,2856713,일식 신태평양,39,1,37.4944604988,127.0151530549,서울특별시 서초구 서초대로 307 장안빌딩,
7911,2682841,전주식당,39,1,37.5140288407,126.9253745674,서울특별시 영등포구 여의대방로61길 5-6,
7957,2653409,종각한우,39,1,37.5709538387,126.9843898037,서울특별시 종로구 종로9길 8,
7960,2642718,종로불돼지,39,1,37.5689013123,126.9851342383,서울특별시 종로구 청계천로 67,
8060,2689494,청담동포장마차,39,1,37.5575462331,126.9380777375,서울특별시 서대문구 연세로4길 25,
8089,1922914,체부동잔치집,39,1,37.5765585113,126.9714935981,서울특별시 종로구 자하문로1길 16,
8123,2682875,치키니즘 당산점,39,1,37.5282435216,126.9067036457,서울특별시 영등포구 국회대로53길 30,
8317,2642758,포담,39,1,37.5793665018,126.9705963783,서울특별시 종로구 자하문로9길 11,
8357,2899190,피자시즌,39,1,37.5416279914,127.0567923725,서울특별시 성동구 성수이로14길 14 (주)대명케미칼,1층
8600,2845287,camel,39,1,37.5372979232,127.0559231303,서울특별시 성동구 성덕정19길 6 나사로교회,1층
