,content_id,title,content_type_id,area_code,latitude,longitude,addr1,addr2
8645,128817,강화 사기리 탱자나무,12,2,37.6165030596,126.4567228313,인천광역시 강화군 화도면 해안남로1114번길 6,
8666,2612802,강화루지(강화씨사이드리조트),12,2,37.6171759306,126.4981273568,인천광역시 강화군 길상면 장흥로 217,(길상면)
8675,947611,개항장 거리,12,2,37.4729365453,126.621006246,인천광역시 중구 제물량로232번안길 27,(중앙동2가)
8691,1620625,계룡돈대,12,2,37.723527666,126.3538237336,인천광역시 강화군 내가면 황청리,
8706,2765276,교동도선착장대합실,12,2,37.77496824,126.3170728993,인천광역시 강화군 교동면 교동남로 466,
8708,2657249,교동제비집,12,2,37.781391829,126.2792873012,인천광역시 강화군 교동면 교동남로 20-1,
8709,1953948,교동향교,12,2,37.7745679477,126.2976774693,인천광역시 강화군 교동면 교동남로 229-49,
8711,3078309,국립무의도자연휴양림,12,2,37.388567699,126.4126914722,인천광역시 중구 하나개로 74 (무의동),
8712,1945647,국사봉(인천),12,2,37.3915951817,126.4159494251,인천광역시 중구 무의동,
8713,2664757,국자와 주걱,12,2,37.6533707805,126.4450284343,인천광역시 강화군 양도면 강화남로428번길 46-27,
8714,2718884,국제 롤러스케이트장,12,2,37.5336606539,126.655743053,인천광역시 서구 청라에메랄드로 99,(청라동) 3층
8715,1032715,굴업도,12,2,37.1973520849,125.990807372,인천광역시 옹진군 덕적면 굴업리,
8718,2847546,금풍양조장,12,2,37.6386205364,126.4913773782,인천광역시 강화군 삼랑성길 8,
8726,2768199,낭하리해변,12,2,37.2411451345,126.526662893,인천광역시 옹진군 영흥면 선재리 430-90,
8737,2767888,달빛축제공원,12,2,37.3953434658,126.6597659732,인천광역시 연수구 송도동 1,(송도동)
8749,2606297,덕적군도,12,2,37.1706405843,126.1117803784,인천광역시 옹진군 덕적면 문갑리,
8753,2537187,도래미마을,12,2,37.7152063663,126.5091208399,인천광역시 강화군 선원면 해안동로 1129-19,
8760,2767760,드림파크 주민체육공원,12,2,37.5855043289,126.6391625652,인천광역시 서구 왕길동 581-15,
8768,2765301,망월돈대 및 장성,12,2,37.7416894626,126.3553786415,인천광역시 강화군 하점면 망월리 2107번지,
8776,1620640,무태돈대,12,2,37.7716276295,126.3550778364,인천광역시 강화군 하점면 창후로,
8789,125505,백령도,12,2,37.9644571889,124.6766833179,인천광역시 옹진군 백령면 북포리,
8791,561002,백령도 콩돌해변,12,2,37.9234068099,124.6980823945,인천광역시 옹진군 백령면,
8804,2768190,부평역북광장,12,2,37.4905335508,126.7244907601,인천광역시 부평구 광장로 30,(부평동)
8808,2932005,분바위와 월띠,12,2,37.7727698198,124.7515952162,인천광역시 옹진군 대청면 소청리,
8821,2767590,서곶근린공원,12,2,37.5467179172,126.6811320367,인천광역시 서구 심곡로 151,(심곡동)
8835,129605,선녀바위,12,2,37.4396528391,126.3789681524,인천광역시 중구 용유로380번길 21,
8854,2767886,송도 도그파크,12,2,37.4079442991,126.632476445,인천광역시 연수구 센트럴로 350,(송도동)
8856,2767851,송도 한옥마을,12,2,37.3909075021,126.6389152185,인천광역시 연수구 테크노파크로 180,(송도동)
8863,1114621,송현배수지제수변실,12,2,37.4789722796,126.6394266197,인천광역시 동구 송현공원로 75-21,(송현동)
8873,3078306,승봉산림욕장,12,2,37.1647085817,126.3107290732,인천광역시 옹진군 자월면 승봉리,산49-2
8884,2769471,씨사이드파크하늘구름광장,12,2,37.4818067643,126.5658249252,인천광역시 중구 하늘달빛로2번길 6,(중산동)
8911,619892,영흥대교,12,2,37.2534462073,126.5107167866,인천광역시 옹진군 영흥면,
8917,3061219,오션스코프경관조형물,12,2,37.399828491,126.6277243248,인천광역시 연수구 인천타워대로 385-1 (송도동),
8923,129256,왕산해수욕장,12,2,37.4565312636,126.3693185709,인천광역시 중구 을왕동,
8925,126676,용궁사(인천),12,2,37.4971570919,126.5279807341,인천광역시 중구 운남로 199-1,(운남동)
8934,231899,용흥궁,12,2,37.7479493616,126.4859998213,인천광역시 강화군 강화읍 동문안길21번길 16-1,
8940,1957680,월미 관광특구,12,2,37.4714251763,126.5964029776,인천광역시 중구 월미문화로 81,(북성동1가)
8958,129606,인천 답동성당,12,2,37.4710924729,126.6299554804,인천광역시 중구 우현로50번길 2,(답동)
8977,2781589,인천로봇랜드,12,2,37.5196975976,126.6109530869,인천광역시 서구 로봇랜드로 155-11,(청라동)
8991,2768129,인천항국제여객부두,12,2,37.4241197229,126.6054979021,인천광역시 연수구 국제항만대로326번길 57,(송도동)
9005,1620578,장곶돈대,12,2,37.6350021287,126.3681026559,인천광역시 강화군 화도면 장화리,113
9017,2765235,적석사낙조대,12,2,37.7375048156,126.4109764365,인천광역시 강화군 내가면 연촌길 181,
9018,3061202,전득이고개,12,2,37.6735087612,126.3687181997,인천광역시 강화군 삼산면 매음리,
9020,2662684,정서진,12,2,37.5582207427,126.6023861308,인천광역시 서구 정서진남로 95 (오류동),
9039,1615878,철종외가,12,2,37.7049792203,126.4772907089,인천광역시 강화군 선원면 철종외가길 46-1,
9050,799958,큰풀안 해변,12,2,37.1703682134,126.2630249329,인천광역시 옹진군 자월면 대이작로160번길,
9058,2765261,프렌쥬랜드,12,2,37.6253275483,126.4861226733,인천광역시 강화군 길상면 보리고개로 166,
9069,2766397,해돋이공원,12,2,37.3885774975,126.6548416093,인천광역시 연수구 해돋이로 51,(송도동)
9083,2768120,황산선착장,12,2,37.6289527046,126.5190112293,인천광역시 강화군 길상면 초지리,
9087,129612,후포항 선수포구,12,2,37.6405074614,126.3920447545,인천광역시 강화군 화도면 해안남로2903번길,
9093,130105,가천박물관,14,2,37.418224103,126.6576044255,인천광역시 연수구 청량로102번길 40-9,
9097,129867,강화문화원(강화미술관),14,2,37.7425639138,126.4879775686,인천광역시 강화군 강화읍 남문로 52,
9098,129810,강화역사박물관,14,2,37.7737399035,126.4352815292,인천광역시 강화군 하점면 강화대로 994-19,
9100,2657495,강화전쟁박물관,14,2,37.7336321177,126.5160613555,인천광역시 강화군 강화읍 해안동로1366번길 18,
9102,130290,계양문화회관,14,2,37.5460492061,126.7181286785,인천광역시 계양구 계양산로35번길 11,(계산동)
9103,2718558,계양산성박물관,14,2,37.5480769058,126.7270333647,인천광역시 계양구 계양산로 101,(계산동)
9104,852304,국립생물자원관,14,2,37.5688007354,126.6402462663,인천광역시 서구 환경로 42,(경서동)
9105,3097744,국립세계문자박물관,14,2,37.3947625929,126.6379568656,인천광역시 연수구 센트럴로 217 (송도동),
9108,2768088,남동타워 (청년미디어타워),14,2,37.3985579666,126.7155913531,인천광역시 남동구 논현고잔로 173,(고잔동)
9109,1207259,녹청자박물관,14,2,37.5585049971,126.656383968,인천광역시 서구 도요지로 54 (경서동),
9111,2994530,대불호텔전시관,14,2,37.4736114488,126.6199896528,인천광역시 중구 신포로23번길 101,
9112,2657501,도솔미술관,14,2,37.6419954089,126.5064925675,인천광역시 강화군 길상면 길상로210번길 52-71,
9115,2767579,마샘소래본점,14,2,37.4351654471,126.7506565846,인천광역시 남동구 장아산로174번길 15 (서창동),2층
9119,1997652,부평 기적의도서관,14,2,37.5034323298,126.7401834131,인천광역시 부평구 길주남로 166,(부개동)
9120,130911,부평역사박물관,14,2,37.5121201677,126.7378611598,인천광역시 부평구 굴포로 151,(삼산동)
9121,2465042,삼산도서관,14,2,37.5221579814,126.7430381845,인천광역시 부평구 부평북로 445,(삼산동)
9123,2647918,소래역사관,14,2,37.3982361693,126.7375060322,인천광역시 남동구 아암대로 1605,
9124,2611136,소리체험박물관,14,2,37.5990365555,126.5082602669,인천광역시 강화군 길상면 해안남로474번길 11,
9126,742171,송도컨벤시아,14,2,37.3890356252,126.6461951621,인천광역시 연수구 센트럴로 123,(송도동)
9127,2465132,송도해돋이도서관,14,2,37.3857834511,126.6590274163,인천광역시 연수구 해돋이로 7,
9128,130076,송암미술관,14,2,37.4346135777,126.6412304639,인천광역시 미추홀구 비류대로55번길 68 송암미술관,
9132,2833492,아트플러그 연수,14,2,37.4167547711,126.654263104,인천광역시 연수구 청량로101번길 33,
9133,2804927,애관극장,14,2,37.4724200947,126.6298610077,"인천광역시 중구  개항로 (63-2, 애관극장)",
9135,130516,영종대교휴게소 기념관,14,2,37.5537491271,126.6072746972,인천광역시 서구 정서진남로 25,(경서동)
9136,2638436,영종역사관,14,2,37.48912279,126.5777264136,인천광역시 중구 구읍로 63,
9137,2754479,왕산마리나,14,2,37.4577559204,126.3578140337,인천광역시 중구 왕산마리나길 143,(을왕동)
9138,3003541,월미문화관,14,2,37.4764858311,126.6039104851,인천광역시 중구 월미로 131-22 월미문화관,
9140,864987,인천 검단선사박물관,14,2,37.5944210109,126.6986402152,인천광역시 서구 고산후로121번길 7,
9146,130786,인천 화도진도서관,14,2,37.4818911891,126.6283608811,인천광역시 동구 화도진로 122 화도진도서관,
9148,2779442,인천개항장 근대건축전시관,14,2,37.4729393262,126.6212117826,인천광역시 중구 신포로23번길 77,(중앙동2가)
9149,130785,인천광역시 미추홀도서관,14,2,37.4471219348,126.7248641582,인천광역시 남동구 인주대로776번길 53 인천광역시미추홀도서관,
9155,129773,인천광역시립박물관,14,2,37.4207237343,126.6531380962,인천광역시 연수구 청량로160번길 26,(옥련동)
9157,2768208,인천도시공사검단사업단홍보관,14,2,37.5925241189,126.7048091493,인천광역시 서구 원당대로 929,(원당동)
9158,1851364,인천도시역사관,14,2,37.3928266701,126.6358737757,인천광역시 연수구 인천타워대로 238,
9159,2465032,인천동구청소년수련관,14,2,37.4760504522,126.6425597485,인천광역시 동구 솔빛로 82,(송림동)
9161,130060,인천상륙작전기념관,14,2,37.4195266575,126.6535047631,인천광역시 연수구 청량로 138 인천상륙작전기념관,
9162,130291,인천서구문화회관,14,2,37.5158048243,126.6799218995,인천광역시 서구 서달로 190,(가정동)
9165,2662902,인천어린이과학관,14,2,37.5516350563,126.7400265233,인천광역시 계양구 방축로 21,(방축동)
9169,1054895,인천학생과학관,14,2,37.4906880282,126.5067939592,인천광역시 중구 영종대로277번길 74-10,
9170,1752823,인천학생교육문화회관,14,2,37.4757391504,126.6296831541,인천광역시 중구 자유공원로 12,(인현동)
9171,1617908,인하대학교 박물관,14,2,37.4513923645,126.6514818413,인천광역시 미추홀구 인하로 100,
9172,1617861,인하대학교 정석학술정보관,14,2,37.4513923645,126.6514818413,인천광역시 미추홀구 인하로 100,(용현동)
9173,2850345,잇다스페이스1 갤러리,14,2,37.4724035108,126.6344383681,,
9178,2465166,청라호수도서관,14,2,37.5305967767,126.6362810266,인천광역시 서구 크리스탈로 59,
9182,2782768,투모로우시티(인천스타트업파크),14,2,37.3885911229,126.6399707417,인천광역시 연수구 컨벤시아대로 204,(송도동)
9187,3061209,학산소극장,14,2,37.4495594272,126.6618920537,인천광역시 미추홀구 인하로 126 (용현동),
9189,3003299,한국근대문학관,14,2,37.4726671326,126.6210312507,인천광역시 중구 신포로15번길 76 한국근대문학관,
9192,652305,한중문화관,14,2,37.4735780979,126.6187730983,인천광역시 중구 제물량로 238,(항동1가)
9196,1619680,화도진전시관,14,2,37.4814467963,126.6283386738,인천광역시 동구 화도진로 114,(화수동)
9197,1113310,황어장터 3.1만세운동 기념관,14,2,37.5790234532,126.7352817448,인천광역시 계양구 황어로126번길 9,(장기동)
9198,2986679,가족의 달 어린이 축제,15,2,37.48912279,126.5777264136,인천광역시 중구 구읍로 63 (중산동),
9199,2643189,강화 양오낚시터 빙어축제,15,2,37.8001841894,126.443857781,인천광역시 강화군 송해면 전망대로423번길 161,양오낚시터
9200,2938676,강화도왕방마을얼음축제,15,2,37.6989596685,126.4312617608,인천광역시 강화군 중앙로787번길 8-1 관리소매점,
9201,2605336,강화문화재야행,15,2,37.7487798121,126.485510954,인천광역시 강화군 강화읍 관청리 405,인천 강화군 강화읍 관청리 405
9202,3329992,계양아라온워터축제,15,2,37.5747323349,126.7380649442,인천광역시 계양구 장기동,109-1 계양아라온
9203,3116234,고고축제,15,2,37.4757919043,126.6287026869,인천광역시 중구 우현로67번길 57 (전동),
9204,2997766,달빛가득 부평도호부,15,2,37.5417359395,126.7249448437,인천광역시 계양구 어사대로 20,부평도호부관아 (부평초등학교 내)
9205,2816928,달빛가득 부평향교,15,2,37.5395472304,126.7207175131,인천광역시 계양구 향교로 19 부평향교(지정문화재),
9206,2560781,동인천 낭만축제,15,2,37.4766807577,126.6325328678,인천광역시 동구 송현동 70-10,동인천역 북광장
9207,3062259,만수천 빛의거리,15,2,37.4515936663,126.7265083278,인천광역시 남동구 만수동,1003 일원
9208,2990417,문화 올데이 연수!,15,2,37.4091949621,126.6783277871,인천광역시 연수구 원인재로 115 (동춘동),
9209,2562080,뮤직 플로우 페스티벌,15,2,37.4822897181,126.7049455502,인천광역시 부평구 아트센터로 166 (십정동),
9210,1266642,부평풍물대축제,15,2,37.4968022399,126.7229990543,인천광역시 부평구 부평대로 60 (부평동),"부평대로, 신트리공원"
9211,3021261,부평향교 밤마실,15,2,37.5395472304,126.7207175131,인천광역시 계양구 향교로 19 (계산동),
9213,3012714,"빛의 정원, 송도",15,2,37.3904159745,126.6435814732,인천광역시 연수구 컨벤시아대로 160 (송도동),송도 센트럴파크
9214,1398149,삼랑성역사문화축제,15,2,37.6321461675,126.4843809763,인천광역시 강화군 길상면 전등사로 37-41,
9215,2978145,생물사랑 어린이 축제,15,2,37.5614876375,126.6368245602,인천광역시 서구 환경로 42,
9216,2635515,서창별빛거리,15,2,37.4455921127,126.7562168986,인천광역시 남동구 서창 2지구 로터리,회전교차로 일원 (서창동 754)
9217,506809,소래포구 축제,15,2,37.397980675,126.7393253184,인천광역시 남동구 장도로 86-17,해오름광장
9218,3301962,소이작도 해작해작 갯티길 산책,15,2,37.1813551237,126.2221311414,인천광역시 옹진군 자월면 소이작로 245,
9219,3023424,송월동 동화마을 코스튬 페스티벌,15,2,37.4777026507,126.6205978173,인천광역시 중구 송월동3가,자유공원서로 45번길
9220,3105548,스카마켓 in 인천 (SCA Market in Incheon),15,2,37.3900244069,126.6466173186,인천광역시 연수구 센트럴로 123 (송도동),
9221,2829118,시민창작예술축제 학산마당극놀래,15,2,37.4631995872,126.666319049,인천광역시 미추홀구 경인로 216-1 (도화동),
9222,2989846,신송도해변축제,15,2,37.3990651932,126.6562495239,인천광역시 연수구 아암대로 764 (송도동),
9223,3326715,십리 for you 칠링의 밤,15,2,37.2815203049,126.4864848933,인천광역시 옹진군 영흥면 영흥북로 382,
9224,2849159,연수 능허대 문화축제,15,2,37.4052529114,126.6305766927,인천광역시 연수구 센트럴로 350 (송도동),송도달빛축제공원
9225,2987482,응신에게 효(孝)를 묻다,15,2,37.5395472304,126.7207175131,인천광역시 계양구 향교로 19 부평향교(지정문화재),
9227,1365676,인천 송도맥주축제,15,2,37.4052529114,126.6305766927,인천광역시 연수구 센트럴로 350 달빛축제공원,
9228,2872078,인천 영화 주간 2023,15,2,37.4060509763,126.6836357236,인천광역시 연수구 청능대로 210 스퀘어원,
9229,2408959,인천개항장 문화유산 야행,15,2,37.4735225945,126.6213645301,인천광역시 중구 신포로27번길 80 (관동1가),
9230,2043285,인천과학대제전,15,2,37.5481230092,126.664152993,인천광역시 서구 봉수대로 806 (연희동),
9231,1129018,인천국제디자인페어,15,2,37.3900244069,126.6466173186,인천광역시 연수구 센트럴로 123 (송도동),
9232,527212,인천대공원 범시민 벚꽃축제,15,2,37.4570186565,126.7615022096,인천광역시 남동구 장수동,산79 (어울큰마당)
9233,3020186,인천수학축전,15,2,37.5481230092,126.664152993,인천광역시 서구 봉수대로 806 (연희동),
9234,2820560,인천아트북페어,15,2,37.4726060191,126.6205007453,인천광역시 중구 제물량로218번길 3 (해안동1가),
9235,3113152,인천어린이과학관 과학축전,15,2,37.5516211679,126.739954308,인천광역시 계양구 방축로 21 (방축동),
9237,3329788,인천여성영화제 20주년 회고전,15,2,37.4613445,126.6806039084,인천광역시 미추홀구 미추홀대로 716 (주안동),메인프라자 7층
9238,561027,인천펜타포트 락 페스티벌,15,2,37.4078332011,126.6324847807,인천광역시 연수구 센트럴로 350,(송도동)
9239,2597631,정서진 아라뱃길 카약축제,15,2,37.5584902454,126.6074773243,인천광역시 서구 정서진1로 41,아라인천여객터미널 일원
9240,3075632,정서진 해넘이 행사,15,2,37.5582207427,126.6023861308,인천광역시 서구 정서진남로 95 (오류동),정서진 광장
9241,3097834,제12회 디아스포라영화제,15,2,37.4726060191,126.6205007453,인천광역시 중구 제물량로218번길 3 (해안동1가),
9242,3011126,제2회 세계를 품은 인천교육 한마당,15,2,37.3900244069,126.6466173186,인천광역시 연수구 센트럴로 123 (송도동),
9243,3315407,제물포 웨이브 마켓,15,2,37.4761360618,126.6146650689,인천광역시 중구 월미로 33 (북성동1가),
9244,2816941,"지성(知性)애(愛) 빠지다, 부평향교",15,2,37.5395472304,126.7207175131,인천광역시 계양구 향교로 19 부평향교(지정문화재),
9245,2615209,청라 뮤직&와인 페스티벌,15,2,37.5245724365,126.6339480738,인천광역시 서구 청라대로 26 (청라동),
9246,1621746,화도진 축제,15,2,37.4765252097,126.6319301493,인천광역시 동구 화도진로 53 (송현동),
9247,3304387,1883 상상플랫폼 야시장,15,2,37.4761360618,126.6146650689,인천광역시 중구 월미로 33 (북성동1가),
9248,3343389,2024 인천낚시박람회,15,2,37.3900244069,126.6466173186,인천광역시 연수구 센트럴로 123 (송도동),송도컨벤시아 전시장
9250,3015936,BBAF2023(부평부천아트페어),15,2,37.4897693666,126.7027927603,인천광역시 부평구 화랑로 65 (산곡동),
9251,2999155,DMZ평화i랜드 뮤직페스티벌 in 강화,15,2,37.7834223603,126.2914972354,인천광역시 강화군 교동동로471번길 6-60,강화 교동 화개정원
9288,1074812,강화 자전거 관광코스,28,2,37.7464579051,126.4880330099,인천광역시 강화군 강화읍,(강화읍)
9295,2734000,강화도산들애캠핑수영장,28,2,37.7409441693,126.4602273801,인천광역시 강화군 강화읍 고비고개로 171,
9298,2792619,강화무지개글램핑,28,2,37.7949405919,126.45716504,인천광역시 강화군 송해면 양오리 640-1번지,
9301,2768226,검단수로,28,2,37.5904168234,126.592627792,인천광역시 서구 오류동 1460,(오류동)
9302,2734025,검디관광농원캠핑장,28,2,37.5870296992,126.5127601891,인천광역시 강화군 길상면 동검길 159-47,
9304,2465040,계산국민체육센터,28,2,37.5461382805,126.7291748899,인천광역시 계양구 주부토로 580,(계산동)
9305,2463896,계양경기장,28,2,37.5325151261,126.743898928,인천광역시 계양구 봉오대로 855,
9308,2661787,계양산 둘레길,28,2,37.5543315789,126.7182812107,인천광역시 계양구 다남동 산70-4,
9310,2768204,국제롤러장,28,2,37.5336606539,126.655743053,인천광역시 서구 청라에메랄드로 99,(청라동)
9312,2847197,글램조이,28,2,37.6888351221,126.3898602814,인천광역시 강화군 해안서로 689,
9315,2729260,낭만에코파크,28,2,37.7018981624,126.4283147267,인천광역시 강화군 양도면 중앙로814번길 19-16,
9316,2792628,노을빛바다애글램핑,28,2,37.6214316354,126.3765439251,인천광역시 강화군 화도면 장화리 474,
9317,2792614,노을진 캠핑장,28,2,37.5698259156,126.657144694,인천광역시 서구 정서진로 500,(오류동)
9322,2757627,동검도노을캠핑장,28,2,37.5874657045,126.5096271305,인천광역시 강화군 길상면 동검길 159-13,
9328,2758006,렛츠고 강화캠핑,28,2,37.6205378261,126.4068661726,인천광역시 강화군 화도면 동녘말길 238-7,
9331,2768146,만정민트바다낚시터,28,2,37.5150026654,126.5522724652,인천광역시 중구 영종순환로 279-20,(중산동)
9337,2734041,문라이트캠프장,28,2,37.6016470811,126.4922866562,인천광역시 강화군 길상면 해안남로 656,
9341,2908217,바다다 캠핑장,28,2,37.6363855057,126.379829321,인천광역시 강화군 화도면 내리 2146-2,
9342,2747245,바다로글램핑,28,2,37.6218232626,126.3768883266,인천광역시 강화군 화도면 해안남로 2421-228,
9346,2734307,블랙트리캠핑,28,2,37.2642799642,126.4477888887,인천광역시 옹진군 영흥면 영흥로757번길 234-13,
9351,2744549,서해캠핑장,28,2,37.4576505539,126.3679519987,인천광역시 중구 용유서로423번길 47,(을왕동)
9354,2768107,선재바다낚시공원,28,2,37.2542685314,126.5220129578,인천광역시 옹진군 영흥면 선재로226번길 164,
9355,2734732,선재오토캠핑장,28,2,37.2492303024,126.5263349241,인천광역시 옹진군 영흥면 선재로186번길 86-22,
9361,2734806,송도스포츠캠핑장,28,2,37.3539392294,126.6194569017,인천광역시 연수구 인천신항대로892번길 50,(송도동)
9362,2465135,송도종합스포츠센터,28,2,37.3514033971,126.618559831,인천광역시 연수구 인천신항대로892번길 40,(송도동)
9368,1615829,신선낚시터,28,2,37.7100132026,126.3895652753,인천광역시 강화군 내가면 고천리 1820,
9371,2728912,씨사이드힐캠핑장,28,2,37.634730063,126.3752297878,인천광역시 강화군 화도면 해안남로 2680-12,
9376,2765198,양오낚시터,28,2,37.8001841894,126.443857781,인천광역시 강화군 송해면 전망대로423번길 161,
9379,2768181,연경산배드민턴장,28,2,37.4373749026,126.6715470673,인천광역시 미추홀구 매소홀로446번길 54,(학익동)
9383,2734140,영종도힐링캠프,28,2,37.439666735,126.3794597739,인천광역시 중구 선녀바위로 70,(을왕동)
9384,2606233,영종씨사이드 레일바이크,28,2,37.4885061796,126.5768542882,인천광역시 중구 구읍로 75,
9391,2758194,오류내낚시터,28,2,37.7599363381,126.4568132734,인천광역시 강화군 송해면 하도리 산157-3,
9394,2731145,왕산가족오토캠핑장,28,2,37.4582032371,126.3662160311,인천광역시 중구 용유서로423번길 60,
9395,2769484,왕산요트경기장,28,2,37.4577559204,126.3578140337,인천광역시 중구 왕산마리나길 143,(을왕동)
9397,2743847,원스캠핑장,28,2,37.6769411696,126.3387291872,인천광역시 강화군 삼산남로604번길 37,
9400,2708208,인천 성창포길 (인천둘레길 12코스),28,2,37.4765557939,126.6337744247,인천광역시 동구 화도진로44번길 1,(송현동)
9405,3015052,인천대공원 너나들이캠핑장,28,2,37.4594903994,126.7506531294,인천광역시 남동구 무네미로 238 인천대공원,
9412,2734234,인천시송도국제캠핑장,28,2,37.3616499106,126.645895947,인천광역시 연수구 지식기반로 60,(송도동)
9421,2768196,청라호수공원피노키오놀이터,28,2,37.532890947,126.6358337811,인천광역시 서구 청라동 106-2,
9422,2770366,케이엠스포츠,28,2,37.6131428966,126.6458639583,인천광역시 서구 봉수대로1568번길 26-87,(금곡동)
9423,2792612,코코로망스,28,2,37.2711070507,126.453554844,인천광역시 옹진군 영흥면 영흥로685번길 76,
9424,3061210,클라이밍줌,28,2,37.4156691449,126.674600169,인천광역시 연수구 청능대로 75 (청학동),
9425,2908110,태그하우스풀빌라,28,2,37.5915040724,126.5067439485,인천광역시 강화군 동검길154번길 24-19,
9430,2792623,하늘바다글램핑,28,2,37.5843522812,126.5155183446,인천광역시 강화군 길상면 동검리 125-95,
9432,2729986,하늘정원캠핑장,28,2,37.5962759019,126.5160318552,인천광역시 강화군 길상면 동검길 21-1,
9436,2768065,항포낚시터,28,2,37.7060813071,126.2868053649,인천광역시 강화군 삼산면 삼산서로310번길 21,
9442,2768164,황산바다좌대낚시터,28,2,37.6197930027,126.5384458171,인천광역시 강화군 길상면 해안남로117번길 29-18,
9444,2765201,황산초지바다낚시터,28,2,37.6202567809,126.5352238769,인천광역시 강화군 길상면 초지리 1325-60,
9449,1028726,[강화 나들길 제5코스] 고비고개길,28,2,37.7458245442,126.4822613345,인천광역시 강화군 강화읍 청하동길 24,
9452,1075972,[강화 나들길 제8코스] 철새 보러 가는 길,28,2,37.7458245442,126.4822613345,인천광역시 강화군 강화읍 청하동길 24,
9456,136605,강화유스호스텔,32,2,37.7045385779,126.3745584698,인천광역시 강화군 내가면 해안서로 972,
9460,3049916,골드코스트호텔 인천,32,2,37.402493486,126.7079891583,인천광역시 남동구 논현로26번길 46 (논현동),
9461,2782945,골든튤립인천에어포트호텔,32,2,37.4923125872,126.4924230049,인천광역시 중구 흰바위로59번길 8,(운서동)
9463,143090,그랜드 하얏트 인천,32,2,37.4404402287,126.4574442965,인천광역시 중구 영종해안남로321번길 208,
9465,2708337,글로스터호텔 인천 [한국관광 품질인증/Korea Quality],32,2,37.4003414436,126.7354589383,인천광역시 남동구 소래역로 36,
9466,2706769,남문한옥 대명헌 [한국관광 품질인증/Korea Quality],32,2,37.7448386068,126.4856055,인천광역시 강화군 강화읍 남문안길 7,
9467,2622374,네이쳐펜션(자연의집),32,2,37.2811479685,126.4774662809,인천광역시 옹진군 영흥면 영흥북로426번길 105-1,
9468,554419,노을&바다 펜션,32,2,37.2792950491,126.4569820867,인천광역시 옹진군 영흥면 영흥서로 465-22,
9471,2594928,데이즈호텔 앤 스위트 인천에어포트[한국관광 품질인증/Korea Quality],32,2,37.4934818752,126.4912730778,인천광역시 중구 신도시남로142번길 6,(운서동)
9472,2622996,델로스호스텔,32,2,37.4507264363,126.3723740064,인천광역시 중구 용유서로 365,(을왕동)
9474,2593672,"라르고빌리조트(웨이브하우스, 가든하우스) [한국관광 품질인증/Korea Quality]",32,2,37.6409018417,126.3909948401,인천광역시 강화군 해안남로2845번길 27 라르고빌리조트,
9478,1747890,로지호텔,32,2,37.4612528866,126.6830120251,인천광역시 미추홀구 주안중로 32,
9482,138909,명성리조텔,32,2,37.2728652226,126.4560073504,인천광역시 옹진군 영흥면 영흥로722번길 39,
9484,397933,바다정원펜션,32,2,37.2451002815,126.5295069699,인천광역시 옹진군 영흥면 선재로170번안길 42-22,
9486,1937524,베니키아 월미도 더블리스 호텔,32,2,37.4726889345,126.5973223024,인천광역시 중구 월미로 266,(북성동1가)
9487,143106,베스트웨스턴 프리미어 인천 에어포트 호텔,32,2,37.4411901422,126.4574859381,인천광역시 중구 공항로424번길 48-27,
9489,1882357,별자리 호스텔,32,2,37.44189148,126.3796735824,인천광역시 중구 선녀바위로55번길 18,
9490,1893109,별장아원,32,2,37.7189069247,126.4075106056,인천광역시 강화군 내가면 고비고개로743번길 47-7,
9491,1748010,보보스모텔,32,2,37.4216539314,126.6389338101,인천광역시 연수구 능허대로104번길 59,
9492,3049358,브라운도트 호텔 검단사거리점,32,2,37.6006779222,126.6595102813,인천광역시 서구 완정로117번길 31 (왕길동),
9495,2622776,센트레빌 게스트하우스,32,2,37.5681833279,126.7511083815,인천광역시 계양구 형제봉길 100,"(귤현동,계양센트레빌 1단지)계양센트레빌11동203호"
9496,3076761,소래호텔카카오,32,2,37.4007330808,126.7363644005,인천광역시 남동구 앵고개로948번길 48 (논현동),
9498,2702315,스위스파크 호스텔,32,2,37.4493043832,126.3725712499,인천광역시 중구 을왕로58번길 8,(을왕동)
9500,2783477,스카이탑호텔,32,2,37.4913683997,126.5008361513,인천광역시 중구 영종대로196번길 15-7,(운서동)
9501,2950191,시우재[한국관광 품질인증/Korea Quality],32,2,37.4149635864,126.6698034034,인천광역시 연수구 동곡재로 74-33,
9503,987145,씨월드관광호텔,32,2,37.464310909,126.3690322729,인천광역시 중구 용유서로479번길 50-7,
9509,2575774,영흥도관광펜션,32,2,37.2594424747,126.4958457545,인천광역시 옹진군 영흥면 영흥로156번길 33-17,
9511,2468936,옛날에금잔디[한국관광 품질인증/Korea Quality],32,2,37.7161235947,126.3892095829,인천광역시 강화군 내가면 강화서로225번길 18-1,
9512,788974,오라카이 송도파크호텔,32,2,37.3882384021,126.6408762251,인천광역시 연수구 테크노파크로 151,
9518,2570709,오후엔[한국관광 품질인증/Korea Quality],32,2,37.5367193201,126.3788154991,인천광역시 옹진군 장봉로26번길 76-28,
9520,2534394,월미도 다이아몬드호텔,32,2,37.4753747773,126.5998303328,인천광역시 중구 월미로 229,
9521,2655586,월미도 해월관광호텔,32,2,37.473586065,126.5980444343,인천광역시 중구 월미로260번길 8,
9522,143114,위너스관광호텔,32,2,37.4613140296,126.368687942,인천광역시 중구 왕산로 40,
9523,741093,위딜펜션,32,2,37.6908973748,126.3101092033,인천광역시 강화군 삼산면 삼산남로 902-19,
9525,143152,이츠호텔,32,2,37.4537967745,126.6023557004,인천광역시 중구 연안부두로53번길 15,
9526,2019324,이코노미호텔 인천부평점 [한국관광 품질인증/Korea Quality],32,2,37.5185858771,126.7262842574,인천광역시 부평구 부평대로296번길 88-6,
9528,143105,인천공항비치호텔,32,2,37.4510486109,126.3717962726,인천광역시 중구 용유서로 373-1,
9534,3306960,인천영종도 하늘과바다호텔,32,2,37.4903254941,126.5814843707,인천광역시 중구 은하수로29번길 36 (중산동),
9536,2050339,장보고한옥펜션,32,2,37.7626608462,126.4469446583,인천광역시 강화군 송해면 강화대로833번길 44-30,
9537,2602516,지구하우징,32,2,37.4536683061,126.4036377361,인천광역시 중구 용유로380번길 27,(남북동)
9539,2575850,퀸스비치,32,2,37.2579069336,126.5183104175,인천광역시 옹진군 영흥면 선재로306번길 27-116,
9547,2594951,하워드 존슨 인천 에어포트 [한국관광 품질인증/Korea Quality],32,2,37.4934735467,126.4915008349,인천광역시 중구 신도시남로142번길 6 메가스타 영종,
9554,143151,호텔 카리스 ,32,2,37.5263904662,126.7229426774,인천광역시 계양구 계양대로 28,
9557,1965379,호텔미투,32,2,37.4185933848,126.6507855921,인천광역시 연수구 능허대로191번길 12,
9559,2918644,호텔스카이파크인천송도,32,2,37.3846360046,126.6387487403,인천광역시 연수구 컨벤시아대로 233 호텔스카이파크인천송도,
9560,1832440,호텔아마레,32,2,37.4170102359,126.6508272988,인천광역시 연수구 대암로 3,(옥련동)
9563,1963542,호텔큐브,32,2,37.4200932261,126.6516743584,인천광역시 연수구 능허대로179번길 43,
9564,2373814,홀리데이인 인천 송도,32,2,37.3931182496,126.6328629312,인천광역시 연수구 인천타워대로 251,
9567,1882463,K-모텔,32,2,37.4533301209,126.6000114828,인천광역시 중구 연안부두로55번길 4-3,
9568,660078,W모텔(구 쉘모텔),32,2,37.6265393594,126.5339265984,인천광역시 강화군 길상면 해안남로 13-15,
9570,2768173,가좌시장,38,2,37.4941962868,126.6834110718,인천광역시 서구 장고개로337번길 18-19,(가좌동)
9572,1177090,강화 인삼센터,38,2,37.7421168236,126.4924882782,인천광역시 강화군 강화읍 강화대로 335,
9579,2922969,갤럭시라이프스타일 롯데 인천터미널점,38,2,37.4422082182,126.7023441253,인천광역시 미추홀구 연남로 35,
9581,2779976,거북시장,38,2,37.5032617447,126.6746421748,인천광역시 서구 거북로 115,(석남동)
9600,2931350,나이키 모다몰인천,38,2,37.5099716004,126.6477388876,"인천광역시 서구 북항로32번안길 50(원창동,모다아울렛)",
9603,2900108,나이키_신포본점,38,2,37.4721061733,126.6259530397,인천광역시 중구 내동 97-1,
9625,2925632,데상트,38,2,37.3828032236,126.6579998144,인천광역시 연수구 국제대로123 2층,
9633,2903148,듀코_현대(아)송도_쟈딕,38,2,37.3884331996,126.6621992756,인천광역시 연수구 송도국제대로 123(송도동)2층,
9638,2910430,라코스떼 부평점,38,2,37.4942692198,126.7240406972,인천광역시 부평구 부평문화로 69-1 1층,
9642,2916160,래배끌레,38,2,37.5099716004,126.6477388876,인천광역시 서구 북항로32번안길50,
9643,2915229,래핑차일드 스퀘어원,38,2,37.4060509763,126.6836357236,인천광역시 연수구 청능대로 210,
9646,2901020,레고샵 현대송도,38,2,37.3828032236,126.6579998144,인천광역시 연수구 송도국제대로 123,
9647,3307621,레노마 정장 모다아울렛 부평점,38,2,37.4935914417,126.7195883437,인천광역시 부평구 부평문화로 35 (부평동) 4층,
9649,3306519,레노마레이디 모다아울렛 인천점,38,2,37.5099716004,126.6477388876,인천광역시 서구 북항로32번안길 50 (원창동),
9654,2925604,로라애슐리 현대송도,38,2,37.3824476838,126.6565305139,인천광역시 연수구 송도국제대로 150,지하1층
9663,2905061,롯데마트_청라점,38,2,37.5309107796,126.6447857971,인천광역시 서구 청라커낼로 252,
9671,2914006,롯데하이마트 부평점,38,2,37.4989880927,126.7227156857,인천광역시 부평구 부흥로 277,
9674,2922649,롯데하이마트 송도롯데마트점,38,2,37.3883662082,126.6433371075,인천광역시 연수구 송도동 6-11,
9707,3306637,미니멈 모다아울렛 인천점,38,2,37.5099716004,126.6477388876,인천광역시 서구 북항로32번안길 50 (원창동),
9710,2925198,미소페 현대송도,38,2,37.3828032236,126.6579998144,인천광역시 연수구 송도국제대로 123 (송도동),
9725,3305599,벤제프 모다아울렛 인천점,38,2,37.5099716004,126.6477388876,인천광역시 서구 북항로32번안길 50 (원창동),
9743,2927605,쁘렝땅 현대송도,38,2,37.3828032236,126.6579998144,"인천광역시 연수구 송도국제대로 123, 현대아울렛",
9745,2782720,서해5도수산물복합문화센터,38,2,37.5709927287,126.6730904266,인천광역시 서구 정서진로 651,(시천동)
9752,132267,소래포구 종합어시장,38,2,37.3987749898,126.7372004899,인천광역시 남동구 소래역로 12,
9762,3306317,스파오키즈 모다아울렛 인천점,38,2,37.5099716004,126.6477388876,인천광역시 서구 북항로32번안길 50 (원창동),
9765,2904024,시슬리 현대송도,38,2,37.3828032236,126.6579998144,"인천광역시 연수구 송도국제대로 123, 현대프리미엄아울렛 2층",
9779,2927708,아디다스 현대아울렛 송도점,38,2,37.3828032236,126.6579998144,인천광역시 연수구 송도국제대로 123 1층,
9801,3306393,에스핏 모다아울렛 인천점,38,2,37.5099716004,126.6477388876,인천광역시 서구 북항로32번안길 50 (원창동),
9807,2927961,엘지베스트샵 인천본점,38,2,37.4502654032,126.6903283303,인천광역시 미추홀구 인주대로 482,
9831,2912829,올리브영 연수구청,38,2,37.4141193622,126.6767472384,"인천광역시 연수구 먼우금로 190 연수프라자 101호,102호",
9836,2922494,올리브영 인천구월중앙,38,2,37.4451828474,126.7008997299,인천광역시 남동구 예술로 126,
9857,2766337,용남시장,38,2,37.4518342277,126.6655249927,인천광역시 미추홀구 용현동 12,
9859,2909412,원더플레이스 현대송도,38,2,37.3828032236,126.6579998144,인천광역시 연수구 송도국제대로 123,
9886,132736,인천 현대시장,38,2,37.4765421066,126.6450956138,인천광역시 동구 송림로109번길 21,
9892,2915492,자라 스퀘어원점,38,2,37.4060509763,126.6836357236,인천광역시 연수구 청능대로 210,
9902,2903213,제옥스 현대아울렛 송도점,38,2,37.3828032236,126.6579998144,인천광역시 연수구 송도국제대로 123,
9903,2927633,제이에스티나 현대아울렛 송도점,38,2,37.3828032236,126.6579998144,인천광역시 연수구 송도국제대로 123,
9921,3306787,캐리스노트 모다아울렛 인천점,38,2,37.5099716004,126.6477388876,인천광역시 서구 북항로32번안길 50 (원창동),
9924,2928827,컬럼비아 현대송도,38,2,37.3828032236,126.6579998144,인천광역시 연수구 송도국제대로 123(송도동) 현대프리미엄 아울렛,
9939,2910518,크리스 파리게이츠 현대송도,38,2,37.3828032236,126.6579998144,"인천광역시 연수구 송도국제대로 123, 현대프리미엄아울렛 2층",
9976,3305329,프로젝트엠 모다아울렛 인천점,38,2,37.5099716004,126.6477388876,인천광역시 서구 북항로32번안길 50 (원창동),
9994,2918420,한섬 발리 현대송도,38,2,37.3828032236,126.6579998144,"인천광역시 연수구 송도국제대로 123(송도동, 현대프리미엄아울렛 송도점)",
10007,3307574,헹텐 모다 아울렛 부평점,38,2,37.4935914417,126.7195883437,인천광역시 부평구 부평문화로 35 (부평동) 5층,
10008,2930654,현대프리미엄아울렛 송도,38,2,37.3828032236,126.6579998144,인천광역시 연수구 송도국제대로 123 (송도동),
10011,2917817,홈플러스 송도,38,2,37.3802784883,126.6563861425,인천광역시 연수구 송도국제대로 165,
10023,2901612,휠라 현대송도,38,2,37.3828032236,126.6579998144,인천광역시 연수구 송도국제대로 123,B1
10051,2912530,MLB팩토리 청라,38,2,37.5099410296,126.6466889846,인천광역시 서구 북항로32번안길 45(원창동),
10057,2925625,SI 보브 현대송도,38,2,37.3828032236,126.6579998144,"인천광역시 연수구 송도국제대로 123, 2층",
10058,2906253,SI 아르마니 현대송도,38,2,37.3828032236,126.6579998144,"인천광역시 연수구 송도국제대로 123, 1층",
10062,3306046,STCO 모다아울렛 인천점,38,2,37.5099716004,126.6477388876,인천광역시 서구 북항로32번안길 50 (원창동),
10078,2754451,강만장,39,2,37.7817918077,126.280759378,인천광역시 강화군 교동면 대룡안길54번길 24,
10099,2860230,계산동수제돈까스,39,2,37.5373281891,126.728900162,인천광역시 계양구 계산로 149 영동프라자,
10122,2872720,그린홀리데이키친,39,2,37.6095876015,126.4796570354,인천광역시 강화군 해안남로 816,
10123,606705,금강산추어탕,39,2,37.5454068397,126.6744326853,인천광역시 서구 탁옥로51번길 13-8,
10131,2851829,기노스코,39,2,37.3952568629,126.6312991256,인천광역시 연수구 아트센터대로 203 송도 센트럴파크 푸르지오시티,
10140,2872782,나라니,39,2,37.6155850805,126.5339768989,인천광역시 강화군 해안남로 156-14,
10144,2873571,남도추어탕,39,2,37.4895795919,126.4935896407,인천광역시 중구 흰바위로92번길 6-16,1층
10149,2905955,네몽,39,2,37.3848558281,126.6616966433,인천광역시 연수구 송도과학로27번길 15 송도아메리칸타운아이파크,상가 104동 243호
10158,2853533,뉴욕베이글 송도,39,2,37.393193487,126.6468311005,인천광역시 연수구 컨벤시아대로 116 푸르지오월드마크,송도푸르지오월드마크7단지 1층 117호
10169,2843519,대게가,39,2,37.5995926424,126.6992844559,인천광역시 서구 고산후로 176,1층
10177,2791209,대풍식당,39,2,37.7817918077,126.280759378,인천광역시 강화군 교동면 대룡안길54번길 24,
10186,602370,동원물텀벙,39,2,37.4559056942,126.6495291163,인천광역시 미추홀구 독배로 403,(용현동)
10203,2876457,레드크랩,39,2,37.5530889063,126.6533232874,인천광역시 서구 경명대로 407,
10204,2838539,레이중화요리,39,2,37.529530341,126.6423388363,인천광역시 서구 청라루비로42번길 5-21,
10223,2841908,만미가셀프장어구이,39,2,37.4787370505,126.6877861029,인천광역시 서구 백범로622번길 20,
10226,2900941,만수숯불갈비,39,2,37.4641896422,126.7387290849,인천광역시 남동구 수현로 125,
10267,2779339,미도방만두,39,2,37.5493397565,126.6767490307,인천광역시 서구 서곶로 355,(연희동)
10279,2833855,바다쏭,39,2,37.4294807516,126.6361727337,인천광역시 연수구 능허대로 16,
10289,2767451,백령면옥제물포점,39,2,37.4679822616,126.6604583394,인천광역시 미추홀구 석정로 226,(도화동)
10324,2781454,비스트로페르레이,39,2,37.5339325121,126.6369419842,인천광역시 서구 크리스탈로 100,(청라동)3층
10325,2878004,빨간돼지 청라점,39,2,37.5365295514,126.6437051827,인천광역시 서구 청라커낼로319번길 3-13,
10332,2901001,산천쭈꾸미 본점 도림동,39,2,37.415342308,126.7257177422,인천광역시 남동구 비류대로764번길 190,
10343,2875347,서문김밥,39,2,37.7477937893,126.4839833438,인천광역시 강화군 강화대로430번길 2-1,
10357,2848948,선재리커피집,39,2,37.2340211589,126.5379815019,인천광역시 옹진군 선재로34번길 79,
10367,2849075,소성정,39,2,37.3946515433,126.6407121737,인천광역시 연수구 송도동,인천 연수구 센트럴로 194 A동 1층 135호
10378,2906376,송도명품 삼계탕,39,2,37.3701572769,126.6470594944,인천광역시 연수구 송도미래로 9 비알씨(주) 연구소,3동 313호
10387,404049,송원식당,39,2,37.4451189246,126.6985555008,인천광역시 남동구 문화서로4번길 61-14,
10402,2838724,스시카츠,39,2,37.5292553887,126.6431943209,인천광역시 서구 청라커낼로233번길 15,
10422,2877275,신진말,39,2,37.4876553073,126.6792616327,인천광역시 서구 원적로7번길 1,
10428,2848944,쌍곰다방,39,2,37.2333878909,126.5375593352,인천광역시 옹진군 선재로34번길 64 선재수산물직판장,2층
10429,2811793,쌍둥이네 해물식당,39,2,37.4155605084,126.6567517988,인천광역시 연수구 솔밭로70번길 7,
10430,2851845,아띠오아나폴리핏제리아,39,2,37.395765483,126.6509695409,인천광역시 연수구 컨벤시아대로 69 송도 밀레니엄,
10461,1970054,연백호,39,2,37.6405157904,126.3918447733,인천광역시 강화군 화도면 해안남로2903번길 56,
10504,404042,월매집,39,2,37.5437332662,126.7439152785,인천광역시 계양구 용마루1길 19,
10511,2878172,유진면옥,39,2,37.6559312925,126.4278993759,인천광역시 강화군 강화남로 606-1,
10535,1976356,인천집,39,2,37.4755308252,126.6287721323,인천광역시 중구 우현로67번길 53,
10547,2907423,장독집 청량산단상,39,2,37.4148300932,126.6598570922,인천광역시 연수구 청량로46번길 30,
10549,2768097,장수가든,39,2,37.4640509798,126.7506030066,인천광역시 남동구 수현로14번길 13-7,(장수동)
10612,855429,충남서산집,39,2,37.7047138468,126.3910569527,인천광역시 강화군 중앙로 1200 충남서산집,
10626,2875939,카페라르고빌,39,2,37.6409018417,126.3909948401,인천광역시 강화군 해안남로2845번길 27 라르고빌리조트,
10648,855691,토가,39,2,37.6084977491,126.4175210862,인천광역시 강화군 화도면 해안남로 1912,
10670,2877962,핀오크,39,2,37.6175732288,126.5050683771,인천광역시 강화군 장흥로 185-9,
10672,2782208,하늘가든하늘장,39,2,37.2577646988,126.4848134719,인천광역시 옹진군 영흥면 영흥로251번길 24,
10679,2876026,한나네,39,2,37.6008527952,126.49599745,인천광역시 강화군 해안남로 628 한나네,
10694,2769504,해송쌈밥,39,2,37.4427672641,126.430452253,인천광역시 중구 공항서로 177,(남북동)
10703,2843944,호가화,39,2,37.5368239604,126.6436385145,인천광역시 서구 청라커낼로319번길 3-14,
10707,2832597,화양계곡민물매운탕,39,2,37.4590608077,126.6452599733,인천광역시 미추홀구 장천로 5-8,
10710,2768147,황성얼큰오징어찌개,39,2,37.4522613835,126.6330696077,인천광역시 미추홀구 아암대로107번길 13,(용현동)
10720,2891629,희소식,39,2,37.714300191,126.4679301953,인천광역시 강화군 중앙로413번길 6 희소식,
10727,2837169,C27 다운타운,39,2,37.4279548962,126.4189259344,인천광역시 중구 마시란로 63,
