,content_id,title,content_type_id,area_code,latitude,longitude,addr1,addr2
16469,2774103,강씨봉 자연휴양림,12,31,37.9700067673,127.4083868175,경기도 가평군 북면 논남기길 520,
16470,1201163,강영천효자문,12,31,37.9689765715,127.4214078804,경기도 가평군 북면 논남기길 402-19,
16510,2754720,고렴공원,12,31,37.2406790621,127.0292311266,경기도 수원시 권선구 동수원로 114,(곡반정동)
16613,3075919,귀여리벚꽃길,12,31,37.5061535058,127.3183168215,경기도 광주시 남종면 귀여리,324-2
16625,3031918,금광호수공원,12,31,36.9983623787,127.3262221383,경기도 안성시 금광면 금광리,
16715,611738,단대동 닭죽촌,12,31,37.4620251305,127.1560022734,경기도 성남시 수정구 수정로 460-3,(단대동)
16771,125465,도드람산(저명산),12,31,37.2670047754,127.3925641313,경기도 이천시 마장면 서이천로,
16782,2820602,도자누리,12,31,37.4296641116,127.2608797768,경기도 광주시 송정동 420,
16801,2902683,동탄여울공원,12,31,37.1982849947,127.0867020999,경기도 화성시 오산동,1060
16814,2654539,들꽃가람농장,12,31,38.0455897286,127.1117311905,경기도 연천군 전곡읍 청연로 192,
16851,1955880,매산서원,12,31,37.306406346,127.5764019316,경기도 여주시 능서면 능서로 94-8,(능서면)
16853,2751115,매쟁이골,12,31,37.3436981702,126.9007399191,경기도 군포시 속달로 347-34,(속달동)
16860,3035853,메추리섬,12,31,37.2034497135,126.5386128348,경기도 안산시 단원구 대부남동,1345-1
16862,2789693,명달리산촌생태마을,12,31,37.6181845384,127.4480295861,경기도 양평군 서종면 명달리,
16865,126790,명성황후 생가,12,31,37.2604936594,127.6556516417,경기도 여주시 명성로 71,
16873,2966354,모아베리교육농장,12,31,38.0313151209,127.0416935808,경기도 연천군 황지로55번길 45-1,
16919,2606226,바람새마을 소풍정원,12,31,37.0105832508,127.0185690347,경기도 평택시 고덕면 궁리,
16933,2874966,밤가시공원,12,31,37.669533206,126.782644317,경기도 고양시 일산동구 일산로380번길 20-2 밤가시1어린이공원개방화장실,
16934,3018574,밤리단길,12,31,37.6721523718,126.7841135532,경기도 고양시 일산동구 정발산동,
16972,2717410,벚꽃사이마을 협동조합,12,31,37.2798130277,126.8511156523,경기도 안산시 상록구 영화5길 15,(사동)
16992,2763852,복하천수변공원,12,31,37.2683002969,127.4601135382,경기도 이천시 경충대로2422번길 17,(진리동)
17006,2746304,부락산 문화공원,12,31,37.0713466537,127.0734429452,경기도 평택시 지산동 1263,
17016,2751606,북리지,12,31,37.1538494915,127.1440148168,경기도 용인시 처인구 남사읍 형제로17번길 78,
17022,125550,북한산성,12,31,37.6457643949,126.9738386433,경기도 고양시 덕양구 대서문길 375,(북한동)
17077,2792927,상자포리마애여래입상,12,31,37.4134045494,127.547595909,경기도 양평군 개군면 상자포리 산36-1,
17122,128599,선감어촌체험마을,12,31,37.2205604384,126.6298901758,경기도 안산시 단원구 개건너길 78,(선감동)
17141,523741,성남시 식물원(은행식물원),12,31,37.453226347,127.1668682019,경기도 성남시 중원구 은행로 72,(은행동)
17147,128826,성호공원,12,31,37.3144536122,126.8598444519,경기도 안산시 상록구 성호로 131,(이동)
17155,129269,소래산,12,31,37.4473978783,126.7798924685,경기도 시흥시 신천동,산14 (일대)
17160,2789673,소리산마을,12,31,37.6415402493,127.6038758591,경기도 양평군 단월면 물레골길 6,
17181,126843,수리사(경기),12,31,37.3541080073,126.89698997,경기도 군포시 속달로 347-181,(속달동)
17269,1955904,안곡서원,12,31,37.1751198726,126.7091869925,경기도 화성시 서신면 제부로 860-36,
17344,128918,양평 두물머리,12,31,37.5336752977,127.31748833,경기도 양평군 양서면 두물머리길 145,(양서면)
17422,3023528,영국군 설마리전투 추모공원,12,31,37.9474396293,126.9338808878,경기도 파주시 적성면 구읍리,112-1
17425,612352,영동리 토속음식마을,12,31,37.4728834982,127.3806482268,경기도 광주시 퇴촌면 영동길 38,
17534,128588,우농타조농장,12,31,37.7052361633,126.714285671,경기도 파주시 교하로 595-41,(동패동)
17558,736355,원평허브농원,12,31,37.2461293351,126.92400719,경기도 화성시 매송면 매봉로 40-16,
17617,2998758,이포보,12,31,37.4043637211,127.5361972019,경기도 여주시 금사로 40,
17669,2743335,장지체육공원,12,31,37.1598148756,127.1108593193,경기도 화성시 동탄대로4가길 6,(장지동)
17693,1625097,정충묘,12,31,37.387708314,127.2858148188,경기도 광주시 초월읍 대쌍령리,326-4
17759,982142,진주목장 낙농체험,12,31,37.2412318864,126.8793113846,경기도 화성시 비봉면 일묵동길 24,
17805,128549,최규서어서각,12,31,37.0589993837,127.1465477874,경기도 안성시 원곡면 만리길 35,
17854,2569508,통일정보화마을,12,31,37.9063713366,126.7311617586,경기도 파주시 군내면 통일촌길 220,
17919,3076743,포시즌체험농장,12,31,37.3300197274,127.2402566988,경기도 용인시 처인구 모현읍 갈담리,
17932,3011177,포천수원산정상전망대,12,31,37.8573644858,127.2650893104,경기도 포천시 군내면 직두리,
18009,3032801,현충탑,12,31,37.4524398247,127.1390235327,경기도 성남시 수정구 태평동,
18034,2514563,화성 우리꽃식물원,12,31,37.1160158775,126.8824145659,경기도 화성시 팔탄면 3.1만세로 777-17,
18039,129289,화성 제부모세마을,12,31,37.1685858094,126.6244587588,경기도 화성시 서신면 제부말길 96,
18057,2873040,황계동 정조마을,12,31,37.2223697924,127.0136497178,경기도 화성시 황계길 97-1 황계1리노인회관,
18077,488506,흥왕사,12,31,37.3478983725,127.7060862347,경기도 여주시 북내면 당전로 345-4,(북내면)
21218,2714751,가원미술관,14,31,37.4240072795,126.9992259352,경기도 과천시 새빛로 24,(문원동)
21227,130832,경기과천교육도서관,14,31,37.4323257114,126.996595385,경기도 과천시 도서관길 36,(별양동)
21233,3081843,경기도업사이클플라자,14,31,37.2665807612,126.9811903187,경기도 수원시 권선구 서둔로 166 (서둔동),
21243,2946243,경희대학교 국제캠퍼스 노천극장,14,31,37.2480013599,127.0808817927,경기도 용인시 기흥구 덕영대로 1732 (서천동),
21251,2744492,고양꽃전시관,14,31,37.6539236657,126.7688126877,경기도 고양시 일산동구 호수로 595,(장항동)
21260,130093,광명문화원,14,31,37.4285657419,126.8805088315,경기도 광명시 오리로 287 (소하동),
21273,130187,국립수목원 산림박물관,14,31,37.7540329986,127.1633932497,경기도 포천시 소흘읍 광릉수목원로 415,
21274,130963,국립여성사전시관,14,31,37.6358019379,126.8340155763,경기도 고양시 덕양구 화중로104번길 50,(화정동)
21288,1060264,남송미술관,14,31,37.904498912,127.4722273608,경기도 가평군 북면 백둔로 322,
21295,3075887,누림아트홀,14,31,37.1991080903,126.8286782584,경기도 화성시 남양읍 남양리,
21296,130655,다도박물관,14,31,37.737513252,126.5744031239,경기도 김포시 월곶면 애기봉로275번길 187-49,
21300,129834,단국대학교 석주선기념박물관,14,31,37.3211827004,127.1325083884,경기도 용인시 수지구 죽전로 152,
21302,130566,대안미술공간 소나무,14,31,36.9812268502,127.2486073975,경기도 안성시 미양면 이박골길 75-33,
21312,3081930,동탄복합문화센터반석아트홀,14,31,37.2001234506,127.0743892751,경기도 화성시 반송동,
21319,130704,마가미술관,14,31,37.3318214392,127.192680407,경기도 용인시 처인구 모현면 문형동림로101번길 37,
21332,129770,모란미술관,14,31,37.6504063015,127.3237482921,경기도 남양주시 화도읍 경춘로2110번길 8,
21342,2638584,박두진 문학관,14,31,37.0350273181,127.3108919406,경기도 안성시 보개면 남사당로 198-11,
21344,2612874,박목월 시의 정원,14,31,37.298798608,127.2550006897,경기도 용인시 처인구 모현읍 새래로 158-33,
21350,3013783,별내어린이천문대,14,31,37.7344708366,127.1331021325,경기도 남양주시 별내면 용암리,
21355,130821,부천시립꿈빛도서관,14,31,37.5080379451,126.7737246693,경기도 부천시 신흥로275번길 19,(중동)
21358,130818,부천시립원미도서관,14,31,37.4979756752,126.7990226445,경기도 부천시 소사로 456,(원미동)
21373,130706,선바위미술관,14,31,37.4517512843,126.9993168123,경기도 과천시 무네미길 34,(과천동)
21390,2756728,소다미술관,14,31,37.2016720536,127.006103756,경기도 화성시 효행로707번길 30,(안녕동)
21391,2751444,소전미술관,14,31,37.4520307731,126.7854973841,경기도 시흥시 소래산길 41,(대야동)
21395,2932044,수연목서,14,31,37.4081920593,127.4390753365,경기도 여주시 주어로 58,
21402,638913,수원박물관,14,31,37.2976364692,127.0356067331,경기도 수원시 영통구 창룡대로 265,(이의동)
21413,130826,슬기샘어린이도서관,14,31,37.2975580487,126.9990989385,경기도 수원시 장안구 송정로 9,(송죽동)
21427,3310700,안산다문화작은도서관,14,31,37.3324864006,126.7903530484,경기도 안산시 단원구 부부로 43 (원곡동),지하 1층
21436,2747170,안성맞춤아트홀,14,31,37.0014500623,127.2789568725,경기도 안성시 발화대길 21,(현수동)
21449,2790974,양주소놀이굿공연장,14,31,37.7915395688,127.0004070564,경기도 양주시 백석읍 중앙로93번길 70-21,
21452,3070082,양평 아프리카 문화예술박물관,14,31,37.5073727076,127.6164480661,경기도 양평군 용문면 금곡리,
21463,129871,여주문화원,14,31,37.3002251179,127.6523174683,경기도 여주시 신륵사길 6-6,(천송동)
21471,130412,영은미술관,14,31,37.4135438997,127.2687267457,경기도 광주시 청석로 300,(쌍령동)
21476,2753057,오산시립미술관,14,31,37.1602725527,127.0770956975,경기도 오산시 현충로 100,(은계동)
21483,129869,용인문화원,14,31,37.2412455395,127.1774732269,경기도 용인시 처인구 중부대로 1199,(삼가동)
21484,2732148,용인시기후변화체험교육센터,14,31,37.2223790946,127.2229196401,경기도 용인시 처인구 동부로162번길 14,(남동)
21498,1850672,의왕조류생태과학관,14,31,37.3108778568,126.9502807778,경기도 의왕시 왕송못동로 209,(월암동)
21503,130901,이경순 소리박물관,14,31,37.0599974995,127.3575620273,경기도 안성시 삼죽면 동아예대길 47,
21504,3012713,이랜드갤러리,14,31,37.789189927,126.6952794854,경기도 파주시 탄현면 법흥리,
21517,1179315,잔아문학박물관,14,31,37.5966269983,127.3544803798,경기도 양평군 서종면 사랑제길 9-9,
21525,130742,조명박물관,14,31,37.836072673,126.9674976777,경기도 양주시 광적면 광적로 235-48,
21529,3023343,주니어천문스쿨 수지점,14,31,37.3182538749,127.0551599358,경기도 용인시 수지구 성복2로301번길 7 (성복동),2층
21532,2751700,준라이브카페,14,31,37.3851338542,126.834547562,경기도 시흥시 동서로 789,(물왕동)
21544,1918344,추사박물관(과천),14,31,37.452615593,127.0283252597,경기도 과천시 추사로 78,(주암동)
21552,2893523,토당문화플랫폼,14,31,37.6207950882,126.8192895667,경기도 고양시 덕양구 토당동 331-2,
21583,433042,한과문화박물관 한가원,14,31,38.0684294653,127.3036046141,경기도 포천시 영북면 산정호수로322번길 26-9,
21585,2539348,한국근현대사박물관,14,31,37.7908258447,126.6951461181,경기도 파주시 탄현면 헤이리마을길 59-85,
21588,130147,한국등잔박물관,14,31,37.3365733994,127.1778371753,경기도 용인시 처인구 모현읍 능곡로56번길 8,
21608,1918731,헤이리 커피박물관,14,31,37.7878817668,126.6964349721,경기도 파주시 탄현면 헤이리마을길 23,
21621,2539350,93뮤지엄,14,31,37.7897843202,126.6962904869,경기도 파주시 탄현면 헤이리마을길 59-58,헤이리예술마을 G-31
22033,1825520,경기인형극제in수원,15,31,37.2668308007,126.9850066316,경기도 수원시 권선구 서둔로 166,(서둔동)
22039,141799,고양국제꽃박람회,15,31,37.6539736577,126.7686849202,경기도 고양시 일산동구 호수로 595,
22040,2702939,고양시 트리니팅 프로젝트,15,31,37.6595397482,126.7727121731,경기도 고양시 일산동구 중앙로 1271-1,(장항동)
22042,530450,고양행주문화제,15,31,37.60048088,126.8246035434,경기도 고양시 덕양구 행주로15번길 89 (행주외동),
22043,1100492,고양호수예술축제,15,31,37.6538792239,126.7686654803,경기도 고양시 일산동구 호수로 595,
22049,629718,광주왕실도자컨퍼런스,15,31,37.3526075818,127.3276231368,경기도 광주시 곤지암읍 경충대로 727,
22054,3114685,국립농업박물관 어린이날 행사,15,31,37.2754797575,126.9826871564,경기도 수원시 권선구 수인로 154 (서둔동),
22069,3346838,렛츠런파크 서울 가을축제 '밤마실 페스티벌',15,31,37.444127336,127.008649511,경기도 과천시 경마공원대로 107 (주암동),
22079,2563119,벽초지수목원 가을꽃 국화축제,15,31,37.8004973858,126.8754182294,경기도 파주시 광탄면 부흥로 242,벽초지수목원
22084,589386,부천국제만화축제,15,31,37.50825125,126.7422053159,경기도 부천시 길주로 1,
22090,1810570,서울대공원 장미원 축제,15,31,37.4364977636,127.0141186736,경기도 과천시 대공원광장로 102 (막계동),
22093,3350469,서커스살롱 페스티벌 in 화성,15,31,37.2833148079,126.8177047028,경기도 화성시 꽃내음1길 30 (새솔동),
22097,3108083,세계오르골페스티벌 & 유럽동화나라축제,15,31,37.7150574078,127.4909256481,경기도 가평군 청평면 호반로 1063,
22106,914138,수원화성문화제,15,31,37.2872039225,127.0120008348,경기도 수원시 팔달구 정조로 825,(남창동) 수원화성 일원
22108,2993908,숲속 인형 페스타,15,31,37.2665807612,126.9811903187,경기도 수원시 권선구 서둔로 166,경기상상캠퍼스 공간 1986
22117,2658063,아침고요수목원 수국전시회,15,31,37.744012613,127.352556848,경기도 가평군 상면 수목원로 432,
22120,1810345,안산 성호문화제,15,31,37.3146646911,126.8594361495,경기도 안산시 상록구 부곡동,성호로 113  성호공원
22125,615807,안성맞춤 포도축제,15,31,36.9507444049,127.2570519279,경기도 안성시 서운면 양촌리,480번지
22128,1390147,안양춤축제,15,31,37.3901883031,126.9613442188,경기도 안양시 동안구 관평로 149 중앙공원관리부속,
22132,2873711,양주 조각숲 나들이(전시),15,31,37.7582150989,126.9685442552,경기도 양주시 권율로 594,
22136,2469685,양평 빙어축제,15,31,37.5610399614,127.6843181301,경기도 양평군 단월면 백동길 269-19,백동저수지
22137,2523569,양평 산수유마을 빙어축제,15,31,37.4329387228,127.5652548579,경기도 양평군 개군면 아랫상골길 22-8 향리낚시터,
22142,1762432,양평빙송어축제,15,31,37.514550408,127.6574135888,경기도 양평군 곱다니길 55-2,
22143,2484272,에덴벚꽃길 벚꽃축제,15,31,37.7855989511,127.4770526297,경기도 가평군 청평면 에덴벚꽃길 139,
22149,534220,연천 구석기축제,15,31,38.012281587,127.0611506837,경기도 연천군 전곡읍 양연로 1510,
22150,2870929,연천군국화전시회,15,31,38.0139674669,127.0592674742,경기도 연천군 전곡읍 양연로 1510,
22151,2591661,연천율무축제,15,31,38.012281587,127.0611506837,경기도 연천군 전곡읍 양연로 1510,
22161,2946813,율봄식물원 딸기 시즌,15,31,37.4699929424,127.2704610913,경기도 광주시 퇴촌면 도마리,84
22167,527710,이천도자기축제,15,31,37.2913267465,127.3806506302,경기도 이천시 신둔면 도자예술로62번길 123,
22168,527727,이천백사 산수유꽃축제,15,31,37.3405475559,127.4634000685,경기도 이천시 백사면 원적로775번길 12,
22170,2559193,이천인삼축제,15,31,37.2991263178,127.4067452683,경기도 이천시 신둔면 둔터로124번길 160,일원
22171,2494069,이천체험문화축제,15,31,37.2906240918,127.3829643297,경기도 이천시 신둔면 도자예술로62번길 113-109,
22174,3304671,장안문거북시장 새숱막축제,15,31,37.2917812189,127.0147310141,경기도 수원시 장안구 정조로934번길 40 (영화동),장안문거북시장 중앙로
22178,2671149,제10회 고양국제무용제,15,31,37.6612006889,126.7740064529,경기도 고양시 일산동구 중앙로 1286,(마두동)
22183,2822571,청계사 이야기 인쇄소,15,31,37.4117232224,127.0343647526,경기도 의왕시 청계로 475 청계사,
22186,2812160,캠핑요리축제,15,31,37.8208206631,127.5209420444,경기도 가평군 가평읍 자라섬로 60,
22189,572404,퇴촌 토마토축제,15,31,37.470613033,127.3100380349,경기도 광주시 퇴촌면 광동로 65,
22192,507362,파주장단콩축제,15,31,37.8895929015,126.7402002968,경기도 파주시 문산읍 임진각로 177,
22201,1620571,포은문화제,15,31,37.3377760696,127.179603648,경기도 용인시 처인구 모현면 능곡로 45,(모현면)
22204,1763715,포천 산정호수 썰매축제,15,31,38.0681687584,127.3238916534,경기도 포천시 영북면 산정호수로411번길 104,산정호수 조각공원 일대
22208,1973715,피노키오&어린왕자 별빛축제,15,31,37.7153018173,127.4905534526,경기도 가평군 청평면 호반로 1063,(청평면)
22216,3113967,해월 애니메이션축제,15,31,37.2063916868,127.3565524402,경기도 이천시 마장면 청강가창로 389-94,청강문화산업대학교
22218,590116,햇사레장호원복숭아축제,15,31,37.1178509997,127.6122679664,경기도 이천시 장호원읍 서동대로8759번길 117,
22220,2763262,행주가 예술이야,15,31,37.60048088,126.8246035434,경기도 고양시 덕양구 행주로15번길 89 (행주외동),행주산성
22222,1754946,허브아일랜드 불빛동화축제,15,31,37.9659160606,127.1316789055,경기도 포천시 신북면 청신로947번길 35,
22227,1811380,화성 뱃놀이 축제,15,31,37.1855870833,126.651033656,경기도 화성시 서신면 전곡항로 5,
22237,3019085,2023 이천힐링펫페어,15,31,37.2926544073,127.3826920744,경기도 이천시 신둔면 도자예술로62번길 113-71,
22240,293030,2024 안성 남사당 상설공연 '곰뱅이텄다',15,31,37.0318221187,127.3101448759,경기도 안성시 보개면 남사당로 198-2,
22246,3013725,"""청년 with, 예술로(路) 스미다"" 대통합예술무대",15,31,37.0089600387,127.2639996804,경기도 안성시 석정동,272-10
22248,2987791,DMZ OPEN 페스티벌,15,31,37.8920676942,126.7447609198,경기도 파주시 임진각로 148-40 평화누리,
22519,1967350,경기도 광주의 자연 속으로,25,31,37.4773711348,127.1871573389,,
22521,2568652,경원선 철길따라 연천여행,25,31,38.101640823,127.0739135774,,
22522,2568627,경의선 타고 평양여행을 꿈꾸다,25,31,37.8903900312,126.7402169396,,
22525,1874868,고구려 역사 되짚어보는 역사기행,25,31,37.580510921,127.130867855,,
22528,1967840,과천의 아름다움을 보았는가...,25,31,37.4361668563,126.9923289981,,
22529,2785765,관광두레와 함께하는 포천 여행 코스,25,31,38.0729841938,127.2875587267,경기도 포천시 영북면 산정호수로 130,
22532,2515714,구불구불 서해안 바닷길 여행,25,31,37.1870619226,126.6515891206,,
22534,1917213,"꽃, 그리고 물속 생물들과 함께 조용한 사색을...",25,31,37.6563843669,126.7618826961,,
22536,1874880,남양주 친환경 순례,25,31,37.7522777557,127.3217677476,,
22539,1887698,남한강을 따라 흩어진 역사의 향기,25,31,37.3060263378,127.6038994562,,
22540,1921492,놀거리 볼거리 많은 장흥에서의 캠핑,25,31,37.6952590116,126.9947186622,,
22541,1873261,농촌체험마을과 캠핑을 동시에 즐기다!,25,31,37.8316512926,127.2912626688,,
22546,1869579,"도자기와 쌀, 온천을 모두 만나는 건강힐링여행",25,31,37.3271846986,127.4351252324,,
22552,2514055,마음을 평화롭게 하는 길,25,31,37.2788706826,127.4263051848,,
22555,1874922,몸과 마음을 깨우는 소요산 등반코스,25,31,37.9465116356,127.0693157325,,
22561,2363217,바다와 호수가 만들어준 멋진 드라이브 코스 1,25,31,37.299305152,126.8476682021,경기도 안산시 상록구 석호로 144,(사동)
22565,1997025,보고 느끼고 즐기는 여주 미술·박물관·체험 여행,25,31,37.3986434984,127.6091352068,,
22566,2363261,볼거리가 하늘의 별처럼 촘촘히 박혀있는 곳,25,31,37.7225966347,126.9468778065,,
22575,2987534,서해 제일의 석양부터 야경까지 아우르는 드라이브 코스,25,31,37.6125164284,126.7155881596,경기도 김포시 장릉로 79,
22577,2514051,석기시대로 타임머신 타고 떠나자!,25,31,38.012281587,127.0611506837,,
22579,1921529,설봉산 일대의 산책과 미술관 관람,25,31,37.2813284853,127.4127674518,,
22585,1887407,"수원화성의 도시, 수원에서 즐기는 특별한 여행",25,31,37.2970164622,127.0000849751,,
22586,2569754,"쉬면서, 신나게 놀아요.",25,31,38.1081742942,127.1232977461,,
22588,2514018,슬로우푸드와 승마로 건강지키는 법,25,31,37.1347265968,127.4466740981,,
22591,1869478,쌀을 부어 물처럼 보이는 지혜를 만나다,25,31,37.1825384496,127.0226166807,,
22594,2515530,아이 웃음소리가 끊이지 않는 여행,25,31,37.2763769709,127.4507474888,,
22600,2363227,안산에서 즐기는 시원스런 전망과 즐거운 체험,25,31,37.2608318535,126.8488469408,,
22603,2371986,"알짜배기 도심 치유여행, 성남",25,31,37.4341881202,127.0809904354,,
22605,2674166,양평에서 드라마 속 주인공 되어보자,25,31,37.5880714886,127.4546298581,경기도 양평군 옥천면 중미산로 1152,
22606,2987539,"어느 계절, 어느 누구와 함께해도 남부럽지 않은 코스",25,31,37.8014139252,126.8742905293,경기도 파주시 부흥로 242,
22608,1965837,역사와 예술을 만나다 원당 파주,25,31,37.6623384267,126.8724974231,,
22619,2987541,"오늘, 지금, 여기! 가장 핫한 DMZ 스팟으로 떠나보자!",25,31,37.7730205159,126.9023221079,경기도 파주시 기산로 31,
22627,1976475,이천의 등산여행 코스,25,31,37.2678240882,127.3905226266,,
22632,1921208,자연보다 더 아름다운 공원산책 코스,25,31,37.5130210232,126.7919145381,,
22635,2390050,장흥에서 즐기는 체험놀이 코스,25,31,37.7360172099,126.9421861861,,
22636,2037367,젊음의 낭만이 가득한 물의 여정,25,31,37.7144713469,127.4899618642,,
22638,1942795,제부도 바닷길을 가르고 모세처럼 걷기,25,31,37.1714882076,126.6219727941,,
22643,2357718,책과 함께하는 특별한 체험여행,25,31,37.7083436435,126.6866797759,,
22644,1873269,청평호반과 유명산을 두루 즐기는 웰빙여행,25,31,37.7519056334,127.4763342349,,
22646,1917178,타조와 동식물을 모두 체험할 수 있는 코스,25,31,37.7043750321,126.7075252026,,
22647,2987549,태곳적 한반도를 만나 오늘의 나를 새롭게하는 리버스(re-birth) 코스,25,31,38.0116483757,127.0637782388,경기도 연천군 평화로443번길 2 전곡선사박물관,
22649,2569826,통제가 해제된 DMZ 마을에서 만나는 역사,25,31,37.9906912679,126.8427713299,,
22650,2569651,"파주, 건강하고 맛있는 ‘장단콩’",25,31,37.9106264376,126.7335503075,,
22651,1917198,파주에서 즐길 수 있을 만한 좋은 여행,25,31,37.8023472378,126.72402648,,
22655,2511701,포도가 무르익는 안성 여행 [웰촌],25,31,36.944309309,127.2722951759,,
22656,2665995,포천러가 추천하는 진짜 여름 휴가코스,25,31,37.9235007,127.2365177729,경기도 포천시 신북면 아트밸리로 234,
22659,2363252,하루 만에 둘러보는 ‘안성’맞춤 여행,25,31,37.0112174698,127.2281695194,,
22660,2037232,한강에 기대 선현을 추억하다.,25,31,37.5712067737,127.3021525359,,
22664,2048382,"5월, 아름다운 신록을 만나다.",25,31,37.7506334957,127.1689595069,,
22666,2384830,'태양의 후예' 촬영지 여행 코스,25,31,37.8967890978,126.7297843803,,
23008,2747467,가평사계절캠핑장,28,31,37.8837694057,127.5486571126,경기도 가평군 북면 가화로 988,
23034,3023423,경기레포츠클라이밍,28,31,37.2703013039,127.0668018899,경기도 용인시 기흥구 흥덕1로 13 (영덕동),흥덕IT밸리 흥덕IT밸리 (영덕동)
23043,2773302,고담낚시터,28,31,37.2383343456,127.4616864708,경기도 이천시 진상미로2192번길 217,(고담동)
23055,681561,"곤지암렌탈샵 (구, 장비좋은집)",28,31,37.3390143099,127.3054866406,경기도 광주시 도척면 독고개길 307,
23086,2749614,국망봉 자연휴양림캠핑장,28,31,38.0289580021,127.396272299,경기도 포천시 이동면 늠바위길 207-28,
23094,2745716,그림책동화마을품캠핑장,28,31,37.8896910181,127.0986424717,경기도 동두천시 삼육사로 1366,(탑동동)
23098,2753065,글램파크 글램핑,28,31,38.0190057993,127.3645116076,경기도 포천시 이동면 화동로 1925-47,
23125,2734831,김포한강오토캠핑장,28,31,37.702954785,126.6530302288,경기도 김포시 하성면 월화로 912번길 64,
23141,2754454,남이섬베스트캠핑장,28,31,37.7721904667,127.534961638,경기도 가평군 가평읍 북한강변로 517-8,
23184,2743822,담터오지캠핑장,28,31,38.166429774,127.1877429024,경기도 포천시 관인면 담터길 409,
23216,131156,덕평수련원,28,31,37.1838254835,127.391572134,경기도 이천시 호법면 장자터로 114-127,
23218,3012120,도농한강공원물놀이장,28,31,37.6096523057,127.1489153797,경기도 남양주시 다산동,
23229,2756079,동교낚시터,28,31,37.8516764304,127.1220303214,경기도 포천시 원동교길 259,(동교동)
23281,3081858,마실휴양농원,28,31,37.2334239361,126.84990316,경기도 화성시 비봉면 남전리,
23283,2727235,마운틴캠핑장,28,31,37.1352299602,127.3286403041,경기도 용인시 처인구 원삼면 후평로185번길 50,
23304,2737959,명학산캠핑장,28,31,37.8511406885,126.8313235989,경기도 파주시 파주읍 바리골길 260-149,
23312,578713,몽베르 컨트리클럽,28,31,38.0742399343,127.3055792624,경기도 포천시 영북면 산정호수로 359-12,
23313,2751704,무네미낚시터,28,31,37.8669787522,127.19496488,경기도 포천시 군내면 유교로88번길 43,
23337,2761195,바다의 별 관광농원,28,31,37.2146635637,126.6107031929,경기도 안산시 단원구 부흥로 359-9,(대부남동)
23339,3057775,바운스슈퍼파크 수원영통센터,28,31,37.2451874572,127.0619141469,경기도 수원시 영통구 덕영대로 1566 (영통동),
23390,2732682,부천문화둘레길-소사내음길,28,31,37.4817157575,126.7598405606,경기도 부천시 성주로 20,(송내동)
23407,2752063,블루문캠핑장,28,31,37.7468011337,127.3501430983,경기도 가평군 상면 수목원로386번길 43,
23410,131120,블루헤런 골프클럽,28,31,37.3833986772,127.6438047312,경기도 여주시 대신면 고달사로 67,
23414,131893,비에이비스타 컨트리클럽,28,31,37.1805707574,127.4165699661,경기도 이천시 모가면 어농로 272,(모가면)
23436,2752510,산음캠핑(글램핑),28,31,37.5998782899,127.596983255,경기도 양평군 단월면 고북길 76-23,
23452,2749556,상덕낚시터,28,31,37.2153538369,127.1633141256,경기도 용인시 처인구 이동읍 서리 816-2,
23545,2760833,스토피아아카데미,28,31,37.4102720693,127.1154518684,경기도 성남시 수정구 동판교로 308,(사송동)
23546,2728913,스톤밸리캠핑장,28,31,37.858802756,127.0878026888,경기도 양주시 칠봉산로228번길 126-190,
23555,131897,신갈승마클럽,28,31,37.2411420362,127.1363658436,경기도 용인시 기흥구 지삼로201번길 9,(지곡동)
23603,131564,안성컨트리클럽,28,31,37.0386454108,127.4131826071,경기도 안성시 죽산면 걸미로 487,
23628,131563,양지 파인골프클럽,28,31,37.2263160463,127.2948241303,경기도 용인시 처인구 남평로 112 양지파인리조트,
23652,2762709,어심바다낚시터,28,31,37.2357797773,126.5659900159,경기도 안산시 단원구 잘푸리길 107,(대부남동)
23679,2729421,연미향마을,28,31,37.1562414567,127.3305673169,경기도 용인시 처인구 원삼면 백원로 128-7,
23744,2908574,운악184 오토캠핑 글램핑장,28,31,37.8838871662,127.3071846946,경기도 포천시 화동로184번길 35-1,
23796,2730853,일영무두리캠핑장,28,31,37.7005130958,126.9469562057,경기도 양주시 장흥면 유원지로 176-77,
23811,2751424,장자원낚시터,28,31,37.6857978114,126.9285360842,경기도 양주시 장흥면 일영로502번길 2-105,
23834,131723,지산 포레스트 리조트 스키장,28,31,37.2153404296,127.3442255243,경기도 이천시 마장면 지산로 267,
23869,2730879,카라반랜드,28,31,37.2154520921,126.5953351241,경기도 안산시 단원구 수영목길 27-75,
23874,578603,캐슬파인 골프클럽,28,31,37.2982409112,127.7433981865,경기도 여주시 강천면 부평로 580,(강천면)
23890,2792273,캠핑소리251,28,31,37.6410802657,127.51137872,경기도 가평군 설악면 묵안로 350,
23909,2738777,클럽노블픽,28,31,37.6897303417,127.3692791215,경기도 가평군 청평면 모꼬지로 154,
23910,2755465,클럽레드존캠핑장,28,31,37.7600836532,127.5410503276,경기도 가평군 가평읍 북한강변로 360-69,
23931,2782649,통일워터파크,28,31,37.6896214151,126.8754824883,경기도 고양시 덕양구 대양로 25,(대자동)
23933,3081316,트리플밸리,28,31,37.3671228438,126.8789801334,경기도 안산시 상록구 수암동,
23951,3023366,파주스피드파크,28,31,37.9360814993,126.871623031,경기도 파주시 파평면 청송로652번길 42-191,
24015,2761194,하늘바다낚시터,28,31,37.2320503798,126.6074474569,경기도 안산시 단원구 작은상재미길 99,(대부동동)
24070,3013896,홀스메이트승마클럽,28,31,37.2517814162,126.9216600235,경기도 화성시 매송면 원평리,
24078,2782608,화성해양아카데미연구회,28,31,37.1856509653,126.6510669845,경기도 화성시 서신면 전곡항로 5,
24101,2755812,GoOut 양주감악산 캠핑장,28,31,37.9142633575,126.9566714219,경기도 양주시 남면 감악산로 632-32,
24117,1835368,[경기옛길 삼남길 제4길] 서호천길(지지대비 ~ 서호공원 입구),28,31,37.3273404488,126.984535539,경기도 수원시 장안구 경수대로,(이목동)
25638,2627867,가람나무,32,31,37.7547493903,126.689194904,경기도 파주시 소라지로327번길 126-21,(송촌동)
25647,143138,고려호텔,32,31,37.5054905901,126.7495491678,경기도 부천시 길주로 66,
25653,3079710,골든튤립에버 용인호텔,32,31,37.2870909414,127.2167933722,경기도 용인시 처인구 포곡읍 전대로78번길 19-2,
25663,2763880,글램트리리조트,32,31,37.7863960064,127.3216917642,경기도 가평군 상면 돌아우길 73,
25671,397919,달빛이머무는집,32,31,37.4448527949,127.498943857,경기도 양평군 강상면 세월길147번길 201,
25680,2918709,도노 1796 호텔,32,31,37.2870984128,127.0138784447,경기도 수원시 팔달구 신풍로 68,
25684,983626,둥지황토펜션,32,31,37.1386072672,127.3241683915,경기도 용인시 처인구 원삼면 후평로 166,
25693,139522,럭셔리관광호텔(오산),32,31,37.1456547287,127.0732103455,경기도 오산시 경기대로 231,
25695,2918623,레브호텔,32,31,37.2648679065,127.0280111172,경기도 수원시 팔달구 효원로219번길 46-24,
25710,912896,리치빌,32,31,37.5802767621,127.3897720877,경기도 양평군 서종면 황순원로 449,
25711,2865958,리치스테이호텔,32,31,37.0458768688,127.0450712173,경기도 평택시 고덕중앙2로 77-6 리치타워,
25714,2849817,마루호텔,32,31,37.2696725176,127.0062823989,경기도 수원시 팔달구 고화로9번길 33,
25715,3075193,마리호텔,32,31,37.6450915855,126.6250566335,경기도 김포시 김포한강9로75번길 190 (구래동),
25716,3075606,마인호텔,32,31,37.1156553134,126.9109564332,경기도 화성시 향남읍 상신하길로298번길 7-9,
25728,142802,미란다 호텔,32,31,37.2763769709,127.4507474888,경기도 이천시 중리천로115번길 45,
25731,2621340,바다뜰이야기펜션,32,31,37.1675248446,126.6257919998,경기도 화성시 서신면 해안길 96-19,
25739,138615,버킹검모텔,32,31,37.0656137762,127.3718827993,경기도 안성시 삼죽면 삼죽로 16,
25746,137992,벨뷰펜션,32,31,37.5098186066,127.559911455,경기도 양평군 용문면 학골길 21,
25751,2917187,부티크호텔 XYM,32,31,37.0402507021,127.0990942652,경기도 평택시 도일유통길 13-31,
25754,2358790,블룸비스타,32,31,37.500303291,127.421754819,경기도 양평군 강하면 강남로 316,
25762,139864,산음펜션,32,31,37.5876155512,127.5822016198,경기도 양평군 단월면 윗고북길 57,
25775,136060,소노휴 양평 (구 대명리조트 양평),32,31,37.4692783594,127.5326012133,경기도 양평군 개군면 신내길7번길 55,
25778,137999,소풍가는날 펜션,32,31,37.5265385354,127.691390717,경기도 양평군 청운면 비룡점말1길 43,
25779,1746337,소풍호텔,32,31,37.7849318546,126.6820141537,경기도 파주시 탄현면 요풍길 119-1,
25783,2875471,송탄 메트로폴 관광호텔,32,31,37.0667580801,127.0613525,경기도 평택시 관광특구로 24,
25788,139064,숲속의 궁전,32,31,37.7684935634,127.2258871309,경기도 포천시 내촌면 금강로 2119-18,
25793,2870003,스타비아호텔,32,31,37.6403237533,126.6846707604,경기도 김포시 태장로795번길 147,
25795,3337413,스페인마을 라스블랑카스 펜션,32,31,37.6894887457,127.3716178046,경기도 가평군 청평면 남이터길 54-12,
25803,2849901,심포니호텔,32,31,37.2546616027,127.0754543204,경기도 수원시 영통구 반달로128번길 13 호텔심포니,
25833,945085,에델바이스,32,31,37.5147993746,127.6028629709,경기도 양평군 용문면 용문산로192번길 10-9,
25841,3075170,엠타워호텔,32,31,37.6436611687,126.6234457094,경기도 김포시 김포한강9로75번길 38 (구래동),
25846,2735326,연천미라클타운,32,31,38.1310729674,127.045065365,경기도 연천군 군남면 군중로 134,
25871,986600,이비스 앰배서더 수원,32,31,37.2593352731,127.03133597,경기도 수원시 팔달구 권광로 132,
25885,2853207,저스트슬립호텔 지행역점,32,31,37.8916899579,127.0530576948,경기도 동두천시 중앙로 110-9 한스빌딩,
25896,2039647,지앤미호텔,32,31,37.345417216,126.7328245911,경기도 시흥시 서촌상가4길 8-4,
25906,143140,코리아 관광호텔 수원,32,31,37.2643985318,127.0289110481,경기도 수원시 팔달구 권광로175번길 62,
25909,3075075,퀸타운호텔,32,31,37.6574122248,126.7730816437,경기도 고양시 일산동구 정발산로 39 (장항동),대양빌딩 8층
25912,3074985,클럽인너호텔앤리조트,32,31,37.7624999889,127.5383560573,경기도 가평군 가평읍 북한강변로 382,
25913,2765650,클로버리조트,32,31,37.7591698853,127.5418363933,경기도 가평군 가평읍 북한강변로 360-89,
25927,138347,팜스테이펜션,32,31,37.4996290776,127.6119348111,경기도 양평군 용문면 갈지길36번길 58,
25928,2911036,퍼스트호텔,32,31,37.6325907273,127.1168704212,경기도 구리시 갈매중앙로 89-7 퍼스트호텔,
25959,2932921,한울,32,31,37.2371337104,127.265493147,경기도 용인시 처인구 송주로236번길 110,한울한옥스테이
25971,946383,호수가아름다운집,32,31,37.975564729,127.2723601982,경기도 포천시 영중면 물안길 177-26,
25984,2700199,호텔CC,32,31,37.8089165207,126.757867639,경기도 파주시 탄현면 엘씨디로241번길 39-45,
25992,2792956,호텔리브레,32,31,37.3468170783,126.7342105373,경기도 시흥시 서촌상가3길 7-3,(정왕동)
26007,2016948,호텔온,32,31,37.3802813556,126.9745710726,경기도 의왕시 복지로 6,
26008,3091277,호텔유,32,31,37.7366161975,127.0440268675,경기도 의정부시 신흥로232번길 6 (의정부동),
26011,2860795,호텔클로버,32,31,37.3086402224,126.8500232841,경기도 안산시 상록구 양지편로 22,
26026,2606397,pine view,32,31,37.2670123671,127.0427958268,경기도 수원시 영통구 동수원로 432,"(매탄동,동남아파트) 3동 813호"
26027,1927106,Q HOTEL,32,31,37.7887981917,126.6888606398,경기도 파주시 탄현면 샘철길 22,
27011,2918717,게스 수원역Ak,38,31,37.266100609,127.0006857844,경기도 수원시 팔달구 덕영대로924,
27137,2733829,남양시장,38,31,37.2091761558,126.8166235196,경기도 화성시 남양읍 남양리 1165-36,
27140,2928860,내셔널지오그래픽 롯데파주,38,31,37.7178732145,126.6937760801,경기도 파주시 회동길 390,
27142,2930123,내셔널지오그래픽 스타필드시티위례점,38,31,37.4801895523,127.1484191135,경기도 하남시 위례대로 200,
27155,2929053,네파 롯데광교,38,31,37.2860687197,127.0554913633,"경기도 수원시 영통구 도청로 10, 2층(이의동)",
27178,2924900,노스페이스 롯데안산,38,31,37.3180555223,126.8345133215,경기도 안산시 단원구 고잔1길 12,
27206,3307354,닉스 뉴코아 평촌,38,31,37.3893465617,126.9516812325,경기도 안양시 동안구 동안로 119 (호계동),
27213,2929597,다이슨,38,31,37.3900381258,126.950436882,경기도 안양시 동안구 시민대로180,
27226,2909074,닥스셔츠 롯데파주,38,31,37.7178732145,126.6937760801,"경기도 파주시 회동길 390 (문발동, 롯데아울렛 파주)",
27291,2922971,데상트 롯데기흥,38,31,37.2254213563,127.1209287945,경기도 용인시 기흥구 신고매로 124,
27412,3306213,레노마키즈 뉴코아 평촌,38,31,37.3893465617,126.9516812325,경기도 안양시 동안구 동안로 119 (호계동),
27430,2894996,로가디스 롯데아울렛 파주점,38,31,37.7178732145,126.6937760801,경기도 파주시 회동길 390,
27446,2926368,록시땅 롯데수원,38,31,37.2642285439,126.9973083655,경기도 수원시 권선구 세화로 134,
27447,2925013,록시땅 롯데안산,38,31,37.3180555223,126.8345133215,경기도 안산시 단원구 고잔1길 12,
27453,2922478,롯데 이천 랑방,38,31,37.2422772151,127.400044712,경기도 이천시 호법면 프리미엄아울렛로 177-74,
27548,2914084,롯데하이마트 중동점,38,31,37.5042772211,126.7709028096,경기도 부천시 원미구 길주로 255,
27584,2923051,르꼬끄스포르티브 롯데백화점평촌점,38,31,37.3900381258,126.950436882,경기도 안양시 동안구 시민대로 180 5층,
27614,3306719,리스트 뉴코아 평촌,38,31,37.3893465617,126.9516812325,경기도 안양시 동안구 동안로 119 (호계동),
27667,2753395,매산시장,38,31,37.2650008212,127.0054242739,경기도 수원시 팔달구 권선로 477,"(매산로2가,대한대우아파트) 후문상가 2층"
27686,3307450,멜본 뉴코아 평촌,38,31,37.3893465617,126.9516812325,경기도 안양시 동안구 동안로 119 (호계동),
27713,3305880,몽크로스,38,31,37.6334017268,127.1159427049,경기도 구리시 경춘북로 230 (갈매동),
27731,2922635,미샤 롯데아울렛 이천점,38,31,37.2422772151,127.400044712,경기도 이천시 호법면 프리미엄아울렛로 177-74,
27946,2894010,소다_롯데광명점,38,31,37.4232469761,126.8839475563,"경기도 광명시 일직로 17(일직동,롯데프리미엄아울렛광명점 3층)",
27966,2927086,수트서플라이,38,31,37.5972888829,126.7852461144,경기도 김포시 아라육로152번길 100,
28035,3306366,스파오 뉴코아 평촌,38,31,37.3893465617,126.9516812325,경기도 안양시 동안구 동안로 119 (호계동),
28051,3306008,시슬리,38,31,37.6686077579,126.7514777471,경기도 고양시 일산서구 대화동 2602,
28069,1238580,신세계사이먼 파주 프리미엄 아울렛,38,31,37.7689256453,126.6964910575,경기도 파주시 탄현면 필승로 200,
28142,2925567,아이잗바바 롯데파주,38,31,37.7178732145,126.6937760801,경기도 파주시 회동길 390 (문발동) 롯데프리미엄아울렛,
28156,2905410,아테스토니 현대김포아울렛점,38,31,37.5972888829,126.7852461144,경기도 김포시 고촌읍 아라육로152번길 100,
28193,1953340,앙코르면세점,38,31,37.2592130642,127.0312970881,경기도 수원시 팔달구 권광로 132,(인계동)
28428,3307289,올리브영 수원경기대점,38,31,37.2993141969,127.0436587331,경기도 수원시 영통구 대학로 34,
28474,2913499,올리브영 용인광교,38,31,37.2979564892,127.0698258405,경기도 용인시 수지구 광교중앙로 314 세현빌딩,
28481,2914203,올리브영 웨스턴돔중앙,38,31,37.6565206379,126.7717512351,"경기도 고양시 일산동구 정발산로 24 (장항동 867, 웨스턴돔 A동 162호)",
28513,3306011,올리브영 평촌점,38,31,37.3841889814,126.9603361462,경기도 안양시 동안구 평촌대로 132,
28514,3307252,올리브영 평택고덕로데오점,38,31,37.0573533629,127.0474540179,경기도 평택시 고덕갈평6길 29,올리브영
28554,3307258,와이드앵글 뉴코아 평촌,38,31,37.3893465617,126.9516812325,경기도 안양시 동안구 동안로 119 (호계동),
28574,2930903,유니클로 구성,38,31,37.3020455582,127.1063474116,경기도 용인시 기흥구 용구대로 2420,
28587,2911632,유니클로 스타필드위례,38,31,37.4801895523,127.1484191135,경기도 하남시 위례대로 200,
28620,2917428,이마트 부천,38,31,37.4840908864,126.7826634132,경기도 부천시 소사구 부천로 1,
28629,2913966,이마트 일산,38,31,37.648324545,126.7815811233,경기도 고양시 일산동구 중앙로 1124,
28906,2927611,쿡쉘,38,31,37.3180555223,126.8345133215,경기도 안산시 단원구 고잔1길 12,
28938,2922817,키친갤러리 롯데 이천점,38,31,37.2422772151,127.400044712,경기도 이천시 호법면 프리미엄아울렛로 177-74,
29036,2894591,파타고니아_신세계(아)파주점,38,31,37.7694061453,126.6965243749,경기도 파주시 탄현면 필승로 200(파주프리미엄아울렛) 313호,
29053,2911529,페레가모 현대 킨텍스점,38,31,37.6686077579,126.7514777471,경기도 고양시 일산서구 호수로 817,
29056,1914768,평택국제중앙시장,38,31,37.0808063032,127.0527306683,경기도 평택시 중앙시장로25번길 11-4,
29311,2915555,BTY갤러리 롯데파주,38,31,37.7178732145,126.6937760801,경기도 파주시 회동길 390 (문발동) 롯데프리미엄아울렛,
29319,3306600,DEWL,38,31,37.6686077579,126.7514777471,경기도 고양시 일산서구 대화동 2602,
29341,2931337,EW 스파오 원마운트,38,31,37.6646082788,126.7545414686,경기도 고양시 일산서구 한류월드로 300,
29467,2901618,SI 갭 신세계파주,38,31,37.7694061453,126.6965243749,경기도 파주시 필승로 200,
29476,2927450,SI 보브 신세계파주,38,31,37.7694061453,126.6965243749,경기도 파주시 탄현면 필승로 200,
30216,2781442,가평냉면 부손 설악본점,39,31,37.6781252532,127.4727422665,경기도 가평군 설악면 유명로 1818-13,
30276,2844808,건강담은전민숙밥상,39,31,37.332968797,127.0529541673,경기도 용인시 수지구 신봉1로 331,
30303,793393,고구려최강달인의집,39,31,37.7818045784,126.6897329796,경기도 파주시 탄현면 성동로 19-81,
30462,2844423,그집,39,31,37.646321787,126.6131382447,경기도 김포시 구래로87번길 137,
30481,2830327,금천한우타운,39,31,37.4098926184,126.86416362,경기도 광명시 가학로 177,
30498,2674267,김경자소문난대구왕뽈찜,39,31,36.9891594599,127.1037563697,경기도 평택시 조개터로26번길 27,
30504,2844429,김반장오리주물럭 앤펍,39,31,37.6356870803,126.6224710216,경기도 김포시 김포한강10로 91,
30570,2853230,낙원간장게장,39,31,37.0013722589,127.2770070506,경기도 안성시 거리미길 14-4,
30622,2911089,논두렁 우렁쌈밥 전문점 오야동직영점,39,31,37.4536751975,127.1059570593,경기도 성남시 수정구 오야남로 5,1층
30859,2866041,두래촌,39,31,37.2056989831,126.9846666993,경기도 화성시 안녕북길 7,
30876,2854592,두손진곰탕,39,31,37.6505915346,126.6582951059,경기도 김포시 운곡로 4,
30912,2846605,땡이네소곱창,39,31,37.246551081,127.0559174309,경기도 수원시 영통구 영통로213번길 16 망포프라자,
31030,2792633,리트커피,39,31,37.2769241972,127.6066944825,경기도 여주시 월평로 53,(월송동)
31220,2858618,문성5호,39,31,37.2661431172,126.5770881741,경기도 안산시 단원구 대부황금로 1209,
31236,2635513,물왕통나무집,39,31,37.3816816037,126.8416886748,경기도 시흥시 동서로 863,
31254,2862239,미미곱창,39,31,37.5638139236,127.1896379822,경기도 하남시 미사강변중앙로 193 에코브리지,1층 120-122호
31334,2679382,배다리,39,31,36.9970670484,127.1131664115,경기도 평택시 문화촌로11번길 15-11,
31389,2854575,벚골도토리막국수,39,31,38.1312406775,127.2549072249,경기도 포천시 숯골길 325,
31404,2686214,벵게식당,39,31,37.6580687301,126.8306152576,경기도 고양시 덕양구 원당로33번길 42-9,
31444,2844492,본가광양불고기,39,31,37.4034642479,127.1000312397,경기도 성남시 분당구 판교로255번길 9-22 (삼평동),
31539,133215,비원매운탕,39,31,37.4890086097,127.4891268087,경기도 양평군 양평읍 양근강변길 58,
31556,2679461,뽀이네조개품은돼지,39,31,37.0072044733,127.096650957,경기도 평택시 비전2로 29,
31637,2832540,삼막칡냉면 안양본점,39,31,37.4250500455,126.9120560591,경기도 안양시 만안구 삼막로39번길 39,
31741,2799624,설문커피,39,31,37.7264046623,126.7995828273,경기도 고양시 일산동구 고봉로 832,(설문동)
31748,2911152,설화한우,39,31,37.3843920627,127.1336287264,경기도 성남시 분당구 안골로 12-4 동양프라자,1층
31801,2826361,손가 숯불아나고꼼장어,39,31,37.4623058717,127.1681206082,경기도 성남시 수정구 산성대로 585-1,
31804,2841614,솔가원,39,31,37.765235965,127.0925521713,경기도 의정부시 호국로 1769-5,
31908,2777890,스시이안,39,31,37.5623030122,127.1909601278,경기도 하남시 미사강변중앙로 174,(망월동) 해링턴타워 레이크파크 2층
31943,2860688,시골향기,39,31,37.6076845758,126.7672780184,경기도 김포시 신곡로 114-8,
31967,2737301,신동태요리전문점,39,31,37.1517993852,127.1248610529,경기도 화성시 경기동로 491,(장지동)
31981,2862945,신토불이가든,39,31,37.0540019292,127.4107657277,경기도 안성시 걸미로 662,
32045,816289,아시아아시아,39,31,37.655881828,126.7720095624,경기도 고양시 일산동구 정발산로 24,
32050,2772252,아이라이크마운틴,39,31,37.6457380976,126.9013674795,경기도 고양시 덕양구 고양대로2002번길 29,(동산동)
32132,2736054,양평신내서울해장국,39,31,37.4508378512,126.8634014319,경기도 광명시 범안로 857,(하안동)
32175,2851548,어텐디드가든카페,39,31,37.8945766512,127.5578559558,경기도 가평군 화악산로 131,
32250,2674666,영심(Osim),39,31,36.9669695348,127.0577083662,경기도 평택시 팽성읍 안정로 154,
32269,2868238,옐로커피,39,31,37.7222585503,126.8346686257,경기도 고양시 일산동구 통일로1267번길 144-30,
32428,2809300,우렁이된장뚝배기,39,31,37.2031088416,127.2084964877,경기도 용인시 처인구 백옥대로 749,
32667,2027561,자연애 쭈꾸미,39,31,37.3767593026,127.1162971825,경기도 성남시 분당구 내정로165번길 38,"(수내동,양지마을청구금호아파트) 금호상가 2층"
32692,2842594,장수천 한방민물장어 신갈점,39,31,37.2918273497,127.1092696553,경기도 용인시 기흥구 용구대로 2291,
32778,2831159,정인면옥,39,31,37.4935230942,126.7809883023,경기도 부천시 부흥로 347,
32849,133452,진미옥설렁탕,39,31,37.9090851487,127.0529322037,경기도 동두천시 생연로 185-1,
32938,2637039,청산별곡 물왕점,39,31,37.3868865133,126.8393331886,경기도 시흥시 동서로811번길 39,
33093,2869441,카페블룸,39,31,37.6920882628,127.0559770509,경기도 의정부시 동일로 36-26,
33202,2892200,크랙킨,39,31,37.6699330651,126.7773558998,경기도 고양시 일산동구 무궁화로141번길 8-8,1층
33241,2680001,택이네조개전골 포승공단,39,31,36.9878105864,126.8447798297,경기도 평택시 포승읍 여술로 20,
33601,2831551,호수식당 본점,39,31,37.9092240616,127.055151441,경기도 동두천시 중앙로 312,
33637,2863213,화덕품은 고등어,39,31,37.6345179303,126.6314591213,경기도 김포시 김포한강8로 34-1,
33711,2852775,101닭갈비,39,31,37.7687071927,127.3651133201,경기도 가평군 수목원로 98,
33720,1018341,26호까치할머니손칼국수,39,31,37.2391911897,126.6057918565,경기도 안산시 단원구 대부황금로 805,
