,content_id,title,content_type_id,area_code,latitude,longitude,addr1,addr2
19546,1434605,괴산 백운사 승탑군,12,33,36.8547850932,127.6682898114,충청북도 괴산군 사리면 사리로소매2길 125-146,
19554,126006,괴산 송덕리 미선나무 자생지,12,33,36.7946302716,127.9384728287,충청북도 괴산군 장연면 송덕리,산 58
19581,128383,구병리아름마을,12,33,36.4798428886,127.8712876872,충청북도 보은군 속리산면 구병길 6,
19592,127618,금강유원지,12,33,36.2794511106,127.6737219567,충청북도 옥천군 동이면 금강로 596,
19593,2769996,금석저수지,12,33,36.9906878948,127.6130992751,충청북도 음성군 금왕읍 육령리 461-1,
19612,127753,노은영당,12,33,36.9235392848,127.4160939038,충청북도 진천군 이월면 논실길 113-10,
19624,125861,단양 고수동굴,12,33,36.9884523536,128.3815386863,충청북도 단양군 단양읍 고수동굴길 8,
19635,125854,단양 온달동굴,12,33,37.0590489161,128.4821998301,충청북도 단양군 영춘면 온달로 23,
19683,127792,만뢰산,12,33,36.8533764894,127.3365363567,충청북도 진천군 백곡면 대문리,산 2-9 일원
19689,2662414,만천하 짚와이어,12,33,36.9776749798,128.3370707587,충청북도 단양군 적성면 옷바위길 10,
19696,127969,명암유원지,12,33,36.6441231341,127.5121180426,충청북도 청주시 상당구 성내로124번길 14,(산성동)
19725,250455,미타사(음성),12,33,36.9553746485,127.7300814159,충청북도 음성군 소이면 소이로61번길 164,
19727,407414,민주지산 자연휴양림,12,33,36.0534823501,127.824392494,충청북도 영동군 용화면 휴양림길 60,
19728,2783123,민주지산 치유의 숲,12,33,36.053204603,127.824345283,충청북도 영동군 용화면 휴양림길 60,
19735,1087407,반기문 유엔사무총장 생가마을,12,33,36.8922112791,127.6646724156,충청북도 음성군 원남면 행치길 17-1,(원남면)
19746,2761716,백야자연휴양림,12,33,36.956888947,127.6096672051,충청북도 음성군 금왕읍 백야로 461-97,
19796,2481741,산모랭이풀내음,12,33,36.5110211998,127.6373299514,충청북도 보은군 내북면 산척상궁로 421-100,
19807,1626760,상현서원,12,33,36.4781334324,127.7986136681,충청북도 보은군 장안면 장안로 225,(장안면)
19839,3075120,속리산세조길,12,33,36.5413295978,127.8327560809,충청북도 보은군 속리산면 법주사로 405,
19851,1956238,송천서원,12,33,36.7391082274,127.444085408,충청북도 청주시 청원구 오창읍 오창양지길 22-13,
19865,319698,수정암(충북),12,33,36.5415462369,127.832619976,충청북도 보은군 속리산면 법주사로 379,(속리산면)
19882,128020,앙성탄산온천,12,33,37.0938432626,127.7970992194,충청북도 충주시 앙성면 가곡로 1457,
19903,252584,영동 가학루,12,33,36.2279530282,127.9165906304,충청북도 영동군 황간면 남성리,
19908,3061805,영동 레인보우 힐링 관광지,12,33,36.1621692737,127.7855013194,충청북도 영동군 영동읍 매천리,"매천리, 산익리 일원"
19911,252594,영동 삼괴당,12,33,36.1483370068,127.911382172,충청북도 영동군 상촌면 임산3길 28-13,(상촌면)
19935,125838,옥계폭포,12,33,36.2125642841,127.6728294189,충청북도 영동군 심천면 난계로 2,
19979,125975,원호 유허비 및 관란정,12,33,37.2167917232,128.3265480373,충청북도 제천시 송학면 장곡리,
19988,3071456,율봉근린공원,12,33,36.6642567907,127.5040876496,충청북도 청주시 청원구 1순환로 78 (율량동),
19993,129340,음성 하당골녹색체험마을,12,33,36.9076902678,127.6764264775,충청북도 음성군 원남면 하초로 74,
19995,1938278,음성동요마을,12,33,37.0273950874,127.6301411462,충청북도 음성군 생극면 오신로342번길 27,
19997,129275,음성큰바위얼굴테마파크,12,33,37.0329240101,127.5754320289,충청북도 음성군 생극면 일생로 500,(생극면)
20002,2778945,이끼터널,12,33,36.9620267104,128.3335520847,충청북도 단양군 적성면 애곡리 129-2,
20016,125876,정방사,12,33,36.9991756275,128.2066429304,충청북도 제천시 수산면 옥순봉로12길 165,
20026,1683410,제천 백련사 목조아미타여래좌상,12,33,37.2282590969,128.1385368245,충청북도 제천시 봉양읍 명암로5길 414,
20054,1992621,제천한방자연치유센터,12,33,37.0099024109,128.2194525824,충청북도 제천시 청풍면 학현소야로 324,
20057,127290,조령민속공예촌,12,33,36.7839218374,128.0172771866,충청북도 괴산군 연풍면 원풍로 224-11,
20058,125432,조령산자연휴양림,12,33,36.8116053214,128.0470598431,충청북도 괴산군 연풍면 새재로 1795,
20063,129650,죽령폭포,12,33,36.9044458165,128.407480479,충청북도 단양군 대강면 죽령로,(용부원리)
20074,1117316,증평 장이익어가는마을,12,33,36.8004646993,127.577949451,충청북도 증평군 증평읍 송티로 76-12,
20083,126002,진천 노원리 왜가리 번식지,12,33,36.923283757,127.4160022526,충청북도 진천군 이월면 논실길 113-12,
20096,1627055,진천명품 휴미락캠핑장,12,33,36.8744551605,127.3667441616,충청북도 진천군 백곡면 용암2길 108-36,
20125,127276,청주 충렬사,12,33,36.6218957565,127.3920960898,충청북도 청주시 흥덕구 강상로18번길 44,(수의동)
20138,126004,청풍문화재단지,12,33,37.004682665,128.1710681829,충청북도 제천시 청풍면 청풍호로 2048,
20152,2613451,충주 강변길,12,33,36.9910782067,127.9961287163,충청북도 충주시 종민동,(종민동)
20199,1627325,충주 창동리 마애여래상,12,33,36.9962226859,127.8794751584,충청북도 충주시 중앙탑면 창동리,
20206,125870,충주 탄금대와 탄금대공원,12,33,36.9882489489,127.8982486992,충청북도 충주시 탄금대안길 105,(칠금동)
20233,2848290,팔음산마을,12,33,36.355906331,127.8314085729,충청북도 옥천군 예곡2길 8-12,
20243,2615390,하늘다리,12,33,36.8284990433,127.5047330255,충청북도 진천군 초평면 평화로 403-132,
20254,127564,한천팔경,12,33,36.2379179868,127.8849598367,충청북도 영동군 황간면 원촌리,(황간면)
20262,1956292,화암서원,12,33,36.8034799357,127.8239272888,충청북도 괴산군 괴산읍 괴강로 313,
21823,987769,감우재전승기념관,14,33,36.9506931176,127.6470390172,충청북도 음성군 음성읍 생음대로 594,
21827,129779,국립청주박물관,14,33,36.6485420822,127.5127178664,충청북도 청주시 상당구 명암로 143,
21828,130143,국립청주박물관 어린이박물관,14,33,36.6497224889,127.5119706779,충청북도 청주시 상당구 명암로 143,(명암동)
21830,2598367,국립현대미술관 청주,14,33,36.6555769823,127.4902363546,충청북도 청주시 청원구 상당로 314,(내덕동)
21832,1686651,김재옥교사기념관,14,33,37.0036210815,127.6867978305,충청북도 충주시 신니면 동락1길 3-5,
21833,2610491,김종명 나뭇잎 예술 갤러리,14,33,37.1584804208,128.1060362263,충청북도 제천시 봉양읍 배론성지길 36,
21834,2789699,난계국악기체험전수관,14,33,36.2108706239,127.7058181932,충청북도 영동군 심천면 국악로 18,
21835,130443,난계국악박물관,14,33,36.2101762428,127.7049321798,충청북도 영동군 심천면 국악로 9,
21836,3035442,네오아트센터,14,33,36.6454976597,127.4944779196,충청북도 청주시 상당구 수암로 37 (수동),
21838,231970,능강솟대문화공간,14,33,36.9817136347,128.2006773044,충청북도 제천시 수산면 옥순봉로 1100,
21839,3008996,다누리센터4D체험관,14,33,0.0,0.0,,
21841,129957,단양문화원,14,33,36.9854663364,128.368251074,충청북도 단양군 단양읍 중앙1로 32,
21842,2714143,단양별별스토리관,14,33,36.9854608287,128.3707758479,충청북도 단양군 단양읍 수변로 111,
21845,2615442,마차박물관,14,33,36.7792452525,127.4425149905,충청북도 진천군 문백면 농다리로 34,
21847,2900858,모산비행장,14,33,37.1628514927,128.2201230685,충청북도 제천시 고암동,1200-1
21848,130591,무심갤러리,14,33,36.6356594064,127.4670084335,충청북도 청주시 서원구 사직대로 175,(사창동)
21849,2930851,문화제조창,14,33,36.6566740551,127.4889281085,충청북도 청주시 청원구 상당로 314 문화제조창 청주시청제2임시청사,
21850,2733367,보은군 농경문화관,14,33,36.4960858965,127.7412738479,충청북도 보은군 보은읍 보청대로 1655-3,
21851,129955,보은문화원,14,33,36.4870866052,127.7235117967,충청북도 보은군 보은읍 뱃들로 54,
21853,1051363,솔향공원,14,33,36.4992560906,127.8027266027,충청북도 보은군 속리산면 속리산로 600,
21854,1684395,수몰역사관,14,33,37.004682665,128.1710681829,충청북도 제천시 청풍면 청풍호로 2048,
21856,1687582,수안보곤충박물관,14,33,36.8543523237,127.9999545093,충청북도 충주시 수안보면 관동길 152,
21857,1627305,수양개선사유물전시관,14,33,36.9605129758,128.332488335,충청북도 단양군 수양개유적로 390 수양개선사유물전시관,
21858,2648061,시네마360,14,33,37.0014135172,128.1667936609,충청북도 제천시 청풍면 물태리 산6-29 제천청풍호반케이블카 2층,
21862,2605828,오대호아트팩토리,14,33,37.0942403921,127.794535549,충청북도 충주시 앙성면 가곡로 1434,
21863,1940652,오장환문학관,14,33,36.4930364084,127.5962119042,충청북도 보은군 회인면 회인로5길 12,
21865,1729761,옥천문화예술회관,14,33,36.3037048912,127.5741635098,충청북도 옥천군 옥천읍 문정1길 32,
21867,2989894,옥천향수시네마,14,33,36.304074319,127.5755911499,충청북도 옥천군 문정1길 47,
21868,1689977,우륵당,14,33,36.9648743632,127.9255691356,충청북도 충주시 중원대로 3324,(호암동)
21870,1729772,음성문화예술회관,14,33,36.9315098248,127.6805587668,충청북도 음성군 음성읍 예술로 102,
21872,2638587,의림지 역사박물관,14,33,37.1761553169,128.2094875238,충청북도 제천시 의림대로47길 7,
21876,129952,제천문화원,14,33,37.1392262604,128.2107718202,충청북도 제천시 의림대로 125,
21878,130755,제천시립도서관,14,33,37.1450674296,128.2201152553,충청북도 제천시 내제로 318,(장락동)
21885,130773,진천 종박물관,14,33,36.8707258807,127.4138455803,충청북도 진천군 진천읍 백곡로 1504-12,
21887,129953,진천문화원,14,33,36.8500176212,127.4398715925,충청북도 진천군 진천읍 문화로 79,
21888,130912,철박물관,14,33,37.0909186744,127.6495014868,충청북도 음성군 감곡면 영산로 360,
21891,2804708,청주고인쇄박물관,14,33,36.6441001847,127.4714689112,"충청북도 청주시  직지대로 (713, 청주고인쇄박물관)",
21892,3071158,청주랜드 어린이회관,14,33,36.6499614196,127.5158147711,충청북도 청주시 상당구 명암로 171 (명암동),
21893,1627209,청주백제유물전시관,14,33,36.6522103207,127.4690189071,충청북도 청주시 흥덕구 1순환로438번길 9,(신봉동)
21895,1627090,청주시립대청호미술관,14,33,36.5071079587,127.4937206905,충청북도 청주시 상당구 문의면 대청호반로 721,
21896,2766537,청주시립미술관,14,33,36.6347208288,127.4783185558,충청북도 청주시 서원구 충렬로18번길 50,(사직동)
21898,3071217,청주아트홀,14,33,36.6369815217,127.4694776198,충청북도 청주시 서원구 예체로 118-1 (사직동),
21902,1687039,충주 민물고기전시관,14,33,37.0185633192,127.9628864678,충청북도 충주시 충주호수로 423,(용탄동)
21903,1938381,충주고구려비전시관,14,33,37.0283295264,127.8482076062,충청북도 충주시 중앙탑면 감노로 2319,
21904,1689699,충주고구려천문과학관,14,33,37.0403170387,127.8484072453,충청북도 충주시 중앙탑면 묘곡내동길 100,
21906,129951,충주문화원,14,33,36.9872212808,127.8977821042,충청북도 충주시 탄금대안길 33,(칠금동)
21911,2613665,충주커피박물관,14,33,36.9045940445,128.014571208,충청북도 충주시 살미면 월악로 432,
21913,129829,한국교원대학교 교육박물관,14,33,36.6056581103,127.3573191017,충청북도 청주시 흥덕구 강내면 태성탑연로 250,
21916,1679578,한운사기념관,14,33,36.773932716,127.6375448417,충청북도 괴산군 청안면 청안읍내로 45-6,
21917,1691210,호암공원생태전시관,14,33,36.9604359286,127.9225362021,충청북도 충주시 상아배이길 84,(호암동)
22829,1886535,거북이가 앉아있는 좌구산에서의 힐링여행,25,33,36.8045942288,127.5474187447,,
22832,1938440,괴산의 자연과 한지체험 코스,25,33,36.7601185421,127.8400770651,,
22833,1854604,구불구불 고개 너머 만나는 계곡과 휴양림,25,33,36.1185095452,127.8946566989,,
22834,2717311,"국도 37호선, 금강 물줄기 따라 향수에 젖다!",25,33,0.0,0.0,,
22835,1941551,금강 따라 도는 물의 여정,25,33,36.2594042162,127.5641017259,,
22836,2047558,금빛 물결 너머 가슴 푸근한 풍경,25,33,36.3150731793,127.582165263,,
22837,1887382,남한강을 따라 만나는 역사의 향기,25,33,37.1323229682,127.84097472,,
22838,1957825,달천에 떠오른 8개 봉우리 수주팔봉 코스,25,33,36.9433485851,127.8997054068,,
22839,2519149,담백한 올갱이국과 얼큰한 민물매운탕,25,33,36.8086065901,127.7946519924,,
22841,2514461,도란도란 수다가 모이는 청정계곡,25,33,36.6516975331,127.8339862166,,
22842,1854606,동서양의 문화를 모두 즐기는 여행,25,33,36.1580416141,127.6106475523,,
22844,1959200,멈춰 쉬고 싶은 곳 충주호 코스,25,33,36.9883156271,127.8992958255,,
22845,1939807,"박물관에서 놀고, 자연에서 배우다",25,33,36.6388325203,127.3819548678,,
22846,1938454,"박물관이 살아 숨쉰다, 볼 것 많은 증평에 오세요",25,33,36.6547271088,127.4918473444,,
22847,2049113,"봄볕 선율, 봄바람 가락",25,33,36.1581304898,127.6104836756,,
22848,1854583,사인암에서 옥순봉까지 단양팔경을 유람하다,25,33,36.946142218,128.3225618631,,
22851,1936022,소소한 일상의 아름다움과 함께 걷자,25,33,36.6520936741,127.4693633238,,
22854,1957867,숲을 갖기에 충분한 시간 만수계곡 자연관찰,25,33,36.8183332242,128.0956247474,,
22855,1959188,시간은 강물 따라 흐르고 이야기만 남았네 목계나루의 자취,25,33,37.0808734471,127.8467173471,,
22856,1854609,시인 정지용의 향수 속으로,25,33,36.4023537021,127.6719465205,,
22857,2381374,"신라, 한강 유역에 진출해 성을 쌓고 비를 세우다",25,33,36.9451589796,128.3216147543,,
22859,1939799,아슬아슬 올라 아찔한 풍광에 감동하다,25,33,37.0030405065,128.1344881781,,
22860,1886526,악 소리나는 험준한 월악산에 오르다,25,33,36.8573896236,128.0832469604,,
22862,1854597,양방산에 올라 단양을 굽어보다,25,33,37.000503034,128.3435139617,,
22863,2037263,여백과 낙엽 향 가득한 하룻밤,25,33,37.0117060575,127.9781991785,,
22864,2029168,"영동에서 만나는 국악, 체험 여행",25,33,36.2132480272,127.7000658629,,
22865,1938449,오감을 자극하는 감각적인 체험여행,25,33,36.6596696087,127.4150291024,,
22867,1854599,"왕이 넘던 고개, 천천히 쉬며 넘어가볼까?",25,33,36.4895699705,127.7410129412,,
22868,2389092,우리나라 최초 패러글라이딩 활공장에서 자연을 느끼다. [웰촌],25,33,36.9910337355,128.4412777087,,
22869,2530537,"우리의 종과 판화를 찾아서, 진천 여행 [웰촌]",25,33,36.8707175462,127.4137289238,,
22870,2350179,우암산 자락에서 바라보는 청주의 야경,25,33,36.6472743968,126.978213158,,
22871,2011616,일상에서 벗어나 자연과 함께하는 충주 힐링 여행,25,33,37.073858233,127.8816810691,,
22873,2530555,자연과 도자기가 어우러진 단양여행 [웰촌],25,33,37.00463267,128.1710348542,,
22874,1938460,자연과 역동적인 레포츠를 즐기다,25,33,37.0019622614,128.4000810764,,
22875,1959213,자연에서 뛰노는 시간 충주에서 체험하기 코스,25,33,37.0197558048,127.8640536492,,
22876,1958244,전장의 중원에서 평안의 중원으로 중앙탑 사적공원과 충주박물관,25,33,37.017089498,127.8669201343,,
22877,1854496,조령산 자락에서 즐기는 전통한지체험,25,33,36.7637876107,127.9941242763,,
22878,1938456,진천의 문화유산을 찾아 떠나다,25,33,36.8402953596,127.3754526608,,
22879,1887343,천 년의 역사를 간직한 다리를 건너다,25,33,36.8400281033,127.3408641146,,
22882,2514445,청풍명월의 고장에서 빚어낸 명물,25,33,36.7638570419,127.993835411,,
22883,2372006,청풍명월의 풍경 속으로 풍덩!,25,33,37.1731890121,128.2105597365,,
22884,1960416,충북 단양 팔경을 찾아 떠나요,25,33,36.8951234215,128.3411255713,,
22885,1959206,충주 시장을 걸으며 만나는 삶의 이야기,25,33,36.9755037778,127.9300212102,,
22886,2372035,충주 토속 음식과 향기로운 청명주를 찾아,25,33,37.0283795202,127.8481798295,,
22887,2372022,충주호 푸른 물결 위로 달리는 ‘이야기’,25,33,37.0403753668,127.848487792,,
22891,2700431,푸른 산과 호수를 만나다,25,33,37.1741832958,128.2080793747,충청북도 제천시 의림지로 33,(모산동)
22893,1887373,하늘만큼 높은 하늘재를 걷다,25,33,36.8183332242,128.0956247474,,
22896,1928379,[관광두레] 민화이야기와 약초향기 가득한 체험여행,25,33,37.1413372327,128.2163379259,,
22897,1928381,[관광두레] 우리는 노는 물이 다르다! 청풍호 여행,25,33,37.0298437654,128.1767058371,,
22898,2372021,‘직지’의 고장이자 쉼과 여유의 휴양지,25,33,36.6440501911,127.4715077984,,
25032,2753090,계명산 나무숲길 캠핑장,28,33,37.0068340333,127.9585483056,충청북도 충주시 절골길 132,(용탄동)
25036,2726684,괴강국민여가캠핑장,28,33,36.8068073567,127.8253048488,충청북도 괴산군 괴산읍 충민로검승3길 10,괴강국민여가캠핑장 관리사무소
25049,131293,남한강(목계교권),28,33,37.0765246686,127.8858028441,충청북도 충주시 엄정면 구룡로,(엄정면)
25051,2907868,낭추골캠핑장,28,33,36.5984163811,127.6173126573,충청북도 청주시 상당구 단재로 1890,
25057,2754483,다리안관광지 캠핑장,28,33,36.9648169146,128.4207386458,충청북도 단양군 단양읍 소백산등산길 12,
25060,2761652,단양 사계절썰매장,28,33,36.9872158962,128.3555160522,충청북도 단양군 단양읍 삼봉로 421-59,
25069,1012493,단양클레이사격장,28,33,36.9630277003,128.3924523393,충청북도 단양군 단양읍 노동장현로 207-17,
25072,3075069,단양패러에반하다,28,33,36.9942491621,128.3949623153,충청북도 단양군 가곡면 두산길 196-88,
25073,2749473,달이머무는집,28,33,36.2327908737,127.889367919,충청북도 영동군 황간면 월류봉길 57,
25083,2747567,대호레져글램핑,28,33,37.0090632287,128.0490623363,충청북도 충주시 동량면 미라실로 691,
25087,2381740,덕동골캠핑장,28,33,37.2172597616,127.9569229378,충청북도 제천시 백운면 덕동로2길 23-26,
25100,2705357,루파니애견캠핑장,28,33,36.8591717527,127.8781208517,충청북도 괴산군 감물면 감물로 362-54,
25102,2727221,마로니에숲캠핑장,28,33,36.2450064,127.5943438649,충청북도 옥천군 이원면 장찬길 159-73,
25104,2519536,만천하 스카이워크,28,33,36.9776749798,128.3370707587,충청북도 단양군 적성면 옷바위길 10,
25111,2734687,모래재캠핑장,28,33,36.8118955421,127.6662745315,충청북도 괴산군 사리면 모래재로 483-12,
25128,2727284,보은글램핑,28,33,36.525394462,127.78599126,충청북도 보은군 속리산면 속리산로 1029-13,
25138,3089063,새별공원,28,33,37.0237316681,128.3833486053,충청북도 단양군 가곡면 사평리,496-2
25140,131979,"세레니티CC (구, 0실크리버 컨트리클럽)",28,33,36.5456711394,127.3905205455,충청북도 청주시 서원구 남이면 문곡구절골길 235,
25143,2769563,센테리움CC,28,33,37.0329443694,127.7778026955,충청북도 충주시 노은면 솔고개로 750,
25144,2728206,소나무숲아래캠핑장,28,33,36.8239185886,128.0899362081,충청북도 충주시 수안보면 미륵리사지길 29,
25159,2420082,솔향공원 스카이바이크,28,33,36.4992560906,127.8027266027,충청북도 보은군 속리산면 속리산로 600,
25167,2728596,스카이운학오토캠핑장,28,33,37.2100308549,128.000819194,충청북도 제천시 백운면 운학길 87,
25170,2908072,승암159캠핑장,28,33,36.6622287401,127.783457111,충청북도 괴산군 후평도원로 484,1층
25171,2792253,시골학교캠핑장,28,33,37.1738480862,128.1055802647,충청북도 제천시 봉양읍 제원로 653,
25174,2743200,십자봉오토캠핑장,28,33,37.2143961591,127.9545176814,충청북도 제천시 백운면 덕동로 536,
25181,2743254,아빠의나무 야영장,28,33,36.7239486422,127.7397065228,충청북도 괴산군 청천면 괴산로부성1길 15-22,
25182,2743257,아빠캠핑가 오토캠핑장,28,33,36.8871285921,127.3606665791,충청북도 진천군 백곡면 안구수길 34-28,
25184,2907830,아이프로방스,28,33,36.6134130022,127.6792150301,충청북도 청주시 상당구 남부로 6774,
25185,2762554,애플마루 펜션캠핑장,28,33,37.0383405368,128.5008765447,충청북도 단양군 영춘면 남천4길 104-33,
25192,2907933,오렌지캠프,28,33,36.5242085232,127.7880161117,충청북도 보은군 속리산로 995-35 야영장시설,
25194,3033908,옥순정 국궁장,28,33,36.9327332097,128.2038784338,충청북도 제천시 수산면 수산리,25-1
25195,2792235,옥전캠핑장,28,33,37.1801302712,128.0827960196,충청북도 제천시 봉양읍 옥전길 273-25,
25199,2769598,올데이 골프앤리조트(올데이CC),28,33,37.1086274876,127.7871608019,충청북도 충주시 앙성면 비내길 189,
25208,2745634,월악산국립공원 덕주야영장,28,33,36.8870805676,128.0783215508,충청북도 제천시 한수면 미륵송계로 1647,
25210,3090920,월악오토캠핑장,28,33,36.8692034832,128.1549096491,충청북도 제천시 덕산면 월악산로 761,
25212,2730826,월악한울오토캠핑장,28,33,36.9143141361,128.109906828,충청북도 제천시 덕산면 월악산로 6,
25222,1927214,제천수상레저,28,33,37.0337127368,128.1751919727,충청북도 제천시 금성면 청풍호로 1482,
25229,2675071,좌구산 분젓치 산새길 테마로드,28,33,36.7056158066,127.6511399762,충청북도 증평군 증평읍,율리 산69-1번지 일원
25242,131470,청소년수련마을보람원,28,33,36.6939853866,127.8907021743,충청북도 괴산군 청천면 대야로 487,
25248,2740054,청천 화양동관광농원 초롱이캠핑장,28,33,36.6436438304,127.8849902129,충청북도 괴산군 청천면 다보길 8,
25250,131756,청풍랜드,28,33,37.0128207675,128.1790672297,충청북도 제천시 청풍면 청풍호로50길 6,
25252,2792240,청풍호반 오토캠핑장,28,33,36.9837285425,128.1185957167,충청북도 제천시 청풍면 용곡길211번길 2,
25259,2739376,충북대학교천문대천문체험학교,28,33,36.7816094626,127.4754508537,충청북도 진천군 문백면 은진로 29,
25264,2036052,충주반딧불오토캠핑장,28,33,37.1254364505,127.9264422256,충청북도 충주시 엄정면 가춘리길 19,
25265,1938450,충주조정체험아카데미,28,33,37.021536131,127.8627259391,충청북도 충주시 중앙탑길 150 탄금호조정경기장,
25283,2769839,킹즈락CC (힐데스하임CC),28,33,37.1384229711,128.1784691896,충청북도 제천시 내토로7길 136,(천남동)
25295,2737321,프렌즈캠핑장,28,33,37.004234779,128.1326244217,충청북도 제천시 청풍면 청풍명월로 869-9,
25298,815993,하늘재 트레킹,28,33,36.8152392639,128.1026630948,충청북도 충주시 수안보면 미륵리,
25301,2730102,한두레마을너와두리캠핑장,28,33,36.3252802023,127.7289296658,충청북도 옥천군 청성면 한두레로 387,
25314,2769737,히든밸리GC,28,33,36.9023259758,127.3123788399,충청북도 진천군 백곡면 소토골길 61,
26677,2707444,가영당 [한국관광 품질인증/Korea Quality],32,33,36.7351218825,127.4055417589,충청북도 청주시 청원구 오창읍 미래지로 71-54,
26678,2681174,고선재,32,33,36.5661793989,127.5178669019,충청북도 청주시 상당구 남일면 윗고분터길 33-15,고선재
26679,1992755,그랜드플라자 청주호텔,32,33,36.6666091257,127.4945134437,충청북도 청주시 청원구 충청대로 114,
26680,1887431,금수산펜션,32,33,37.027455196,128.1790890264,충청북도 제천시 금성면 청풍호로 1595-50,
26681,137379,나인밸리파크,32,33,36.4291484926,127.8607067082,충청북도 보은군 마로면 임곡길 66-80,
26682,907780,노을빛호수(드림레이크),32,33,37.0197697697,128.1684096512,충청북도 제천시 청풍면 청풍호로42길 53-10,
26683,142985,단양관광호텔,32,33,36.9820885696,128.348144639,충청북도 단양군 단양읍 삼봉로 31,
26685,2594513,단촌서원고택 [한국관광 품질인증/Korea Quality],32,33,36.9295138086,128.3352223243,충청북도 단양군 단성면 북상하리길 103-10,
26686,2905374,더 마크 호텔,32,33,36.6256848648,127.4286732595,충청북도 청주시 흥덕구 가로수로1164번길 41-34,
26688,142839,더베이스,32,33,36.9590806079,127.9268136349,충청북도 충주시 호암대로 8,(호암동)
26689,949690,더존펜션,32,33,36.8727585388,128.1499544349,충청북도 제천시 덕산면 월악산로 712,
26690,397744,뜰이야기 펜션(구 웰빙펜션),32,33,37.0567759025,127.8292696073,충청북도 충주시 중앙탑면 수룡봉황길 526,
26692,1161739,리솜포레스트(제천),32,33,37.1588459307,128.0461582662,충청북도 제천시 백운면 금봉로 365,
26693,2843606,메리제인호텔,32,33,36.6303732227,127.4290814263,충청북도 청주시 흥덕구 짐대로72번길 13,
26694,250596,발렌타인모텔,32,33,37.0260375782,127.9693412292,충청북도 충주시 동량면 동산로 54,
26696,3078596,브라운도트&알마호텔,32,33,36.6289039677,127.4302563612,충청북도 청주시 흥덕구 풍년로193번길 14 (가경동),
26698,138352,블루밍데이즈펜션,32,33,37.0320546531,128.1783195175,충청북도 제천시 금성면 청풍호로 1511,
26701,228935,소노문 단양(구 대명리조트 단양),32,33,36.9775838038,128.3626906905,충청북도 단양군 단양읍 삼봉로 187-17,
26702,2042157,속리산 천왕봉 가는길에 펜션,32,33,36.5200797081,127.8578516539,충청북도 보은군 속리산면 천왕봉길 259,
26703,142840,수안보상록호텔,32,33,36.8476028878,127.9884862852,충청북도 충주시 수안보면 주정산로 22,
26706,2697346,예그린농장,32,33,37.0042077515,127.7210947274,충청북도 충주시 신니면 내포길 37,
26707,3097887,오무아무아 풀빌라,32,33,36.909724615,128.3460024898,충청북도 단양군 대강면 사인암로 615,
26708,2854436,옥천전통문화체험관,32,33,36.3167313825,127.5854621456,충청북도 옥천군 향수길 100,옥천전통문화체험
26709,2950769,우제스테이[한국관광 품질인증/Korea Quality],32,33,36.8462946937,127.9879363719,충청북도 충주시 주정산로 50 크라운호텔,
26710,138577,월악산 송계펜션,32,33,36.8770845548,128.0816354295,충청북도 제천시 한수면 미륵송계로3길 18,
26711,137497,월악산 유스호스텔,32,33,36.9139942261,128.0828120432,충청북도 제천시 한수면 월악로 1372,
26713,2405438,웨스트오브가나안 [한국관광 품질인증/Korea Quality],32,33,36.8136576431,128.0351052992,충청북도 괴산군 연풍면 수옥정길 175-1,
26714,137920,이른아침호숫가펜션,32,33,37.0192698359,128.1688957332,충청북도 제천시 청풍면 청풍호로42길 53-15,
26717,2769842,제이원 호텔(제이원 호텔 엔 리조트),32,33,36.7147692701,127.4392392951,충청북도 청주시 청원구 오창읍 중부로 806,
26718,2369091,제천통나무펜션,32,33,37.165751878,128.1099328863,충청북도 제천시 봉양읍 제원로 528,
26720,2680591,증평민속체험박물관,32,33,36.7641386449,127.5959877348,충청북도 증평군 증평읍 둔덕길 89,
26721,143065,청주 뉴베라 관광호텔,32,33,36.6280151794,127.4301591727,충청북도 청주시 흥덕구 풍년로193번길 32,
26722,2378813,청풍게스트하우스,32,33,37.1316854045,128.2076973164,충청북도 제천시 의림대로6길 5,
26723,143062,청풍리조트,32,33,37.0167119714,128.1782616343,충청북도 제천시 청풍면 청풍호로 1798,
26724,2708657,초정행궁 [한국관광 품질인증/Korea Quality],32,33,36.7212853289,127.6013106754,충청북도 청주시 청원구 내수읍 초정약수로 851,
26725,2611483,최재한 가옥(덕곡댁 최재한 가옥),32,33,36.4324788134,127.7151946052,충청북도 보은군 삼승면 거현송죽로 301-5,
26726,143161,충주그랜드관광호텔,32,33,36.9704901968,127.9154143319,충청북도 충주시 중원대로 3496,(봉방동)
26727,2461186,충주야생화와 고택나들이[한국관광 품질인증/Korea Quality],32,33,36.8955861165,127.9804384148,충청북도 충주시 중원대로 2220,
26729,2751562,터무니,32,33,36.6197591207,127.5041944261,충청북도 청주시 상당구 영운천로55번길 47,(영운동)
26730,1840051,펜션 델라하우스,32,33,37.0865293563,127.7502092058,충청북도 충주시 앙성면 하너미로 532-13,
26732,136517,한국콘도 수안보,32,33,36.845505873,127.986722614,충청북도 충주시 수안보면 조산공원길 7,
26733,3101960,한옥스테이 연,32,33,36.7346719263,127.4050834793,충청북도 청주시 청원구 오창읍 미래지로 71-67,미래지한옥마을 5호
26735,821578,호텔 필림37.2[한국관광 품질인증/Korea Quality],32,33,36.9894605128,127.9303957766,충청북도 충주시 연원로 17 필립372호텔,
26736,2917213,호텔락희 청주,32,33,36.6442966017,127.4277811591,충청북도 청주시 흥덕구 대농로 47-2,
26737,2600533,호텔로움,32,33,36.7684874654,127.8640996767,충청북도 괴산군 칠성면 자연드림길 252,
26738,3075962,호텔루비노,32,33,36.6315286383,127.4286703204,충청북도 청주시 흥덕구 짐대로 62 (복대동),
26739,3076701,호텔모닝캄,32,33,36.9071268097,127.5435578877,충청북도 음성군 맹동면 대하2가길 28,
26740,2903750,H호텔 세종시티,32,33,36.6314574175,127.3287709569,충청북도 청주시 흥덕구 오송생명로 178,
26741,1153741,M+TEL(엠플러스텔),32,33,36.7138915938,127.439275427,충청북도 청주시 청원구 오창읍 양청송대길 9-12,
29882,1433504,가경 터미널시장,38,33,36.627865299,127.4358669978,충청북도 청주시 흥덕구 가경로149번길 24-2,
29886,132012,"관터장 (관기재래시장) (4, 9일)",38,33,36.4352247936,127.8175381694,충청북도 보은군 마로면 관기3길 6-7,
29891,2925614,나이키 충주,38,33,36.972248629,127.931765591,충청북도 충주시 성서7길 32,
29892,2910951,나이키롯데청주,38,33,36.6452213854,127.4216622387,충청북도 청주시 2순환로 1004 3층,
29893,2910973,노스페이스 롯데청주,38,33,36.6452213854,127.4216622387,충청북도 청주시 흥덕구 2순환로 1004 3층,
29894,2930926,노스페이스 롯데청주,38,33,36.6452213854,127.4216622387,"충청북도 청주시 흥덕구 2순환로 1004, 3층 (비하동)",
29897,132258,"단양장 / 단양구경시장 (1, 6일)",38,33,36.982480598,128.3698399078,충청북도 단양군 단양읍 도전5길 31,
29900,2925673,레노마수트 롯데 청주점,38,33,36.6452213854,127.4216622387,충청북도 청주시 흥덕구 2순환로 1004 3층,
29901,2925470,로이드 청주성안,38,33,36.6342960741,127.4893120258,충청북도 청주시 상당구 성안로 29,
29904,2894594,롯데마트_청주점,38,33,36.6262348655,127.4322479232,충청북도 청주시 흥덕구 가경동 1416-2,
29906,2922978,롯데하이마트 상당롯데마트점,38,33,36.6204620325,127.5161488906,충청북도 청주시 상당구 용암북로160번길 60,
29907,2917241,롯데하이마트 서청주점,38,33,36.6452213854,127.4216622387,충청북도 청주시 흥덕구 2순환로 1004,
29908,2914815,롯데하이마트 율량점,38,33,36.6715472594,127.4840003615,충청북도 청주시 청원구 주성로 158,
29909,2923653,롯데하이마트 청주롯데마트점,38,33,36.6262348655,127.4322479232,충청북도 청주시 흥덕구 풍산로 15,
29910,2914817,롯데하이마트 청주터미널점,38,33,36.6250071961,127.4304286761,충청북도 청주시 흥덕구 강서로 126,
29912,250510,"매포전통시장(4, 9일)",38,33,37.0345955041,128.2989891795,충청북도 단양군 매포읍 평동3로 6,
29913,132011,"목도장 / 목도시장(4, 9일)",38,33,36.8714809931,127.8532116253,충청북도 괴산군 불정면 목도로2길 10,
29915,132018,"무극장 / 무극시장 (5, 10일)",38,33,36.9926401359,127.5959424312,충청북도 음성군 금왕읍 무극로308번길 12-2,
29918,132013,"보은장, 보은전통시장 (1, 6일)",38,33,36.4837258184,127.7201566336,충청북도 보은군 보은읍 삼산로 17-16,
29922,2903294,빈폴 현대 충청점,38,33,36.6449131759,127.4265784728,충청북도 청주시 흥덕구 직지대로 308,
29924,132019,"삼성시장 / 모란장 (1, 6일)",38,33,37.0185103814,127.4982171724,충청북도 음성군 삼성면 대성로 615,
29926,2788213,새한서점,38,33,36.9504302949,128.3054938223,충청북도 단양군 적성면 현곡본길 46-106,
29927,2615454,생거진천 전통시장,38,33,36.8607582586,127.4513424831,충청북도 진천군 진천읍 원덕로 390,
29929,2362581,숲속작은책방,38,33,36.767370306,127.8301277523,충청북도 괴산군 칠성면 명태재로미루길 90,
29935,132015,"영동중앙시장 / 영동장 (4, 9일)",38,33,36.1745343589,127.7759157234,충청북도 영동군 영동읍 중앙로 21,
29937,132028,"오창장 (3, 8일)",38,33,36.7426524758,127.4558509189,충청북도 청주시 청원구 오창읍 화복로 433-3,
29938,132611,"옥산장 (3, 8일)",38,33,36.6645850057,127.3756241717,충청북도 청주시 흥덕구 옥산면 오산리,
29944,2914944,올리브영 충주터미널,38,33,36.9812361884,127.9157084426,충청북도 충주시 봉계1길 54(칠금동),
29946,132401,"용산장 (5, 10일)",38,33,36.2606754898,127.8289197543,충청북도 영동군 용산면 용산로 338,
29948,132429,운봉서각공방 (현도공방),38,33,36.4931727975,127.7665411157,충청북도 보은군 장안면 속리산로 127,
29949,2931482,원더플레이스 청주지웰시티,38,33,36.6433883738,127.4278534005,"충청북도 청주시 흥덕구 대농로 47-1, 208호(복대동,지웰시티몰)",
29955,2770098,음성축산물유통단지,38,33,36.9831249877,127.466023847,충청북도 음성군 대소면 대금로 165-18,
29958,2910106,이마트 청주,38,33,36.6005135831,127.4750197952,충청북도 청주시 서원구 청남로 1853,
29959,2912374,이마트 충주,38,33,36.9721957107,127.9238024191,충청북도 충주시 중원대로 3420 (문화동),
29960,2922990,자라 청주점,38,33,36.6433161392,127.4267035059,충청북도 청주시 흥덕구 대농로 43,
29963,1309907,제천 역전한마음시장,38,33,37.1294662,128.2068946756,충청북도 제천시 내토로28길 3-1,(화산동)
29967,1976333,중원면세점,38,33,36.6666091257,127.4945134437,충청북도 청주시 청원구 충청대로 114,
29971,132023,"진천장 (5, 10일)",38,33,36.8569752912,127.4475040455,충청북도 진천군 진천읍 남산10길 27,
29973,132548,청주 육거리종합시장,38,33,36.6277968018,127.4882734097,충청북도 청주시 상당구 청남로2197번길 46,(석교동)
29975,2769738,청주북부시장,38,33,36.6485443849,127.4862480183,충청북도 청주시 청원구 향군로31번길 12-4,(우암동)
29976,2769749,청주시 농수산물 도매시장,38,33,36.6491161258,127.4631222996,충청북도 청주시 흥덕구 백봉로 254,(봉명동)
29978,132405,"추풍령장 (3, 8일)",38,33,36.2113619849,127.9999170129,충청북도 영동군 추풍령면 추풍령로5길 8-4,
29983,1961503,충주공설시장,38,33,36.9749427092,127.9288018915,충청북도 충주시 충인8길 4-2,(충의동)
29990,2910739,푸마 넘버원 청주점,38,33,36.6326962542,127.4890954231,충청북도 청주시 상당구 성안로 48 1층,
29994,2909911,홈플러스 동청주,38,33,36.6666091257,127.4945134437,충청북도 청주시 청원구 충청대로 114,
29996,2922504,홈플러스 청주,38,33,36.6154807234,127.4422556548,충청북도 청주시 흥덕구 서부로 1291 (가경동),
29998,2913945,ABC마트 GS청주성안,38,33,36.6352876268,127.489250893,충청북도 청주시 상당구 성안로 17-1(북문로1가),
30001,3306279,cu청주복대죽전점,38,33,36.6345146023,127.4395970354,충청북도 청주시 흥덕구 복대로199번길 18-1,
30004,2902507,ER 슈펜 청주지웰시티,38,33,36.6433883738,127.4278534005,충청북도 청주시 흥덕구 대농로 47-1,
30005,2910288,EW 폴더 청주2호,38,33,36.6332073125,127.4894148247,충청북도 청주시 상당구 성안로 41(남문로2가),
35488,2903777,가덕한우정육점,39,33,36.5634910212,127.5291215233,충청북도 청주시 상당구 단재로 940,
35497,2835404,갑돌갈비,39,33,36.173273469,127.7802292626,충청북도 영동군 계산로2길 5-23 갑돌갈비,
35499,2767297,강대박,39,33,36.2697901167,127.6186826849,충청북도 옥천군 동이면 옥천로 2286,
35506,2741121,게으른악어,39,33,36.9240146548,128.0481009785,충청북도 충주시 살미면 월악로 927,
35518,2789666,괴강올갱이해장국,39,33,36.8085760372,127.7946158851,충청북도 괴산군 괴산읍 읍내로 286,
35521,2857493,"구옥,날다",39,33,36.9895339172,127.9949233133,충청북도 충주시 충주호수로 1016-10,
35543,2671155,꿀참나무,39,33,37.1781328476,128.2084458929,충청북도 제천시 의림대로49길 13,
35551,2663548,노다지,39,33,37.1286442487,128.2163077434,충청북도 제천시 내토로47길 21,
35556,2859678,다낭,39,33,36.6312324365,127.3283515557,충청북도 청주시 흥덕구 오송생명3로 65-22,
35560,2741098,다원,39,33,36.9755729003,128.3614464161,충청북도 단양군 단양읍 삼봉로 172,
35566,2857802,대교식당,39,33,36.986371832,128.3706202799,충청북도 단양군 중앙2로 9 대교식당,
35567,2668345,대림갈비,39,33,37.1366568603,128.1973286587,충청북도 제천시 용두대로7안길 16-9,
35570,1152984,대박집,39,33,36.3154147138,127.576904612,충청북도 옥천군 옥천읍 성왕로 1250,
35572,2912675,대사리만두,39,33,36.7983520229,127.7842726567,충청북도 괴산군 읍내로 135,
35574,2859782,대운분식,39,33,36.6656348644,127.3744798015,충청북도 청주시 흥덕구 청주역로 652,
35581,2835415,덕승관,39,33,36.2255060738,127.9159685311,충청북도 영동군 소계로 5,
35592,2858153,들녘애농원,39,33,36.8402692275,127.4667972198,충청북도 진천군 농다리로 1294,
35620,2860681,문정식당,39,33,36.3144898863,127.5806681899,충청북도 옥천군 향수3길 20 문정식당,
35641,2778490,보령식당,39,33,37.1287773775,128.2061975365,충청북도 제천시 의림대로2길 5,(화산동)
35643,2876544,보은옥천영동축협 한우이야기,39,33,36.4856978866,127.7241478886,충청북도 보은군 뱃들로 57 보은옥천영동축협,
35683,135938,샤브락,39,33,36.9743073085,127.9633876932,충청북도 충주시 안림로 167,
35687,2860564,석실리,39,33,36.5897167699,127.4287075794,충청북도 청주시 서원구 석실2길 4,
35713,2858197,스시이찌방 충북혁신도시점,39,33,36.901993868,127.5325340239,충청북도 진천군 시가로 3,
35732,2860723,아키아키,39,33,36.6457554117,127.4637278937,충청북도 청주시 흥덕구 1순환로 528,
35738,2663331,약채락성현,39,33,36.9996248328,128.1667687149,충청북도 제천시 청풍면 청풍호로54길 14-7,
35741,135604,양지말가든,39,33,36.845033686,127.9856699443,충청북도 충주시 수안보면 탑골1길 3,(수안보면)
35760,2859624,오지,39,33,36.6460642663,127.4947417693,충청북도 청주시 상당구 수암로36번길 13,
35772,134173,외할머니집 본점,39,33,37.1172881899,127.6677768663,충청북도 음성군 감곡면 가곡로 230,
35795,2860055,위드포레스트,39,33,36.6064067517,127.4415420799,충청북도 청주시 서원구 대림로 390-11,1층
35799,2841599,이사프커피스탠드,39,33,36.6387205304,127.4872870855,충청북도 청주시 상당구 사직대로361번길 41-1,
35853,2859697,청원한우마실,39,33,36.7409465857,127.4262980661,충청북도 청주시 청원구 성산2길 5 청원군한우협회영농조합법인,
35857,2859663,청주본가본점,39,33,36.6490191293,127.4750601199,충청북도 청주시 흥덕구 사운로 233,
35863,2766444,청풍떡갈비,39,33,37.0227917721,128.1752645045,충청북도 제천시 금성면 청풍호로 1643,
35871,2835485,최미자원조양평해장국,39,33,37.0243483765,127.4860181076,충청북도 음성군 금일로 1050-10,
35890,2859525,카페레체,39,33,36.645250477,127.4950889829,충청북도 청주시 상당구 수동로5번길 32,
35909,2856148,티카페차센,39,33,37.1636846033,128.2133486529,충청북도 제천시 의림대로44길 15 (모산동),
35914,2859405,풀문커피 강서동,39,33,36.6195715451,127.4212796466,충청북도 청주시 흥덕구 강서로27번길 9-6,
35915,2912618,풍년식당,39,33,37.0287955888,127.9690439545,충청북도 충주시 조동2길 88,
35918,2859384,풍차두루치기,39,33,36.7164133662,127.430378934,충청북도 청주시 청원구 중심상업2로 9-50,
35922,2859355,프레피,39,33,36.6807548127,127.4994403875,충청북도 청주시 청원구 내수로 8,
35925,2859344,하우스하이드,39,33,36.6496903107,127.4213149244,충청북도 청주시 흥덕구 신성로 11,
35929,2789786,한솔가든,39,33,36.7136390825,127.6067548449,충청북도 청주시 청원구 내수읍 미원초정로 1262,
35930,2859338,한양시래기명태조림,39,33,36.6640485925,127.5102732111,충청북도 청주시 청원구 2순환로 30,
35938,2859320,해물화짬뽕,39,33,36.7167827817,127.4311038588,충청북도 청주시 청원구 중심상업로 66-18,
35959,2608173,[백년가게]금수장장어구이,39,33,36.458054081,127.4286000864,충청북도 청주시 서원구 현도면 청남로 16,
35966,132980,[백년가게]동원가든,39,33,37.1871326406,128.1041911139,충청북도 제천시 봉양읍 제원로10길 55,
35967,2630871,[백년가게]리정식당,39,33,36.6545353715,127.4866894798,충청북도 청주시 청원구 우암로 71-1,
35970,2630819,[백년가게]서울식당,39,33,36.8087371194,127.7940437093,충청북도 괴산군 괴산읍 읍내로 283-1,
35971,2608169,[백년가게]송애집,39,33,36.8134565651,127.5178378226,충청북도 진천군 초평면 초평로 1051-5,
35973,2608178,[백년가게]영빈관,39,33,36.7128231507,126.5424396019,충청남도 서산시 해미면 읍내리 308-1,
