,content_id,title,content_type_id,area_code,latitude,longitude,addr1,addr2
20299,801339,강당골 산촌체험관,12,34,36.7170392576,127.0158578756,충청남도 아산시 송악면 강당로 187-5,
20306,125908,개심사(서산),12,34,36.7469061582,126.5901482688,충청남도 서산시 운산면 개심사로 321-86,
20315,2654766,계룡 입암저수지,12,34,36.2433505799,127.2555380499,충청남도 계룡시 두마면 입암길 218,
20339,2771931,공리저수지,12,34,36.5999123337,126.6108364279,충청남도 홍성군 구항면 오봉리,
20343,129557,공주 갑사 철당간,12,34,36.3655131816,127.1873630896,충청남도 공주시 계룡면 갑사로 567-3,
20362,129665,관음사석탑,12,34,36.8461566218,126.9534072129,충청남도 아산시 영인면 여민루길 122,
20372,1938123,광천토굴새우젓단지,12,34,36.4852533774,126.6156112576,충청남도 홍성군 광천읍 광천로 91,
20383,298096,구절암(홍성),12,34,36.569193902,126.6257414558,충청남도 홍성군 구항면 거북로218번길 163,(구항면)
20412,128391,금산 바리실마을,12,34,36.1341955734,127.5242947789,충청남도 금산군 제원면 바리실길 206,
20415,126885,금산 천내리/용화리 고인돌,12,34,36.0991311786,127.5834793438,충청남도 금산군 제원면 용화리,
20434,2821554,꽃이 머무는 자리,12,34,36.3940485776,126.8569836291,충청남도 청양군 사수터길 99-14,
20450,129691,남포관아문,12,34,36.3057377621,126.6093165444,충청남도 보령시 남포면 읍성향교길 19,
20491,2734139,당진관광정보센터,12,34,37.0235268152,126.5796084454,충청남도 당진시 석문면 석문방조제로 1755,
20494,252600,당진전력문화홍보관,12,34,37.0517084677,126.510708382,충청남도 당진시 석문면 교로길 30,
20520,1627197,덕산향교,12,34,36.7000516122,126.6574017788,충청남도 예산군 덕산면 덕산향교길 88-34,
20537,125893,동학사(공주),12,34,36.3532762699,127.2200577134,충청남도 공주시 반포면 동학사1로 462,(반포면)
20595,128874,무상사(계룡),12,34,36.2917581729,127.2123128391,충청남도 계룡시 엄사면 향적산길 129,
20604,3351786,뭍닭섬 산책로,12,34,36.795426236,126.1437679669,충청남도 태안군 소원면 의항리,산 185-35
20610,2717594,바늘꽃피우다,12,34,36.7818747481,126.4524736797,충청남도 서산시 번화3길 10,(동문동)
20637,126711,보령 냉풍욕장,12,34,36.3774694637,126.6698231108,충청남도 보령시 청라면 냉풍욕장길 190,
20647,129642,보령성곽&보령관아문,12,34,36.4157553548,126.5895154392,충청남도 보령시 주포면 보령리,
20653,126902,봉곡사,12,34,36.6988627031,126.9665905861,충청남도 아산시 송악면 도송로632번길 138,
20657,407267,봉수산 자연휴양림,12,34,36.5984515604,126.7808822465,충청남도 예산군 대흥면 임존성길 153,
20696,2698818,상점195,12,34,36.7866769792,126.4528679606,충청남도 서산시 대사동1로 55,(동문동)
20699,318176,서광사(서산),12,34,36.7917318231,126.4454185006,충청남도 서산시 부춘산1로 44,(읍내동)
20776,2790011,수륙양용버스투어,12,34,36.3050040133,126.9022374862,충청남도 부여군 규암면 합정리 599,
20798,126864,신안사(금산),12,34,36.1705091314,127.5823302924,충청남도 금산군 신안사로 970 신안사,
20825,126899,아산 영인산자연휴양림 숲속야영장,12,34,36.8410210525,126.9505937184,충청남도 아산시 영인면 아산온천로 16-26,
20828,250436,아산 용궁댁,12,34,36.7405371637,126.8926127926,충청남도 아산시 도고면 도고산로587번길 73-21,
20843,127958,아일랜드 리솜 오아식스 선셋스파,12,34,36.4891453796,126.3369168408,충청남도 태안군 안면읍 꽃지해안로 204,(안면읍)
20860,2678991,어사리 노을공원,12,34,36.5561538055,126.4683671084,충청남도 홍성군 서부면 남당항자전거길 53,
20877,126987,영남루(천안),12,34,36.7840564806,127.1691533452,충청남도 천안시 동남구 충절로 410,(삼룡동)
20925,2746221,용무치항,12,34,37.0344333879,126.5509413074,충청남도 당진시 석문면 장고항리,
20926,1956390,용문서원,12,34,36.4430734285,127.1696348098,충청남도 공주시 중동골길 54-12,(상왕동)
20979,128130,인취사(아산),12,34,36.7853826067,126.9271973448,충청남도 아산시 신창면 서부남로790번길 20-52,
20982,1954712,임천향교,12,34,36.1923861799,126.892560775,충청남도 부여군 임천면 성흥로75번길 6-7,
21008,803048,조개부리마을,12,34,36.4142356492,126.4016768431,충청남도 태안군 고남면 옷점길 141-26,
21040,2770339,챌린지팜,12,34,36.1285911643,127.0795012897,충청남도 논산시 신화길 81-22,
21054,125926,천안 유관순 열사 유적,12,34,36.7600839409,127.3083636955,충청남도 천안시 동남구 병천면 유관순길 38,
21059,128624,천안상록리조트 아쿠아피아,12,34,36.7405136249,127.2890937464,충청남도 천안시 동남구 수신면 수신로 576,
21092,1856774,충남 예산 대흥면 [슬로시티],12,34,36.606675779,126.7903256198,충청남도 예산군 대흥면 중리길 49,
21095,2393927,충청남도 안전체험관,12,34,36.8216358921,127.1918391575,충청남도 천안시 동남구 태조산길 267-17,(유량동)
21098,127316,칠갑산 장승공원,12,34,36.4100355274,126.8508865294,충청남도 청양군 대치면 장곡리,
21127,3034356,통개 해수욕장,12,34,36.7263175155,126.1417894029,충청남도 태안군 소원면 파도리,
21155,3045958,해미 국제 성지순례길,12,34,36.8835071688,126.9135597923,충청남도 아산시 인주면 공세리 194-1 공세리성당,
21157,919364,해미향교,12,34,36.7209917869,126.5501331332,충청남도 서산시 해미면 해미향교길 2-13,
21179,801484,홍성 한솔기마을,12,34,36.6434370613,126.723886181,충청남도 홍성군 홍북읍 매죽헌길 351-26,
21203,2751998,회변항,12,34,36.434118406,126.5016895329,충청남도 보령시 천북면 학성리 239-50,
21209,1627205,흑성산성,12,34,36.7969084905,127.2091271691,충청남도 천안시 동남구 목천읍 교촌리,
21213,2996197,(주)다다컴퍼니,12,34,36.0991099782,127.484446497,충청남도 금산군 비단로 36,
21921,3082347,강경구락부,14,34,36.1618473607,127.0155005764,충청남도 논산시 강경읍 계백로167번길 46-11,
21925,130776,고남패총박물관,14,34,36.420323982,126.4100981476,충청남도 태안군 고남면 안면대로 4270-6,
21926,2483785,고암이응노생가기념관,14,34,36.6223823313,126.6317283904,충청남도 홍성군 홍북면 이응노로 61-7,
21928,130171,공주민속극박물관,14,34,36.5018079738,127.1476740817,충청남도 공주시 의당면 돌모루1길 40,
21930,129787,국립공주박물관,14,34,36.465403184,127.1118116174,충청남도 공주시 관광단지길 34,
21931,130062,국립부여박물관,14,34,36.2763825813,126.9189645227,충청남도 부여군 부여읍 금성로 5,
21932,2638444,국립태안해양유물전시관,14,34,36.6772622281,126.1514203689,충청남도 태안군 근흥면 신진대교길 94-33,
21933,2014616,국립해양생물자원관,14,34,36.0172273716,126.6698297373,충청남도 서천군 장항읍 장산로101번길 75,
21936,2782403,금산민속박물관,14,34,36.0528876148,127.4926747845,충청남도 금산군 남이면 금산로 846,
21937,2782404,금산역사문화박물관,14,34,36.1141528389,127.4918648759,충청남도 금산군 금산읍 금산로 1575,
21939,129705,기지시 줄다리기 보존회,14,34,36.8962157548,126.6947486805,충청남도 당진시 송악읍 안틀모시길 11,
21940,2912875,기지시줄다리기박물관,14,34,36.8962102003,126.6947764554,충청남도 당진시 안틀모시길 11,
21943,1755094,논산문화예술회관,14,34,36.1910259698,127.0951315686,충청남도 논산시 시민로 270,
21946,1754977,당진문예의전당,14,34,36.8897210609,126.6374540424,충청남도 당진시 무수동2길 25-21,
21947,2714721,덕산세계인형박물관,14,34,36.6926692274,126.6630986835,충청남도 예산군 덕산면 신평1길 14-7,
21948,129790,독립기념관,14,34,36.7819355926,127.2304173312,충청남도 천안시 동남구 목천읍 독립기념관로 1,(목천읍)
21949,2769784,독립기념관단풍나무숲길(단풍나무숲길독립기념관),14,34,36.7819355926,127.2304173312,충청남도 천안시 동남구 목천읍 독립기념관로 1,
21951,2553395,리각미술관,14,34,36.8203970571,127.1868618617,충청남도 천안시 동남구 태조산길 245 (유량동),
21952,2758461,모나밸리,14,34,36.750787736,126.992306302,충청남도 아산시 순천향로 624,(장존동)
21954,1055166,무형문화재복합전수관(서천),14,34,36.0803613212,126.8024828899,충청남도 서천군 한산면 충절로 1120,
21955,3348658,뮤지엄 호두,14,34,36.6774445429,127.0573468818,충청남도 천안시 동남구 광덕면 광풍로 315,
21956,3056730,민병갈 식물도서관,14,34,36.8028227426,126.1519170331,충청남도 태안군 소원면 천리포1길 234-5,
21960,130896,백제군사박물관,14,34,36.1923939899,127.1814015962,충청남도 논산시 부적면 충곡로 311-54,
21961,2536623,백제문화체험박물관,14,34,36.405899801,126.8457482121,충청남도 청양군 대치면 장곡길 43-24,
21963,1885454,백제원(부여),14,34,36.3064874337,126.9170222321,충청남도 부여군 규암면 백제문로 553,
21964,2783073,보령머드박물관,14,34,36.3045418755,126.5170387613,충청남도 보령시 대해로 897-15,(신흑동)
21965,1754836,보령문화예술회관,14,34,36.3338707363,126.6145153404,충청남도 보령시 성주산로 101,(명천동)
21966,3022653,보령문화의전당,14,34,36.3507628314,126.5905309436,충청남도 보령시 대흥로 63 (대천동),
21968,2648984,사비도성 가상체험관,14,34,36.2855314361,126.9133647824,충청남도 부여군 부여읍 부소로 15,
21974,130635,아라리오갤러리 천안,14,34,36.8202854232,127.1567423568,충청남도 천안시 동남구 만남로 43,(신부동) 신세계백화점 내
21976,130185,아산시 평생학습관,14,34,36.7709104176,126.9921918757,충청남도 아산시 남부로 92,(용화동)
21983,2615316,여미갤러리,14,34,36.8206919167,126.5799055531,충청남도 서산시 운산면 운정로 112,
21985,2751969,영인산산림박물관,14,34,36.8432734011,126.9409639703,충청남도 아산시 염치읍 아산온천로 16-30,
21986,129748,예산군문예회관,14,34,36.6854010835,126.8492293063,충청남도 예산군 예산읍 아리랑로 185-14,
21988,130063,온양민속박물관,14,34,36.7921443303,127.0061678147,충청남도 아산시 충무로 123,(권곡동)
21989,3038651,웅진 백제 문화 역사관,14,34,36.4605731945,127.1125227942,충청남도 공주시 웅진동,
21993,130270,임립미술관,14,34,36.3964282617,127.1405442311,충청남도 공주시 계룡면 봉곡길 77-13,
21994,2007117,장영실과학관 (아산),14,34,36.7981681429,126.9782035067,충청남도 아산시 실옥로 222,
21997,130866,지당자연사박물관,14,34,36.3248796144,127.0672416087,충청남도 공주시 탄천면 장마루로 1241-90,
21999,130064,천안시 성정평생학습관,14,34,36.8273842423,127.1362884499,충청남도 천안시 서북구 성정중4길 29,(성정동)
22000,3067528,천안시청 봉서홀,14,34,36.8146491745,127.1124242843,충청남도 천안시 서북구 번영로 156 (불당동),
22004,3045826,충청남도 종합 관광 안내소,14,34,36.2841149526,126.9145452696,충청남도 부여군 부여읍 관북리 77 종합관광안내소,
22005,1778181,충청남도교육청학생교육문화원,14,34,36.8096283198,127.1569204118,충청남도 천안시 동남구 옛농고1길 41,(원성동)
22006,2525523,충청남도역사박물관,14,34,36.4537520024,127.1266106033,충청남도 공주시 국고개길 24,(중동)
22011,615547,태영민속박물관,14,34,36.0516895373,127.4366159196,충청남도 금산군 남이면 하금평촌길 26,
22012,2751074,풀꽃문학관,14,34,36.4537074444,127.1198695425,충청남도 공주시 봉황로 85-12,(반죽동)
22018,2782184,한산모시관,14,34,36.0799890767,126.7987165698,충청남도 서천군 한산면 충절로 1089,
22019,130777,합덕수리민속박물관,14,34,36.7938902246,126.7838767208,충청남도 당진시 합덕읍 덕평로 379-9,
22021,130883,해옥공예,14,34,36.7378355231,126.13545912,충청남도 태안군 소원면 파도길 75,
22022,129756,홍주문화회관,14,34,36.5947386378,126.6518606433,충청남도 홍성군 홍성읍 내포로 164,
22410,3346571,강경 문화유산 야행,15,34,36.1617029716,127.017708716,충청남도 논산시 강경읍 중앙리,53-7
22414,3340125,"공존의 섬, 격렬비열도",15,34,36.0271354218,126.7194583721,충청남도 서천군 마서면 금강로 1210,
22415,2614763,공주 문화재야행,15,34,36.4543851823,127.1220165537,충청남도 공주시 우체국길 8,"공주 원도심 제민천 일원 근대 문화재(구 공주읍사무소, 제일교회 등)"
22417,1358746,광천 김∙토굴새우젓 대축제,15,34,36.5006767661,126.6249711176,충청남도 홍성군 광천읍 광천로285번길 8-16,
22419,2756253,국가유산 미디어아트 부여,15,34,36.2842676826,126.9128148653,충청남도 부여군 부여읍 부소로 13,관북리유적과 부소산성 일원
22420,2874329,글로벌바베큐페스티벌 in 홍성,15,34,36.6014519214,126.6614790416,충청남도 홍성군 홍성읍 아문길 27,
22421,2950952,금산 보곡산골 산벚꽃 축제,15,34,36.1943616874,127.5667171482,충청남도 금산군 자진뱅이길 39,산꽃벚꽃마을 오토캠핑장 일대
22422,2719507,금산 삼계탕축제,15,34,36.1002101508,127.5012171957,충청남도 금산군 금산읍 인삼광장로 30,금산세계인삼엑스포 광장
22423,506465,금산세계인삼축제,15,34,36.1002101508,127.5012171957,충청남도 금산군 금산읍 인삼광장로 30,
22425,506376,논산 강경젓갈축제,15,34,36.1575977477,127.0098123087,충청남도 논산시 금백로 45,강경 금강 둔치 일원
22426,525292,논산딸기축제,15,34,36.1909981956,127.0951593442,충청남도 논산시 시민로 270 (내동),
22428,2758030,당진해나루 황토고구마 홍보판촉행사,15,34,36.9238109032,126.5992038092,충청남도 당진시 고대면 고대로 33,당진종합운동장
22429,3067459,대천겨울바다사랑축제,15,34,36.319812191,126.5079558474,충청남도 보령시 머드로 179 (신흑동),
22432,704055,무창포 신비의 바닷길 주꾸미 도다리 대잔치,15,34,36.2432492183,126.5355553599,충청남도 보령시 웅천읍 열린바다1길 28,무창포해수욕장 잔디광장
22435,2722007,백제문화유산주간,15,34,36.4665696863,127.1100589651,충청남도 공주시 관광단지길 34 국립공주박물관,
22436,952988,백제문화제,15,34,36.4702917892,127.1275545162,충청남도 공주시 금벽로 368 (신관동),"공주 금강신관공원, 충청남도 부여군 규암면 백제문로 455 백제문화단지"
22437,2435924,보령 김축제,15,34,36.3151016616,126.5103779739,충청남도 보령시 해수욕장10길 5 (신흑동),대천해수욕장 머드광장
22438,3107206,보령·AMC 국제 모터 페스티벌,15,34,36.3146517934,126.5150525654,충청남도 보령시 신흑동,2282
22440,3113775,보령문화유산야행,15,34,36.4396931273,126.5227735986,충청남도 보령시 오천면 소성리,661-1
22441,2540959,부여 문화유산 야행,15,34,36.279071057,126.9128955516,충청남도 부여군 부여읍 정림로 83,정림사지
22443,2758734,부여세도 방울토마토 & 유채꽃축제,15,34,36.1538590878,126.9983995397,충청남도 부여군 세도면 가회리,573번지
22444,2996713,사라져가는 습지식물 구하기,15,34,36.0271354218,126.7194583721,충청남도 서천군 금강로 1210,
22445,2997573,사이사이 페스티벌 시즌 3,15,34,36.1003238595,127.4917846995,충청남도 금산군 금산읍 건삼전1길 16,
22449,141641,서천 동백꽃 주꾸미 축제,15,34,36.1297866703,126.5036833852,충청남도 서천군 서인로 58,
22450,140682,서천 마량진항 해넘이·해돋이 축제,15,34,36.1297866703,126.5036833852,충청남도 서천군 서인로 58,
22452,141268,서천 홍원항 자연산 전어 꽃게 축제,15,34,36.1563335905,126.5012968021,충청남도 서천군 홍원길 88,
22454,1189615,설 맞이 어울마당,15,34,36.275688198,126.9179090801,충청남도 부여군 부여읍 금성로 5,
22455,3333949,신두리 비치 아트데이,15,34,36.8398246669,126.1897459586,충청남도 태안군 원북면 신두해변길 199,신두리 해수욕장 해변
22457,2999897,심훈추모문화제,15,34,36.9515551598,126.7719235257,충청남도 당진시 송악읍 상록수길 105,
22459,2823481,아산 외암마을 야행,15,34,36.7303126952,127.0138521393,충청남도 아산시 외암민속길 5,
22463,1139979,양촌곶감축제,15,34,36.129305127,127.2472140672,충청남도 논산시 양촌면 양촌리,454
22465,639993,연산대추축제,15,34,36.2130530856,127.2010715083,충청남도 논산시 선비로231번길 28,"연산문화창고, 연산전통시장 일원"
22472,2821437,유구 색동수국정원 꽃축제,15,34,36.5544513454,126.9562759705,충청남도 공주시 유구읍 창말길 44,
22475,3020684,이순신 순국제전,15,34,36.7805372863,127.0035044825,충청남도 아산시 온천대로 1496 (온천동),
22476,3302552,장항 맥문동 꽃 축제,15,34,36.0184827112,126.6655745301,충청남도 서천군 장항읍 송림리 산58-48,장항 송림산림욕장 일원
22479,2988080,제3회 K-FOOD 천안들깨페스티벌,15,34,36.8879610051,127.1591958276,충청남도 천안시 서북구 직산읍 직산로 136,
22480,3011285,제3회 금산국제무예올림피아드,15,34,36.101431839,127.4789774772,충청남도 금산군 금산읍 사직로 20,
22482,229054,지상군페스티벌,15,34,36.3085677778,127.2359686034,충청남도 계룡시 신도안면 석계리,계룡대로 사거리
22483,2595923,천리포수목원 목련축제,15,34,36.7988898212,126.1494229182,충청남도 태안군 소원면 천리포1길 187,
22486,2994954,천안문화도시 페스타,15,34,36.7773972648,127.2326089252,충청남도 천안시 동남구 독립기념관로 1 독립기념관,
22487,506935,천안흥타령춤축제,15,34,36.8194930438,127.1114686823,충청남도 천안시 서북구 번영로 208 종합운동장,천안시종합운동장일원
22490,2403896,태안 가을꽃박람회,15,34,36.5011689948,126.3367943161,충청남도 태안군 안면읍 꽃지해안로 400,코리아플라워파크
22491,3015662,"태안 국제 대자연 환경예술 축제 <무궁무진>_1,232,322천사들",15,34,36.8366221771,126.1849298137,충청남도 태안군 원북면 신두로 727,
22493,1556203,태안 세계튤립꽃박람회,15,34,36.5012051019,126.3367832048,충청남도 태안군 안면읍 꽃지해안로 400,
22495,2951257,피나클랜드 불꽃축제,15,34,36.8725197718,126.9263422708,충청남도 아산시 영인면 월선길 20-42,
22498,2419016,한산소곡주 축제,15,34,36.0793336411,126.8013469072,충청남도 서천군 한산면 충절로 1102-9,
22500,3020205,호캠프,15,34,36.2348426321,127.5360521174,충청남도 금산군 추부면 성당로 247,
22503,2987404,홍성남당항 바다송어 페스티벌,15,34,36.5388780826,126.472294987,충청남도 홍성군 서부면 남당항로213번길 1-1,
22505,3021814,2023년 제 2회 희망드림 판매전,15,34,36.7773972648,127.2326089252,충청남도 천안시 동남구 목천읍 독립기념관로 1,
22506,3114572,2024 대한민국 자전거 대축제 in 공주,15,34,36.4702917892,127.1275545162,충청남도 공주시 금벽로 368 (신관동),
22899,2677792,가을 홍성을 즐기는 방법,25,34,36.6013713629,126.660787439,충청남도 홍성군 홍성읍 아문길 27,
22902,2037011,곰 여인의 전설이 강물 되어 흐르네,25,34,36.5577741587,127.0117431152,,
22903,1854485,곰사당에서 듣는 백제 이야기,25,34,36.4630814825,127.1262798251,,
22904,1937588,과거급제를 꿈꾸던 청년 이순신이 살던 그곳에서 놀기,25,34,36.8056015727,127.0321512148,,
22905,2514411,금강과 갈대밭의 '광활' 속으로,25,34,36.0683025926,126.860800209,,
22906,1889549,금강따라 즐기는 자연주의여행,25,34,36.0228140848,126.7423314377,,
22907,1927604,금산의 인삼을 맛보다,25,34,36.1374586362,127.3416665299,,
22908,2047526,기차 타고 만나는 세계 5대 기후대,25,34,36.0297102165,126.7246689502,,
22909,1938175,노을이 머무는 서해안의 진경,25,34,36.601370331,126.4396407327,,
22910,2867082,다양한 체험을 할 수 있는 서천 1박2일 여행코스,25,34,0.0,0.0,,
22911,1916751,단아한 부여의 아름다움에 빠지다,25,34,36.1907226272,126.9009795091,,
22912,1927995,대전의 문화와 역사를 만나고 즐기는 체험 여행,25,34,36.3892304165,127.2160876548,,
22915,2017501,땅굴 속의 찬바람 보령시 냉풍욕장에서 시원한 여름을~,25,34,36.3770472975,126.6702397511,,
22916,1889565,마을과 인물을 만나 따뜻한 시간을 보내다,25,34,36.8056015727,127.0321512148,,
22917,2372004,몸과 마음을 녹여주는 따뜻한 곳으로의 초대,25,34,36.7833563405,126.9997575213,,
22918,1938178,바다 진미와 서해안 절경을 함께하다,25,34,36.487636453,126.6165583317,,
22921,1938187,바닷가 풍경이 아름다운 곳에서 체험까지,25,34,36.1562530676,126.502671681,,
22923,1889535,백제의 마지막 도읍을 걷다,25,34,36.2890144903,126.9202224087,,
22924,1936020,백제의 숨결 가득한 역사 속으로,25,34,36.3664029859,127.245055121,,
22927,1936021,부여의 연꽃이 잔잔한 백제투어,25,34,36.2890144903,126.9202224087,,
22929,2718373,산과 바다가 주는 푸르른 치유를 만끽하다!,25,34,36.03701486,126.7201247227,충청남도 서천군 마서면 금강로 1210,
22930,1968521,산사에서 21세기 밤하늘의 별과 과학체험을 함께,25,34,36.3655131816,127.1873630896,,
22932,1927609,산의 정기를 느끼려면 느리게 걸어라,25,34,36.0541937896,127.3789209925,,
22933,2519141,"삽교호부터 왜목마을까지, 당진 알짜배기 투어",25,34,36.8907464135,126.8233371954,,
22934,2513871,새빨간 사과의 매력에 빠지는 예산여행 [웰촌],25,34,36.7618257555,126.6979742347,,
22937,2666539,서산의 핵심 역사&자연 관광 코스!,25,34,36.7735366831,126.6052184154,충청남도 서산시 운산면 마애삼존불길 65-13,
22938,2372001,서산인들이 백제의 ‘미소’로 반겨주는 곳,25,34,36.7129010308,126.5488417988,,
22939,2514074,서천 갯벌 매력에 '푸~욱',25,34,36.0223406002,126.6653744482,,
22941,2037388,서해바다를 붉게 물들이는 아침 해를 품에 안다.,25,34,36.7452041206,126.2987719033,,
22943,1938184,서해안 해수욕장을 따라 여행하다,25,34,36.3138156874,126.5097752843,,
22944,1938173,서해안을 지킨 조선시대 윤곽을 따라 여행,25,34,36.7129010308,126.5488417988,,
22946,1889538,성흥산성의 사랑나무를 만나러 가는 길,25,34,36.3048567412,126.8983961681,,
22948,2383729,솔숲과 갈대밭을 거닐다,25,34,36.0209518657,126.6651300616,,
22952,1965856,아산 문화유적코스,25,34,36.8056015727,127.0321512148,,
22953,1928021,아우내 장터에 울려퍼진 역사의 길,25,34,36.7834963946,127.2231623857,,
22955,2519145,역사 속 인물을 만나는 여정,25,34,36.7468848074,126.7998098847,,
22960,1889785,온천의 고장에서 즐기는 스파와 캠핑,25,34,36.7502826733,126.858915569,,
22961,1889520,외연도 상록수림에서 즐기는 힐링 여행,25,34,36.3268613923,126.508538944,,
22963,2519140,인생샷 남기고 추억 남기고,25,34,36.819212335,126.785520332,,
22964,2514416,"일출과 동백꽃, 서천에서 '빨간 여행'",25,34,36.1379050125,126.4935201987,,
22965,2716756,천수만 해안길,25,34,0.0,0.0,,
22966,1889547,천수만의 자연을 체험하다,25,34,36.7129010308,126.5488417988,,
22967,1936030,천안의 볼거리를 찾아 가족여행,25,34,36.7867282918,127.1633176864,,
22969,1937637,체험이 있는 풍경 길을 가다,25,34,36.6890667994,126.659335231,,
22971,1965848,충남 아산시 웰빙코스,25,34,36.7086596789,127.0165858157,,
22972,1892511,충남 해안으로 떠나는 겨울 맛 기행,25,34,36.537983719,126.4710062376,,
22974,1937611,충남의 자연에 풍덩 빠져 즐기다,25,34,37.0029631036,126.4528482838,,
22977,1889789,콩밭메는 아낙네~~를 부르며 칠갑산을 오르다,25,34,36.3998317198,126.8841143716,,
22981,2523251,한국의 알프스로 떠나는 청양 여행 [웰촌],25,34,36.4097088908,126.9143308397,,
22982,2823341,한옥마을부터 천혜비경의 섬까지 충남 1박2일 추천코스,25,34,0.0,0.0,,
25321,2007483,계룡산글램핑,28,34,36.356065429,127.2534796456,충청남도 공주시 반포면 계룡대로 1352,
25325,131051,고북신송지,28,34,36.648138795,126.5342809476,충청남도 서산시 고북면 신송리,
25332,2734839,공주북캠프,28,34,36.5146648607,126.9913127791,충청남도 공주시 신풍면 영정길 155-3,
25341,2749669,그림나래 힐링캠프,28,34,36.7187257012,126.2449635855,충청남도 태안군 근흥면 궁틀길 62-51,
25349,3067893,금산청소년수련원,28,34,36.0957790254,127.5971032217,충청남도 금산군 제원면 용화로 343,
25358,2908529,느루캠핑장,28,34,36.2381530787,126.8875377955,충청남도 부여군 장암로 67-28,
25361,2734179,다인캠핑장,28,34,36.6751027528,127.0350822839,충청남도 천안시 동남구 광덕면 해사동길 33,
25362,131590,당진 오봉제,28,34,36.8724638115,126.7446448085,충청남도 당진시 신평면,
25371,2615569,대천 짚트랙,28,34,36.3209537055,126.5067170399,충청남도 보령시 해수욕장10길 80,(신흑동)
25373,2728921,대천용두오토캠핑장,28,34,36.2598474153,126.541368294,충청남도 보령시 웅천읍 열린바다로 100-50,
25379,2792127,덕산참숯랜드,28,34,36.6747793627,126.6482116169,충청남도 예산군 덕산면 노곡길 55,
25391,3036804,롤킹롤러스케이트장,28,34,36.824226056,127.1240701938,충청남도 천안시 서북구 백석동,3층
25393,2727360,마검포힐링캠핑촌,28,34,36.6095279604,126.2908373002,충청남도 태안군 남면 마검포길 313-30,
25394,131273,마량 방파제,28,34,36.1294478189,126.5036250656,충청남도 서천군 서면 서인로 56,
25398,2758015,만리포몰디브,28,34,36.7964150839,126.1480536631,충청남도 태안군 소원면 천리포1길 143-22,
25400,2727363,만리포솔향기캠핑장,28,34,36.7780365672,126.1431240376,충청남도 태안군 소원면 모항항길 29,
25406,2748234,몽산포오션캠핑장,28,34,36.6681323357,126.2918773349,충청남도 태안군 남면 몽산포길 63-74,
25410,2734759,몽산포패밀리데이캠핑장,28,34,36.6719790496,126.2880692453,충청남도 태안군 남면 몽산포길 67-9,
25420,2729356,바인밸리,28,34,36.5384279224,127.0994774188,충청남도 공주시 정안면 화봉됨박골길 55-74,
25424,2783094,백마강레져,28,34,36.3149867788,126.9353203654,충청남도 부여군 부여읍 정동리 177-2,
25430,2729160,벌곡오토캠핑장,28,34,36.1923403706,127.2912445606,충청남도 논산시 벌곡면 수락로517번길 36-5,
25435,2908646,별바라기캠핑펜션,28,34,36.1972759207,127.291391637,충청남도 논산시 수락로 669-54,
25442,131187,부여청소년수련원,28,34,36.1459847619,126.8249013885,충청남도 부여군 충화면 충신로 618,(충화면)
25448,2731141,사목공원캠핑장,28,34,36.9199116191,126.2929455794,충청남도 태안군 이원면 사목길 38,
25459,2734680,서대산드림캠핑파크,28,34,36.2339204968,127.5350133466,충청남도 금산군 추부면 성당로 247,
25474,2762736,선진캠핑,28,34,36.8955012892,126.8158432992,충청남도 당진시 신평면 산정길 93,
25480,2729566,솔바람캠핑장,28,34,36.0241903863,126.6652216362,충청남도 서천군 장항읍 장항산단로34번길 48-44,
25488,3065177,스테이 더 딜라잇 가든글램핑,28,34,36.8354085161,126.190065491,충청남도 태안군 원북면 신두로 690-57,
25489,2908170,신두57캠핑장,28,34,36.8417161545,126.1920706979,충청남도 태안군 신두해변길 201-31,
25501,2792120,아이사랑캠핑장,28,34,36.1828572326,126.5997400558,충청남도 보령시 주산면 사작골길 63-13,
25511,2729953,어은돌송림캠핑장,28,34,36.7485092869,126.135203308,충청남도 태안군 소원면 모항파도로 398-42,
25512,2734086,어은돌오토캠핑장,28,34,36.7492814258,126.1355671438,충청남도 태안군 소원면 모항파도로 398-52,
25513,3065148,어은돌힐링야영장,28,34,36.7525226591,126.132109039,충청남도 태안군 소원면 연들길 84,
25520,2729562,연산나그네캠핑장,28,34,36.2665745312,127.1889100523,충청남도 논산시 연산면 선비로866번길 166-4,
25524,2729594,연풍연가캠핑장,28,34,36.6693833938,127.0025853652,충청남도 아산시 송악면 종곡길96번길 90,
25525,2729596,영우네캠핑장,28,34,36.4964399425,127.035092669,충청남도 공주시 사곡면 월은길 40,
25542,2730814,월선캠핑장,28,34,36.8774164878,126.9296696142,충청남도 아산시 영인면 월선길 20-21,
25564,2747558,참숯골 캠핑장,28,34,36.9514831247,126.6232231072,충청남도 당진시 고대면 보덕포로 545,
25571,131545,천안상록리조트 눈썰매장,28,34,36.7405136249,127.2890937464,충청남도 천안시 동남구 수신면 수신로 576,
25572,131934,천안승마클럽,28,34,36.8597665112,127.129960352,충청남도 천안시 서북구 업성3길 31-54,
25585,3036615,충남승마클럽,28,34,36.1607660369,127.1236576002,충청남도 논산시 은진면 용산리,충남승마클럽
25597,131813,태안 방포항,28,34,36.5043351949,126.3307919973,충청남도 태안군 안면읍 방포항길,(안면읍)
25607,2730072,파인힐캠프,28,34,36.6439404625,126.6028776429,충청남도 예산군 덕산면 외라2길 60-24,
25615,2730010,피플앤독느티캠핑장,28,34,36.628671848,126.8692318088,충청남도 예산군 신양면 불원귀곡길 108,
25618,1060291,학암포 오토캠핑장,28,34,36.8976766134,126.207359497,충청남도 태안군 원북면 옥파로 1152-37,
25619,2908129,학암포글램핑펜션,28,34,36.8984543341,126.2092926339,충청남도 태안군 학암포길 43-22,
25621,2730096,학암포퍼스트캠핑장,28,34,36.8993430532,126.2053568572,충청남도 태안군 원북면 옥파로 1169-3,
25623,2737352,한마음오토캠핑장,28,34,36.4235699947,126.3609663814,충청남도 태안군 고남면 큰장돌길 283-34,
25627,2730851,호두나무캠핑장,28,34,36.6744695127,127.0362210875,충청남도 천안시 동남구 광덕면 해사동길 15,
25633,2755807,희리산해송자연휴양림 자동차야영장,28,34,36.1126746979,126.6641611032,충청남도 서천군 종천면 희리산길 206,
26751,2624810,굿모닝 관광펜션,32,34,36.5306302273,127.0216901749,충청남도 공주시 사곡면 단평길 245,
26757,642301,꽃향기펜션,32,34,36.508820916,126.3381967671,충청남도 태안군 안면읍 방포로 111,
26758,1992090,논산 명재고택[한국관광 품질인증/Korea Quality],32,34,36.2821939432,127.1306204062,충청남도 논산시 노성면 노성산성길 50,(노성면)
26760,3072315,담담,32,34,36.453646376,127.1218999174,충청남도 공주시 봉황로 86-8 (반죽동),
26767,138502,데네브펜션,32,34,36.6783559141,126.2776394664,충청남도 태안군 남면 우운길 158-8,
26772,1269533,드림하우스,32,34,36.6752646324,126.2793005083,충청남도 태안군 남면 몽산포길 168,
26787,2814170,메리머드호텔[한국관광 품질인증/Korea Quality],32,34,36.3129519486,126.5127722598,충청남도 보령시 해수욕장8길 52,
26797,137991,바다내음펜션,32,34,36.7812917275,126.1419962763,충청남도 태안군 소원면 가락골길 44-8,
26802,138545,바다햇살고운집,32,34,36.5097596436,126.3350498045,충청남도 태안군 안면읍 방포1길 40-19,
26809,642509,백합펜션,32,34,36.6411356671,126.3047768771,충청남도 태안군 남면 안면대로 1296-47,
26810,1491968,베니키아 천안호텔,32,34,36.812408261,127.1403218307,충청남도 천안시 서북구 양지21길 42,
26817,2680793,부여한옥,32,34,36.2908115935,126.9252080248,충청남도 부여군 부여읍 뒷개로 9,
26821,2769619,브라운도트호텔서산점(브라운도트호텔),32,34,36.7775530172,126.4520071702,충청남도 서산시 안견로 284,(읍내동)
26824,137097,블루힐 모텔,32,34,36.7495233041,126.3126677529,충청남도 태안군 태안읍 중앙로 227-8,
26828,138819,산울림펜션,32,34,36.806012975,127.2078270355,충청남도 천안시 동남구 목천읍 덕전1길 171,
26838,2623941,선와당(이광명고택),32,34,36.2136960538,126.6398217662,충청남도 보령시 주산면 방죽안길 33,
26843,707921,솔그림펜션,32,34,36.6971270787,126.1794339785,충청남도 태안군 근흥면 근흥로 1232-21,
26846,1281934,솔뫼마을펜션,32,34,36.674817539,126.2838445528,충청남도 태안군 남면 몽산포길 126,
26853,1273588,숲속의바다,32,34,36.917403721,126.3014198771,충청남도 태안군 이원면 원이로 2170-5,
26856,2949816,슈어스테이플러스호텔[한국관광 품질인증/Korea Quality],32,34,36.7962113633,127.0534217754,충청남도 아산시 온샘로 32,
26859,2804347,스테이 앤드 스튜디오 여여재[한국관광 품질인증/Korea Quality],32,34,36.6766143894,126.2741703813,충청남도 태안군 몽대로 448,
26860,908574,신두리파크펜션,32,34,36.8381442608,126.1871184639,충청남도 태안군 원북면 신두해변길 170,
26862,1274868,신진도 꿈에그린펜션,32,34,36.6768983223,126.1479706907,충청남도 태안군 근흥면 신진대교길 94-63,
26866,1268009,씨싸이드캐슬,32,34,36.783994196,126.1421711898,충청남도 태안군 소원면 만리포1길 8,
26869,137506,아드리아모텔,32,34,36.1721266578,126.5266302298,충청남도 서천군 서면 부사로 271,
26883,138820,에벤에셀 펜션,32,34,36.8810750183,127.2773770285,충청남도 천안시 동남구 북면 위례성로 1434-24,
26884,642220,엘도라도펜션,32,34,36.6118304705,126.2906789209,충청남도 태안군 남면 마검포길 331,
26885,138740,연포리조트,32,34,36.6941084744,126.2083981001,충청남도 태안군 근흥면 연포2길 57,
26886,137609,영모텔,32,34,36.8185412304,127.1596088135,충청남도 천안시 동남구 신부2길 30,
26890,2775643,오션힐리조트,32,34,36.5886526934,126.2970761715,충청남도 태안군 남면 곰섬로 430-37,
26894,2817504,온연 프라이빗 빌라[한국관광 품질인증/Korea Quality],32,34,36.6937577927,126.6516691308,충청남도 예산군 온천단지1로 69-5,온연 프라이빗 빌라
26905,1275586,장미빛인생,32,34,36.492217314,126.3407414155,충청남도 태안군 안면읍 꽃지2길 58-16,
26907,2624231,장충영각,32,34,36.572537726,126.6120509347,충청남도 홍성군 구항면 거북로 422-41,
26909,2854844,정중동호스텔,32,34,36.4531797928,127.1235997777,충청남도 공주시 웅진로 145-11,
26914,1272708,지중해아침,32,34,36.4145545378,126.3712184696,충청남도 태안군 고남면 큰장돌길 141-98,
26917,139563,천안메트로관광호텔 ,32,34,36.8106086027,127.1479156407,충청남도 천안시 동남구 대흥로 241-11,
26918,397625,천안상록 유스호스텔,32,34,36.7405136249,127.2890937464,충청남도 천안시 동남구 수신면 수신로 576,
26920,137416,청주온천호텔,32,34,36.7814455428,127.0050682054,충청남도 아산시 충무로8번길 6,
26924,2775590,탑클라우드 천안점,32,34,36.8084226147,127.1406913518,충청남도 천안시 동남구 서부역6길 3,
26926,2434843,태안몽산포 정다운펜션,32,34,36.6731619956,126.2733483244,충청남도 태안군 남면 몽대로 489,
26935,397762,파인웰스,32,34,36.5408507802,126.3508975605,충청남도 태안군 안면읍 안면대로 2608-72,
26937,1273158,풀하우스,32,34,36.6951222861,126.2107423052,충청남도 태안군 근흥면 용도로 104,
26940,1279373,하늘호수,32,34,36.5115959813,126.360772434,충청남도 태안군 안면읍 조운막터길 135,
26942,1271229,하울펜션,32,34,36.4128552508,126.4016102185,충청남도 태안군 고남면 옷점길 147-58,
26943,3067171,한림대학교일송문화관,32,34,36.6380638243,126.3062518242,충청남도 태안군 남면 안면대로 1346-22,
26949,1273948,해변앞펜션,32,34,36.6943251378,126.2096979768,충청남도 태안군 근흥면 연포2길 70-11,
26955,1511518,호텔뷰,32,34,36.5033962392,126.483211602,충청남도 보령시 천북면 홍보로 1061-175,
26956,1926439,호텔스파텔,32,34,36.8556782803,126.9836958849,충청남도 아산시 음봉면 아산온천로243번길 27,
26962,1276634,휴양림펜션,32,34,36.5013582112,126.3573007928,충청남도 태안군 안면읍 송림길 21,
26964,1271086,4월이야기,32,34,36.4148301526,126.4091539312,충청남도 태안군 고남면 가경주길 72,
30009,2913835,강경대흥시장,38,34,36.1555869215,127.0129759676,충청남도 논산시 계백로105번길 8-4,
30016,2751008,고마다락,38,34,36.4510105524,127.1210445097,충청남도 공주시 봉황로 54-1,
30019,132042,"광천장 (4, 9일)",38,34,36.5007573116,126.6249100106,충청남도 홍성군 광천읍 광천로285번길 8-20,
30022,132029,"금산장 (2, 7일)",38,34,36.1000516448,127.4905098204,충청남도 금산군 금산읍 건삼전길 11,
30023,2915377,나이키 롯데부여,38,34,36.307259306,126.9019791164,충청남도 부여군 규암면 백제문로 387 롯데프리미엄아울렛 1층,
30025,2904633,노벨라(유니코)_천안점,38,34,36.8195021834,127.1569534704,"충청남도 천안시 동남구 만남로 43, 1층",
30026,2925263,노스페이스 롯데부여,38,34,36.307259306,126.9019791164,충청남도 부여군 부여군 규암면 합정리 172,
30031,2037022,당진시 수산물 유통센터,38,34,37.0352334362,126.559021108,충청남도 당진시 석문면 장고항로 334-48,
30036,132610,"덕산장 / 덕산시장 (4, 9일)",38,34,36.705095661,126.6681117873,충청남도 예산군 덕산면 읍내북문길 14,
30037,3306826,레노마레이디 모다아울렛 천안아산,38,34,36.7984758421,127.101445162,"충청남도 천안시 서북구 공원로 196 (불당동, 펜타포트) 1층",
30038,2925690,레노마수트 롯데아울렛 부여점,38,34,36.307259306,126.9019791164,충청남도 부여군 규암면 백제문로 387 1층,
30045,2922800,롯데하이마트 당진롯데마트점,38,34,36.9058249109,126.6462722531,충청남도 당진시 정안로 20,
30048,2914880,롯데하이마트 서산점,38,34,36.7685485113,126.4526767935,충청남도 서산시 남부순환로 1034,
30049,2916617,롯데하이마트 송정점,38,34,36.8263344313,127.1401048013,충청남도 천안시 서북구 성정두정로1,
30052,2922648,롯데하이마트 아산터미널점,38,34,36.7847203569,127.0158865851,충청남도 아산시 번영로 225,
30058,2929514,모다아울렛 행담도점,38,34,36.9409737082,126.8095426314,충청남도 당진시 서해안고속도로 276,
30062,2021432,무창포 수산물시장,38,34,36.2484264279,126.5370356477,충청남도 보령시 웅천읍 열린바다2길 46,
30067,2911625,버버리 신세계 충청점,38,34,36.8195021834,127.1569534704,충청남도 천안시 동남구 만남로 43 1층,
30072,132031,"부여장 (5, 10일) / 백마강달밤야시장",38,34,36.2814762458,126.9076348477,충청남도 부여군 부여읍 성왕로173번길 12,
30073,2931483,블랙야크 롯데부여,38,34,36.307259306,126.9019791164,충청남도 부여군 규암면 백제문로 387,
30074,2856775,블루프린트북,38,34,36.450921713,127.1232776453,충청남도 공주시 제민천1길 55,3층
30075,2911400,비너스,38,34,36.307259306,126.9019791164,충청남도 부여군 백제문로387,
30089,2783126,신진도 수산시장 (안흥 외항),38,34,36.677948114,126.1428100202,충청남도 태안군 근흥면 신진도리,
30092,3306310,아식스 롯데부여,38,34,36.307259306,126.9019791164,"충청남도 부여군 규암면 백제문로 387, 2층(롯데아울렛)",
30097,2915784,아트박스 아산,38,34,36.7817538201,127.0038960807,충청남도 아산시 충무로 3(온천동),
30105,2924030,오프라벨 롯데아울렛 부여점,38,34,36.307259306,126.9019791164,충청남도 부여군 백제문로 387,
30107,1966706,온양도자기(인주면),38,34,36.8423974516,126.8812888285,충청남도 아산시 인주면 현대로 984,
30115,2908117,올리브영 천안터미널,38,34,36.8195021834,127.1569534704,"충청남도 천안시 동남구 만남로 43 (신부동 354-1, 아라리오내본관 2동 1층)",
30116,2926970,유구전통시장,38,34,36.5532264058,126.9516958596,충청남도 공주시 시장길 33-1,
30118,2923715,유니클로 신세계충청,38,34,36.8195021834,127.1569534704,충청남도 천안시 동남구 만남로 43,
30120,2903278,유니클로 천안구성,38,34,36.798257442,127.1588983235,충청남도 천안시 동남구 충절로 232 유니클로,
30121,2910918,이마트 서산,38,34,36.7884105592,126.4787877901,충청남도 서산시 서해로 3685 (잠홍동),
30124,2927111,이마트 천안서북,38,34,36.8386188123,127.122356064,충청남도 천안시 서북구 삼성대로 20 (백석동),
30125,2931709,이마트 천안터미널,38,34,36.8195021834,127.1569534704,충청남도 천안시 동남구 만남로 43 (신부동),
30126,2931677,이마트 펜타포트,38,34,36.7984758421,127.101445162,충청남도 천안시 서북구 공원로 196 (불당동),
30129,250490,"장항장 (3, 8일)",38,34,36.0156057568,126.6945386791,충청남도 서천군 장항읍 성화로 104,
30134,132039,"정산장 (5, 10일)",38,34,36.4105593807,126.9480277907,충청남도 청양군 정산면 정현길 54,
30143,3305831,코닥 롯데아울렛 부여점,38,34,36.307259306,126.9019791164,충청남도 부여군 규암면 백제문로 387,
30146,2910718,크록스 롯데부여,38,34,36.307259306,126.9019791164,충청남도 부여군 규암면 백제문로 387 롯데프리미엄아울렛,
30147,2915040,크리스 핑골프 롯데부여,38,34,36.307259306,126.9019791164,충청남도 부여군 규암면 합정리 172,
30149,1906813,태안 서부시장,38,34,36.7533364723,126.2962663604,충청남도 태안군 태안읍 시장1길 34,
30151,2911413,탠디,38,34,36.307259306,126.9019791164,충청남도 부여군 백제문로387,
30157,2929056,플레이키즈 롯데부여,38,34,36.307259306,126.9019791164,충청남도 부여군 규암면 백제문로 387,롯데아울렛B1층플레이키즈
30160,2915236,하이마트 방축점,38,34,36.7849032212,126.9904999803,충청남도 아산시 온천대로 1367,
30163,2914873,하이마트 홍성점,38,34,36.5939165432,126.6537577165,충청남도 홍성군 홍성읍 내포로 153,
30164,132263,"한산5일장 (1, 6일)",38,34,36.0844553324,126.8044659387,충청남도 서천군 한산면 충절로1173번길 21-1,(서천읍)
30167,1919546,핫트랙스 (천안점),38,34,36.820763142,127.1565201416,충청남도 천안시 동남구 만남로 43,
30174,2927073,홈플러스스토어즈 천안신방,38,34,36.787221921,127.1205826347,충청남도 천안시 동남구 신촌1길 23 (신방동),
30176,2771854,홍성전통시장 오일장(홍성5일정기시장),38,34,36.6021991708,126.6680367636,충청남도 홍성군 홍성읍 홍성천길 242,
30179,3306296,cu천안성정중앙점,38,34,36.8241735309,127.1379689425,충청남도 천안시 서북구 서부17길 9,
35986,2782894,갯마을 (갯마을굴구이),39,34,36.5080624348,126.4870305794,충청남도 보령시 천북면 홍보로 1061,
36007,2749728,곡물집,39,34,36.4496967877,127.119536347,충청남도 공주시 효심1길 12-1,
36031,2379299,금강농원가든,39,34,36.1305038795,126.8643899249,충청남도 부여군 양화면 충절로 290,
36039,135768,김재성두부촌,39,34,36.1957058328,127.0860989186,충청남도 논산시 부창로 76,
36045,2932849,깜뚜누들,39,34,36.1627333838,127.016219933,충청남도 논산시 옥녀봉로 47-1,
36048,2766808,꽃동산횟집,39,34,36.5308569463,126.4817887857,충청남도 홍성군 서부면 남당항로79번길 2-36,
36052,2850089,꽃지해물칼국수,39,34,36.5089627895,126.3512955809,충청남도 태안군 조운막터길 23-5,
36054,133393,나루터식당,39,34,36.2856785684,126.9091123816,충청남도 부여군 부여읍 나루터로 37,
36066,2766706,노가드네,39,34,36.4131110233,127.2166036305,충청남도 공주시 반포면 큰칡골길 14-13,
36077,1797765,대덕숯불갈비,39,34,36.2128537669,126.7598026905,충청남도 부여군 홍산로 38,
36084,2743348,대흥식당,39,34,36.6292569419,126.8148061417,충청남도 예산군 대흥면 노동길 14,
36085,134062,대흥식당(예산 덕산),39,34,36.6568503941,126.6206284743,충청남도 예산군 덕산면 수덕사안길 37-1,
36094,2929827,도덕봉가든,39,34,36.3456506999,127.2956983696,대전광역시 유성구 동서대로189번길 13,
36108,2752278,뚜쥬루과자점 돌가마점,39,34,36.7731266574,127.1395479786,충청남도 천안시 동남구 풍세로 706,(구룡동)
36111,2849929,랙스커피,39,34,36.829472561,127.1177122895,충청남도 천안시 서북구 한들1로 80,
36112,2833001,레이크야드,39,34,36.7949319756,126.4756851188,충청남도 서산시 잠온길 86,
36134,2849895,매주리커피,39,34,36.923656365,127.1296502856,충청남도 천안시 서북구 성환18길 24,
36158,2868790,미성삼색장어,39,34,36.8173719828,127.0063476653,충청남도 아산시 방현서길 2,
36175,2828944,바이더오,39,34,36.3813698993,126.3969697903,충청남도 보령시 원산도5길 89-23,
36197,2868892,백향,39,34,36.8124227326,127.1732188664,충청남도 천안시 동남구 화령길 3-52,
36211,2857731,북한강쭈꾸미,39,34,36.7754873319,127.1302626397,충청남도 천안시 동남구 통정1로 20-13,
36223,1797827,사또국밥,39,34,36.2795710562,126.9161563566,충청남도 부여군 부여읍 의열로 33,
36224,2877377,사비면옥,39,34,36.2757436615,126.9129650779,충청남도 부여군 궁남로 5,1층
36225,133943,사비성 (동학산장호텔 한식당),39,34,36.3595814233,127.2381753654,충청남도 공주시 반포면 동학사1로 266-4,
36247,2782899,서씨네큰댁,39,34,36.3244616839,126.5094833665,충청남도 보령시 대천항로 313,(신흑동)
36251,2833009,석남리창고,39,34,36.7712787879,126.4547432007,충청남도 서산시 석남1로 15-7,1층
36267,801427,솔내음레스토랑,39,34,36.2858952066,126.9089235038,충청남도 부여군 부여읍 나루터로 39,
36275,134945,수덕회관,39,34,37.0287925518,126.5611988626,충청남도 당진시 석문면 장고항로 297,
36286,2850399,슈엔,39,34,36.8293450896,127.1341274798,충청남도 천안시 서북구 성정중1길 26-2,
36287,2815445,스시츠키,39,34,36.8275398864,127.1422601301,충청남도 천안시 서북구 성정공원5로 42,
36305,2834442,아르체마레,39,34,36.1733470713,127.3906361975,충청남도 금산군 수영길 10-29,
36326,1985775,약선공양간,39,34,36.6555811054,126.6211951234,충청남도 예산군 덕산면 수덕사안길 33-13,
36330,2851582,양평할매해장국,39,34,36.4703946834,127.1348316386,충청남도 공주시 번영3로 37 진성빌딩,
36331,2828096,어나더카페,39,34,36.7887543205,127.2342306886,충청남도 천안시 동남구 서리1길 89,
36356,800086,예가,39,34,36.4620152381,127.1433172141,충청남도 공주시 금벽로 535,(신관동)
36364,133391,옛날어씨네집,39,34,36.4342723688,127.209825888,충청남도 공주시 반포면 창벽로 720,
36366,1797831,오대양횟집,39,34,36.2807486471,126.9131343737,충청남도 부여군 의열로 3,
36400,2834905,유정식당,39,34,36.010695249,126.6970302493,충청남도 서천군 장서로29번길 24 유정식당,
36407,2838998,응봉상회,39,34,36.6531484515,126.8041092424,충청남도 예산군 입침중촌길 21,
36453,134766,지산농원,39,34,36.2485049763,127.2231296982,충청남도 논산시 연산면 화악길 62,
36472,800008,천진,39,34,36.8165830733,127.1568313399,충청남도 천안시 동남구 공고담길 43-5,
36479,2850925,청학동한식전문점,39,34,36.7457374621,126.3028742954,충청남도 태안군 군청9길 6,
36487,2856806,카규,39,34,36.811452131,127.1017503344,충청남도 천안시 서북구 불당28길 26,1층
36517,2935623,카페화봉,39,34,36.535417548,127.1216921714,충청남도 공주시 모란길 103,
36550,2816767,포레이브,39,34,36.8327200422,127.1533728743,충청남도 천안시 서북구 두정공단1길 19,1층
36568,2499502,한림가든,39,34,36.2806293954,126.9234445638,충청남도 부여군 부여읍 성왕로328번길 32,
36578,2839125,할리우드카페,39,34,36.8122089676,127.1788044802,충청남도 천안시 동남구 유량로 185,
36598,2766807,호호아줌마,39,34,36.7763699759,126.1362247072,충청남도 태안군 소원면 모항항길 121-7,
36603,628558,홍성한우미당,39,34,36.6107837163,126.6346395475,충청남도 홍성군 홍성읍 홍덕서로 193,
36621,2845573,cafe13-6,39,34,36.8104216135,127.0972174378,충청남도 아산시 선문로254번길 152-17,
