,content_id,title,content_type_id,area_code,latitude,longitude,addr1,addr2
38022,1577060,갈천서당,12,36,35.7808909491,127.8160978214,경상남도 거창군 북상면 송계로 767-34,(북상면)
38042,2638488,거제 관광모노레일,12,36,34.8764184192,128.6253953896,경상남도 거제시 계룡로 61,
38044,127726,거제 둔덕기성.사등성지.오량성,12,36,34.8680309567,128.4980650274,경상남도 거제시 둔덕면 거림리,"/ 사등면 사등리,오량리"
38060,2717293,거제도해초쑥 영농조합법인,12,36,34.8677204249,128.6826850817,경상남도 거제시 아주1로 96-1,(아주동)
38063,2414648,거제시농업개발원,12,36,34.8565392606,128.5795582371,경상남도 거제시 거제면 거제남서로 3577,(거제면)
38071,128033,거제현 관아,12,36,34.8511261863,128.591224032,경상남도 거제시 거제면 읍내로2길 22,
38185,2759618,금오산전망대,12,36,34.992033723,127.870991562,경상남도 하동군 금남면 경충로 493-223,
38224,2787088,남가람별빛길,12,36,35.1872460687,128.0821985047,경상남도 진주시 강남로 320,(망경동)
38230,129700,남계서원 [유네스코 세계유산],12,36,35.5488999829,127.7836985415,경상남도 함양군 수동면 남계서원길 8-11,
38254,1351373,남해 항도어촌체험마을,12,36,34.7425119775,128.0459827037,경상남도 남해군 미조면 동부대로310번길 32-8,
38302,127270,당포성지,12,36,34.7929651028,128.3847574221,경상남도 통영시 산양읍 삼덕리,
38309,128505,대기 농촌체험휴양마을,12,36,35.4621581052,128.0018371703,경상남도 합천군 가회면 대기2길 17-3,
38346,1959552,도계서원 유허비,12,36,35.2387571193,128.4024857406,경상남도 함안군 함안면 파수북길 35-36,
38360,2755022,독봉산 웰빙공원,12,36,34.8773795832,128.6343029221,경상남도 거제시 상동동 1005-17,
38423,2865776,모산공원,12,36,35.1673116447,128.8219454671,경상남도 김해시 율하4로 12,
38444,2742160,물건항,12,36,34.7933619854,128.0540529108,경상남도 남해군 삼동면 동부대로1030번길 42-34,
38464,127471,미조항,12,36,34.7082963559,128.0458002666,경상남도 남해군 미조면,
38470,126206,밀양 영남루,12,36,35.4915656533,128.7551396716,경상남도 밀양시 중앙로 324,(내일동)
38478,2689327,밀양댐 생태공원,12,36,35.4855556956,128.9315244019,경상남도 밀양시 단장면,
38479,3015147,밀양숲속마을,12,36,35.5499011445,128.6254744347,경상남도 밀양시 청도면 청도로 105-11,
38487,2790492,밀양호,12,36,35.4757096336,128.9343410948,경상남도 밀양시 단장면 고례리 310,
38522,2755704,병대도전망대,12,36,34.703845748,128.6101151637,경상남도 거제시 남부면 거제남서로 727-17,
38553,127106,비진도,12,36,34.7105311625,128.4575060263,경상남도 통영시 한산면,
38591,2785866,산청 단계리 권씨고가(권씨고가),12,36,35.3802399143,128.0211209853,경상남도 산청군 신등면 단계리,
38592,128948,산청 단계마을 옛 담장,12,36,35.3823366724,128.008344275,경상남도 산청군 신등면 신등가회로 53-9,(신등면)
38653,2715743,서상항,12,36,34.8094146597,127.8333828893,경상남도 남해군 서면 서상리 1316-6,
38658,2605111,서피랑 마을,12,36,34.8438433585,128.4189892179,경상남도 통영시 충렬로 22,(서호동)
38775,127260,앵산,12,36,34.9411775995,128.6118587364,경상남도 거제시 하청면 석포리,(하청면)
38789,2792646,어천마을,12,36,35.3625122176,127.9131253988,경상남도 산청군 단성면 호암로 1333,
38810,1578643,영빈서원,12,36,35.665448008,127.9455728075,경상남도 거창군 남하면 무릉2길 34,(남하면)
38811,1622899,영산향교,12,36,35.4613261428,128.5350708949,경상남도 창녕군 영산면 유생길 19,(영산면)
38845,127258,옥포대첩기념공원,12,36,34.9022338013,128.7140842098,경상남도 거제시 팔랑포2길 87,(옥포동)
38857,2778903,왕지벚꽃길,12,36,34.9389231113,127.8763369117,경상남도 남해군 설천면 노량리,
38881,1959958,용원서원,12,36,35.7410097415,127.9928054898,경상남도 거창군 가북면 어인길 41,
38923,347224,원효암(양산),12,36,35.3959134068,129.1033979852,경상남도 양산시 상북면 천성산길 727-82,
38939,2786950,율곡마을,12,36,35.085868439,127.7589517382,경상남도 하동군 적량면 관리 749-1,
39041,127108,죽도(통영),12,36,34.7314356659,128.5292825722,경상남도 통영시 한산면 죽도,
39043,126082,죽림해수욕장,12,36,34.8394995735,128.5837472124,경상남도 거제시 거제면 오수리,
39056,1331286,지리산역사관,12,36,35.289582404,127.6458397314,경상남도 하동군 화개로 1438 지리산역사관,
39070,2612900,진양호 일주도로,12,36,35.1762325817,128.0350390417,경상남도 진주시 남강로1번길 126,
39094,2784118,진해해안도로,12,36,35.1009681574,128.7714100004,경상남도 창원시 진해구 남문동 산 4-1,
39165,128598,청룡대각석,12,36,35.109512896,128.8399676853,경상남도 창원시 진해구 가주로 35 (가주동),
39220,2473005,통영가스홍보관,12,36,34.9484372363,128.4205224399,경상남도 통영시 안정로 770,
39222,2611153,통영등대낚시공원,12,36,34.8107946704,128.441093716,경상남도 통영시 산양읍 삼칭이해안길 441,
39239,2867933,팔용근린공원,12,36,35.2447185646,128.6114506354,경상남도 창원시 의창구 반계동,산39-8
39240,1622405,팔용산 돌탑,12,36,35.2337168931,128.6043376655,경상남도 창원시 마산회원구 봉암동,
39243,127665,평사리공원,12,36,35.1358810819,127.6917507908,경상남도 하동군 악양면 섬진강대로 3145-1,
39265,791626,하동 범왕리 푸조나무,12,36,35.2644073279,127.6379521919,경상남도 하동군 화개면 화개로 967,(화개면)
39303,127126,한우산,12,36,35.3975660362,128.1932026211,경상남도 의령군 궁류면 벽계리,일대
39340,1955491,합천향교,12,36,35.7059390792,128.1675187938,경상남도 합천군 야로면 향교길 17-3,(야로면)
40599,1749449,거제문화예술회관,14,36,34.8671295553,128.7231565789,경상남도 거제시 장승로 145,(장승포동)
40606,2733126,거창근대의료박물관,14,36,35.6864616973,127.9120946443,경상남도 거창군 거창읍 시장1길 32,
40609,1576971,거창사건역사교육관,14,36,35.5557433836,127.9248970117,경상남도 거창군 신원면 신차로 2924,
40612,129821,경남대학교 박물관,14,36,35.1801997533,128.5532630134,경상남도 창원시 마산합포구 경남대학로 7,
40613,1622590,경남도립미술관,14,36,35.2394733773,128.6908716163,경상남도 창원시 의창구 용지로 296,(퇴촌동)
40615,2656739,경상남도 수산자원연구소 민물고기전시관,14,36,35.4974379933,128.7974441389,경상남도 밀양시 산외면 산외남로 28-27,
40616,1622558,경상남도과학교육원,14,36,35.2009665342,128.2260688643,경상남도 진주시 진성면 진의로 178-35,
40619,129943,고성문화원(경남),14,36,34.9754351028,128.3149337201,경상남도 고성군 고성읍 성내로 54,
40621,2663316,고성생태학습관,14,36,34.9834874973,128.34401708,경상남도 고성군 고성읍 송학리 134-1,
40623,130256,고성자연사박물관,14,36,35.0563275322,128.3986464938,경상남도 고성군 회화면 당항만로 1116,
40626,2773718,국립김해박물관 어린이박물관,14,36,35.2429818868,128.8738305511,경상남도 김해시 가야의길 190,(구산동)
40627,2654508,국립밀양기상과학관,14,36,35.5021840039,128.760658341,경상남도 밀양시 밀양대공원로 84,(교동)
40628,129774,국립진주박물관,14,36,35.1889652253,128.0768878142,경상남도 진주시 남강로 626-35,
40633,2615069,김해 분청도자박물관,14,36,35.2515341377,128.7458748186,경상남도 김해시 진례면 진례로 275-35,
40639,2864368,깨어있는시민 문화체험전시관,14,36,35.3139498233,128.7717041973,경상남도 김해시 봉하로 132,
40642,129807,남부산림자원연구소,14,36,35.1668126895,128.1066246796,경상남도 진주시 진주대로 672,(가좌동)
40648,1267091,남해유배문학관,14,36,34.8319605048,127.8992182207,경상남도 남해군 남해읍 남해대로 2745,
40652,130689,대성동고분박물관,14,36,35.2360687598,128.8731002475,경상남도 김해시 가야의길 126,(대성동)
40653,2784731,둘레길하동센터,14,36,35.0712809911,127.7475447837,경상남도 하동군 하동읍 중앙로 52-4,
40657,130885,매암차문화박물관,14,36,35.1611452121,127.709381921,경상남도 하동군 악양서로 346-1 매암다원문화박물관,
40662,129948,밀양문화원,14,36,35.4867384159,128.7549592647,경상남도 밀양시 중앙로 265,(삼문동)
40665,2655975,밀양아리랑아트센터,14,36,35.5043781614,128.7584973591,경상남도 밀양시 밀양대공원로 112,(교동)
40666,2650992,밀양의열기념관,14,36,35.4936486752,128.7509622025,경상남도 밀양시 노상하1길 25-12,
40672,130683,보물섬 마늘나라,14,36,34.8170570666,127.9248274765,경상남도 남해군 이동면 남해대로 2443,
40673,2987044,봄날의 책방,14,36,34.826370249,128.4154399858,경상남도 통영시 봉수1길 6-1,
40679,130164,산청문화원(문화의집),14,36,35.4140502385,127.8788381669,경상남도 산청군 산청읍 산엔청로 56,
40682,130244,성산아트홀,14,36,35.230093743,128.6836502782,경상남도 창원시 의창구 중앙대로 181,
40687,1752914,양산문화예술회관,14,36,35.3336441563,129.036505542,경상남도 양산시 중앙로 39-1,(남부동)
40690,804318,엄홍길전시관,14,36,34.9725672637,128.3867830796,경상남도 고성군 거류면 거류로 335,
40694,661980,우포늪생태관,14,36,35.5445368581,128.4182316644,경상남도 창녕군 유어면 우포늪길 220,
40695,2785958,우포잠자리나라,14,36,35.5446520829,128.4923695934,경상남도 창녕군 창녕읍 군청길 1,
40702,130692,전혁림 미술관,14,36,34.8265230043,128.415151118,경상남도 통영시 봉수1길 10,(봉평동)
40705,662140,주남저수지 람사르문화관,14,36,35.307271083,128.6780153447,경상남도 창원시 의창구 동읍 주남로101번길 26,
40706,662127,주남저수지 생태학습관,14,36,35.3077849126,128.6779236727,경상남도 창원시 의창구 동읍 주남로101번길 32,
40708,2515791,지리산생태과학관,14,36,35.1506596925,127.6756629342,경상남도 하동군 악양면 섬진강대로 3358-30,
40711,2795796,진주목공예전수관,14,36,35.2470636202,128.0418115809,경상남도 진주시 명석면 광제산로 367,
40716,1779286,진해문화센터,14,36,35.169161251,128.6594179292,경상남도 창원시 진해구 진해대로 325,
40723,130086,창원시립마산문신미술관,14,36,35.206760951,128.5692942322,경상남도 창원시 마산합포구 문신길 147,
40730,229904,청마문학관,14,36,34.8450768451,128.4352822108,경상남도 통영시 망일1길 82,(정량동)
40731,2406404,칠천량해전공원전시관,14,36,34.9776710338,128.6282618906,경상남도 거제시 하청면 칠천로 265-39,
40732,130841,클레이아크 김해미술관,14,36,35.2516924387,128.7450221111,경상남도 김해시 진례로 275-51 클레이아크 김해미술관,
40733,2747792,토곡요,14,36,35.472243264,129.0789896623,경상남도 양산시 하북면 충렬로 1553,
40734,129803,통도사 성보박물관,14,36,35.4886578174,129.0646099059,경상남도 양산시 하북면 통도사로 108,
40739,1622623,통영시립도서관,14,36,34.8615137068,128.4247382528,경상남도 통영시 무전3길 29,(무전동)
40741,130139,통영시민문화회관,14,36,34.8423159245,128.4286717482,경상남도 통영시 남망공원길 29,(동호동)
40745,1752940,하동문화예술회관,14,36,35.0723002086,127.7411147658,경상남도 하동군 하동읍 섬진강대로 2222,
40749,2790944,한림박물관,14,36,35.2950217901,128.7933194919,경상남도 김해시 한림면 김해대로 1029-20,
40753,130693,함안박물관,14,36,35.2693564761,128.4035292739,경상남도 함안군 가야읍 고분길 153-31,
40758,130900,해금강테마박물관,14,36,34.7400204362,128.6627874147,경상남도 거제시 남부면 해금강로 120,
40761,2784143,3D과학체험관,14,36,35.3899067224,129.1557546969,경상남도 양산시 웅상대로 1009-1,(주진동)
40993,694576,가야문화축제,15,36,35.2350661468,128.8759611362,경상남도 김해시 분성로261번길 35 (봉황동),수릉원
40996,2755016,강주해바라기 축제,15,36,35.3208688405,128.3322313624,경상남도 함안군 강주4길 16,
40997,589170,거제 바다로 세계로,15,36,34.8326496977,128.7023398603,경상남도 거제시 일운면 지세포해안로 43,
40998,1327778,거제 옥포대첩 축제,15,36,34.8905347934,128.6966193745,경상남도 거제시 옥포로2길 14,
40999,3003542,거제둔덕 포도축제,15,36,34.8338959901,128.503934861,경상남도 거제시 둔덕면 하둔리,645 둔덕가족생활체육공원 일원
41000,2614762,거제맥주축제,15,36,34.8663685553,128.7246231385,경상남도 거제시 장승로 138 (장승포동),
41001,1732929,거제섬꽃축제,15,36,34.8565698127,128.5795665696,경상남도 거제시 거제면 거제남서로 3577,
41002,142069,거창국제연극제,15,36,35.6737770003,127.9108367626,경상남도 거창군 거창읍 수남로 2181,
41003,3028995,경남 콘텐츠 페어 GNCF,15,36,35.2382867979,128.6578550874,경상남도 창원시 성산구 원이대로 362 (대원동),창원컨벤션센터 3전시장
41005,2719983,경남고성옥수수(쫀달고)축제,15,36,34.9719034558,128.3871636198,경상남도 고성군 거류면 거류로 335,
41006,1916715,고스트파크 어웨이크,15,36,35.5484940723,128.0730785888,경상남도 합천군 용주면 합천호수로 757,
41009,3300268,김해한우축제,15,36,35.1829238907,128.8278389744,경상남도 김해시 신문동,1410
41010,2552582,남부면 수국축제,15,36,34.7308204572,128.6067925207,경상남도 거제시 남부면 저구해안길 60,저구항(매물도여객선터미널 주차장)
41011,3019716,대장경기록문화축제,15,36,35.7673871185,128.1365143052,경상남도 합천군 가야면 가야산로 1160,대장경테마파크
41012,1726052,독일마을 맥주축제,15,36,34.8000859569,128.0383624398,경상남도 남해군 삼동면 독일로 89-7,
41015,1325331,문화다양성축제 MAMF(맘프),15,36,35.229346668,128.68710833,경상남도 창원시 성산구 중앙대로186번길 13,"용지문화공원, 성산아트홀, 창원중앙대로"
41018,715421,밀양 아리랑대축제,15,36,35.4899047653,128.7571006565,경상남도 밀양시 삼문동,1-1
41021,1265750,보물섬 미조항 멸치&수산물 축제,15,36,34.7131735942,128.0461084478,경상남도 남해군 미조면 미조로 9,
41023,1068150,사천시 삼천포항 자연산 전어축제,15,36,34.9260947245,128.0758753414,경상남도 사천시 팔포1길 65 팔포유료주차장사무실,팔포음식특화지구 일원
41024,3343676,사천시 청년의 날 행사,15,36,35.0704008938,128.0837069993,경상남도 사천시 정동면 반룡1길 193,
41026,234232,사천에어쇼,15,36,35.0977059213,128.0702407963,경상남도 사천시 사천읍 정의리,"사천비행장, 사천종합운동장, 사천시문화예술회관 등"
41027,977900,사천와룡문화제,15,36,35.003680264,128.0643771032,경상남도 사천시 용현면 시청로 77,
41028,506600,산청한방약초축제,15,36,35.4410407594,127.8293195944,경상남도 산청군 금서면 매촌리,
41029,2512463,생태관광 페스티벌,15,36,36.761650493,128.0770113639,경상북도 문경시 문경읍 새재로 932,문경새재 야외공연장
41031,1392557,양산삽량문화축전,15,36,35.3447122789,129.032216722,경상남도 양산시 양산대로 849,양산천 둔치 및 양산종합운동장
41032,3304641,원동면 여름을 담다,15,36,35.4209186971,128.9410448003,경상남도 양산시 원동면 원동로 2220,
41033,2867143,의령 리치리치 페스티벌,15,36,35.3161902468,128.2575269276,"경상남도 의령군 의병로8길 44 서동생활공원(종합사회복지관,국민체육센터",솥바위 등 의령군 일원
41035,909135,장승포 신년해맞이 행사,15,36,34.8642022805,128.7328974765,경상남도 거제시 장승포동,78-3번지 일원
41037,2624011,제17회 이순신장군배국제요트대회,15,36,34.8277704211,128.4338633445,경상남도 통영시 도남로 269-20 (도남동),
41038,3307436,제1회 국제우주항공기술대전 (AEROTEC2024),15,36,35.2382867979,128.6578550874,경상남도 창원시 성산구 원이대로 362 (대원동),
41039,3351261,제4회 가야시민가요제,15,36,35.2522311829,128.8920398207,경상남도 김해시 가야테마길 161 (어방동),김해가야테마파크 가야왕궁
41040,2796990,지리산 함양고종시 곶감축제,15,36,35.5237683997,127.7218796643,경상남도 함양군 함양읍 필봉산길 49,천년의 숲 상림공원 일원
41042,1733858,지리산천왕축제,15,36,35.3972733613,127.6649713455,경상남도 함양군 마천면 천왕봉로 1171,마천면 생활체육공원
41043,2610541,진주 M2 페스티벌,15,36,35.1872460687,128.0821985047,경상남도 진주시 강남로 320 (망경동),진주시 망경동 남강둔치
41046,2843904,진주문화유산야행,15,36,35.190531773,128.080104157,경상남도 진주시 남강로 626 진주성,진주성
41047,1252849,창녕낙동강유채축제,15,36,35.3853724249,128.4712035543,경상남도 창녕군 남지읍 남지강변길 177,
41048,2562752,창원 거리페스티벌,15,36,35.2284077781,128.6812838639,경상남도 창원시 성산구 중앙대로 151,(용호동)
41049,3012013,코리아 라이더스 페스티벌,15,36,35.5444275199,128.0537942855,경상남도 합천군 대병면 합천호수로 525,
41051,2757148,통영 문화유산 야행,15,36,34.8460987428,128.4235415397,경상남도 통영시 세병로 20,통영시 세병로 20
41054,507383,하동 야생차문화축제,15,36,35.2252590446,127.6425916883,경상남도 하동군 쌍계로 571-25,"하동야생차치유관, 박물관 일원"
41055,2557243,하동섬진강문화재첩축제,15,36,35.0633734735,127.7433592444,경상남도 하동군 하동읍 섬진강대로 2107-8,
41057,3344495,"하동을 먹다, 하동별맛축제",15,36,35.0597878643,127.7489810655,경상남도 하동군 하동읍 광평리,150
41058,2362516,함안곶감축제,15,36,35.2804495735,128.3980294582,경상남도 함안군 함안대로 619-4 함안스포츠타운,
41059,3113790,함안군민의 날,15,36,35.2830437871,128.401404093,경상남도 함안군 가야읍 함안대로 619-1,
41060,3006019,함안문화유산야행,15,36,35.2552722987,128.422952951,경상남도 함안군 함안면 괴산4길 25,
41062,563458,함양산삼축제,15,36,35.5237239599,127.7218713327,경상남도 함양군 함양읍 필봉산길 49,
41065,717124,황매산철쭉제,15,36,35.4822804994,127.9831021731,경상남도 합천군 가회면 황매산공원길 331,
41067,3037482,2023 진주전통공예비엔날레,15,36,35.1785527282,128.0892925564,경상남도 진주시 진주대로879번길 18 (강남동),
41068,3016940,2023 창원복지박람회,15,36,35.2382867979,128.6578550874,경상남도 창원시 성산구 원이대로 362 (대원동),창원컨벤션센터 제1전시장
41070,2508344,2024 밀양강오딧세이 “별들의 노래”,15,36,35.4899408416,128.7554258026,경상남도 밀양시 삼문동,244-2
41294,1968165,가야 유적지의 데이트하기 좋은 곳,25,36,35.2323441779,128.8731114595,,
41298,2821974,"거제도 일상 회복 청춘 투어, 지친 나를 위로하고 치유하는 여행",25,36,0.0,0.0,,
41299,1978858,거제도를 돌아보는 거제도 학동캠핑장,25,36,34.7770353955,128.6430909259,,
41303,2364082,거제의 청정하고 푸른 바다와 볼거리,25,36,34.8335829214,128.7020315291,,
41304,2514311,경주 못지 않은 문화재의 보고,25,36,35.54574108,128.5050462288,,
41305,1853970,금빛 원숭이가 뛰놀던 산을 오르다,25,36,35.7312178207,127.7608429311,,
41306,2717300,"기장 죽성리해안도로, 길 따라 해안풍경이 넉넉하다!",25,36,0.0,0.0,,
41309,2022051,꼬부랑길 벽화 마을의 숨은 간식 여행,25,36,35.2077664004,128.5696552845,,
41310,2364116,날 좀 보소 날 좀 보소! 버스 좀 타보소!,25,36,35.4915656533,128.7551396716,,
41312,1855637,남명 조식선생의 흔적을 따라서,25,36,35.3896185939,127.9751386698,,
41316,2500378,남해에서 잡아 올린 월척 행복여행 [웰촌],25,36,34.7711838674,128.0515398133,,
41318,1967835,남해의푸른 바다와 산을 만나다.,25,36,34.7408149906,128.0485825206,,
41320,2515793,단군의 성전을 찾아서,25,36,35.2385634197,127.6608508474,,
41322,2350083,"도시, 섬, 항구가 어우러진 바다의 야경",25,36,35.2071082341,128.5748020743,,
41324,2663433,동화같은 사천 여행,25,36,35.070944919,128.063478201,경상남도 사천시 사남면 공단1로 108,
41325,2357713,뗏목 타고 피라미 잡으며 더위사냥,25,36,35.0588999517,127.9572739316,,
41327,2393102,레포츠를 통해 스트레스를 날릴 수 있는 캠핑 [웰촌],25,36,34.7770798345,128.6430659269,,
41328,2515768,무더위도 쉬어가는 얼음골 나들이,25,36,35.5947806849,128.9948019426,,
41329,2364126,무엇을 상상하든 그 이상의 절경을 만나다.,25,36,35.1889652253,128.0768878142,,
41330,2717109,"물미해안도로, 미풍에 밀려 매혹적인 해안으로 빠져들다!",25,36,0.0,0.0,,
41333,2037380,바다 위와 바다 속을 달리다.,25,36,35.0921931932,128.7193731055,,
41334,2364608,"바다, 항구, 문화, 예술을 품은 카멜레온의 도시",25,36,35.3138508505,128.6753431777,,
41336,2515773,"바람 따라 길 따라, 고즈넉한 산책",25,36,35.5096812637,128.8085428295,,
41338,2044476,벚꽃 잔치의 최고봉 봄날의 낭만에 취한다.,25,36,35.1650783803,128.6596235763,,
41339,1855677,벽계계곡에서 즐기는 캠핑여행,25,36,35.3139272844,128.2949459289,,
41341,2631918,보물섬 남해로 떠나는 황홀한 여행,25,36,34.762364719,128.0122018074,경상남도 남해군 삼동면 금암로 519-4,
41347,2037010,사계절 변신하는 생태 천국,25,36,35.5445451902,128.4182316642,,
41349,2364131,사천의 역사탐방로 산책,25,36,35.083188232,127.9199487926,,
41350,1967425,산청군의 문화유적지 답사 1,25,36,35.4161237892,127.9668164772,,
41356,2656788,"섬진강 따라, 녹차향 따라",25,36,34.9834489682,127.8934009321,,
41358,1853969,수승대에서 옛 선비들의 풍류를 느끼다,25,36,35.7606824397,127.8334829365,,
41359,2516048,시끌벅적 시장 속으로,25,36,35.1879851446,127.6240887269,,
41360,2717303,"실안해안도로, 옹기종기 그림 같은 풍경에 빠지다!",25,36,0.0,0.0,,
41361,2381394,아라가야의 역사를 담은 타임캡슐,25,36,35.2691592651,128.4029071115,,
41362,1870733,악양 슬로우시티에서 즐기는 느릿느릿 시간,25,36,35.0620403303,127.7456535215,,
41364,1870753,"양반의 고장, 함양의 화림동계곡을 걷다",25,36,35.5659755637,127.7687216334,,
41366,2519107,어촌 마을에서 보내는 여름향기,25,36,35.1060523924,127.9235756567,,
41374,1870729,이순신 장군의 흔적을 따라가는 여행,25,36,34.7793267216,128.4834880755,,
41377,2037261,자연을 품은 가을밤의 서정,25,36,35.0545027118,128.397246664,,
41378,1966900,"자연을 품은 곳, 창녕 우포늪과 의령 한우산",25,36,35.5539107612,128.4160843757,,
41379,2357546,"조개 캐고, 쏙 잡고, 맨손 고기잡이까지",25,36,34.914468415,127.9273164135,,
41382,1976466,지리산의 깊은 산자락 속에 세상 시름을 묻다,25,36,35.5255626017,127.7196437029,,
41387,2364589,창녕을 빛내는 원시자연과 문화유산과의 조우,25,36,35.5539107612,128.4160843757,,
41388,2514309,창녕의 생태를 오감으로 느끼다,25,36,35.5538523828,128.4132429607,,
41389,1855378,"철기문화의 중심국가, 가야를 만나다",25,36,35.2654161888,128.9123710205,,
41394,1967388,하동의 차문화와 아름다운 청산을 돌아보며...,25,36,35.2330832887,127.6497769643,,
41403,1967407,"화개장터, 최참판댁부터 삼성궁까지 하동의 명물을 만나는 길",25,36,35.1879684779,127.6239776255,,
41404,1870735,화개천을 따라 화사한 벚꽃과 그윽한 차향을 만나다,25,36,35.2181155005,127.6480636145,,
41405,1870725,흩날리는 벚꽃을 만끽하다,25,36,35.1633674558,128.6593264262,,
41408,2381406,‘바다여행의 종합 세트’ 사천으로 가자,25,36,34.9247115162,128.0741699711,,
41882,2792802,가고파캠핑장,28,36,35.2400382279,127.8177481174,경상남도 산청군 시천면 지리산대로1478번길 31-10,
41891,131091,갈도,28,36,34.565456425,128.1855223235,경상남도 통영시 욕지면 갈도길,(욕지면)
41897,2732134,거장산오토캠핑장,28,36,35.4378404967,128.2612372301,경상남도 의령군 궁류면 청정로5길 57,
41907,131512,경상남도환경교육원,28,36,35.3183338939,127.757273612,경상남도 산청군 시천면 지리산대로 1,
41915,2753222,고성군 스포츠파크,28,36,34.9803344101,128.3068676289,경상남도 고성군 고성읍 교사리 411,
41924,2732136,궁농오토캠핑장,28,36,35.0007003615,128.7028381133,경상남도 거제시 장목면 거제북로 2633-16,
41937,2746543,남지개비리길,28,36,35.3946013859,128.4405698794,경상남도 창녕군 남지읍 용산리 160-2,
41938,2819540,남해 노랑카라반 & 고카트,28,36,34.7694295489,127.9524179567,경상남도 남해군 이동면 신전리,
41952,131522,다물민족학교 다물평생교육원,28,36,35.31733084,127.8927506045,경상남도 산청군 단성면 호암로619번길 50-29,
41959,3060324,대동승마랜드,28,36,35.2483829077,128.9622504712,경상남도 김해시 대동면 대동로485번길 132,
41960,3058749,대봉스카이랜드 모노레일 앤 짚라인,28,36,35.5854667389,127.7085792075,경상남도 함양군 병곡면 병곡지곡로 333-2,
41964,2747528,대장경오토캠핑장,28,36,35.7666954485,128.1320174986,경상남도 합천군 가야면 가야산로 1199,
41966,2747548,대풍바위 오토캠핑장,28,36,34.6416355242,128.2699602388,경상남도 통영시 욕지면 욕지일주로 301,
41976,2747027,두곡해수욕장야영장,28,36,34.7686371944,127.9080190773,경상남도 남해군 남면 당항리,40-2
41983,2745704,라파엘펜션글램핑장,28,36,35.0468283151,128.3829258966,경상남도 고성군 회화면 당항만로 945,
41996,2740088,미리내숲캠핑장,28,36,35.7620025911,127.7255174577,경상남도 거창군 북상면 덕유월성로 1312-96,
42006,2792761,밀양아리랑길2코스,28,36,35.5066472779,128.7545643073,경상남도 밀양시 밀양향교3길 19,(교동)
42008,2728584,밀양아리랑오토캠핑장,28,36,35.3545839197,128.7593458347,경상남도 밀양시 하남읍 명례리 1046-2,
42014,2747766,바다여행잠수교실,28,36,35.2402342988,128.685160983,경상남도 창원시 의창구 용지로275번길 43,(사림동)
42019,2761225,백무동야영장,28,36,35.3579252878,127.6798293985,경상남도 함양군 마천면 백무동로 377,
42022,2729149,백운계곡캠핑장,28,36,35.2951888006,127.8875988626,경상남도 산청군 단성면 백운로51번길 220-16,
42037,2605530,비토국민여가캠핑장,28,36,34.965560879,127.9827491283,경상남도 사천시 서포면 용궁로 124,
42054,2792835,산청펫글램핑,28,36,35.4388373228,127.7779686232,경상남도 산청군 금서면 화계오봉로 349-35,
42055,2740969,삼정야영장,28,36,35.7886535023,128.1004474677,경상남도 합천군 가야면 가야산로 1645-8,
42059,3060322,상족암오토캠프장,28,36,34.9094424454,128.1556576928,경상남도 고성군 하이면 덕명5길 53-7,
42077,2755855,수승대썰매장,28,36,35.7588187292,127.8316553704,경상남도 거창군 위천면 은하리길 43-101,
42111,2759599,영오캠핑장,28,36,35.1156237576,128.2491385496,경상남도 고성군 영오면 영회로 651,
42113,2782787,오션브리즈요트,28,36,34.7993819314,128.4340862925,경상남도 통영시 산양읍 이운길 101,
42131,3057863,우천숲물놀이장,28,36,35.029739448,128.1207214915,경상남도 사천시 사남면 우천리,산186-10
42147,131359,장포리 바다낚시,28,36,34.8442426158,128.0663255231,경상남도 남해군 창선면 진동리,(창선면)
42160,2730856,지리산내원자동차야영장,28,36,35.2968011821,127.8124804276,경상남도 산청군 삼장면 대포리 산106-2,
42162,2787305,지리산둘레길 11코스 하동호~삼화실,28,36,35.1382520833,127.795972129,경상남도 하동군 청암면 명호리 1529,
42163,2787285,지리산둘레길 12코스 삼화실~대축,28,36,35.1175310259,127.7293285196,경상남도 하동군 적량면 우계리 산397,
42164,2787291,지리산둘레길 13코스 하동읍~서당,28,36,35.0852714015,127.7656956058,경상남도 하동군 적량면 관리 470-1,
42165,2787274,지리산둘레길 14코스 대축~원부춘,28,36,35.1703770747,127.6846977403,경상남도 하동군 악양면 입석리 산38-2,
42183,1750400,창녕우포승마장,28,36,35.5577749522,128.4566612608,경상남도 창녕군 대지면 우포2로 864,
42189,3070234,창원축구센터,28,36,35.2236893371,128.7072706108,경상남도 창원시 성산구 비음로 97 (사파정동),
42192,2729617,천문대오토캠핑장,28,36,35.2753896132,128.8875645786,경상남도 김해시 생림면 인제로 545-59,
42204,2756218,캠프라임,28,36,35.391957696,128.9211667798,경상남도 양산시 원동면 원동로 1837-2,
42231,509455,포시즌스키샵,28,36,35.4519711826,128.9637975103,경상남도 양산시 원동면 어실로 1535,(원동면)
42234,2656585,하동 코리아 짚와이어,28,36,34.9834489682,127.8934009321,경상남도 하동군 금남면 경충로 493-37,
42238,1843945,학동자동차야영장,28,36,34.7772686751,128.6415771633,경상남도 거제시 동부면 학동리,
42246,2737346,합천라온오토캠핑장,28,36,35.5523100031,128.0560410985,경상남도 합천군 용주면 가호월평길 2,
42248,3058800,합천패러글라이딩파크,28,36,35.5510384628,128.2405359995,경상남도 합천군 초계면 우회로 179,
42255,131476,해운청소년수련원,28,36,35.462872045,129.0762984906,경상남도 양산시 하북면 삼수온천길 27,
42257,2747716,향림오토캠핑장,28,36,35.5797904347,128.9802036378,경상남도 밀양시 산내면 얼음골로 134-25,
42267,131218,황석산청소년수련원,28,36,35.6260216473,127.7744362005,경상남도 함양군 서하면 육십령로 2991,
42274,2747739,BABO글램핑,28,36,35.3843680343,128.0664280028,경상남도 산청군 생비량면 상능로150번길 178,
42280,2675070,[남해 바래길] 화전별곡길,28,36,34.7957949826,128.050447607,경상남도 남해군 삼동면·미조면 일원,
42828,2575011,강구안게스트하우스,32,36,34.8418797816,128.4241610409,경상남도 통영시 동충4길 56,
42830,2575042,갯내음 펜션,32,36,34.7820505106,128.4326896463,경상남도 통영시 산양읍 논아랫개길 134-51,
42834,1855463,거제더비치펜션,32,36,34.9974616592,128.6931334899,경상남도 거제시 장목면 거제북로 2738-1,
42850,2865172,국립남해편백자연휴양림,32,36,34.7527047642,128.0164905705,경상남도 남해군 금암로 658 남해편백자연휴양림,
42858,2618541,까미노(Camino) bnb,32,36,35.2426003363,128.6652043289,경상남도 창원시 성산구 반송로81번길 37,(반지동)
42867,137779,남해스포츠파크호텔,32,36,34.8041375134,127.8356967108,경상남도 남해군 서면 스포츠파크길 73,
42870,912530,남해펜션타운,32,36,34.7821449125,127.9593142498,경상남도 남해군 이동면 남해대로1745번길 83,
42871,2804300,뉴라온스테이[한국관광 품질인증/Korea Quality],32,36,35.17846752,128.1395409315,경상남도 진주시 영천강로 166 라온 스테이 인 페를라 2차,(충무공동)
42882,2595847,달의 정원 [한국관광 품질인증/Korea Quality],32,36,35.7900725493,128.0873319214,경상남도 합천군 가야면 치인1길 13-31,
42888,2980474,덴바스타 테마 키즈호텔,32,36,35.2752479945,128.8892866547,경상남도 김해시 인제로 545-20,
42897,2679832,동의본가,32,36,35.4375883964,127.8307390041,경상남도 산청군 금서면 동의보감로479번길 57,
42898,2576288,동피랑게스트하우스,32,36,34.8451822282,128.4263052122,경상남도 통영시 중앙시장4길 6-31,(동호동)
42900,3049260,라마다 스위츠 거제,32,36,34.8403376748,128.6994093553,경상남도 거제시 일운면 거제대로 2631,라마다 스위츠 거제 호텔
42902,3101934,라온 on 37,32,36,34.8261039132,128.4323190785,경상남도 통영시 남포2길 37 (도남동),
42903,2585795,라온스테이 인 페를라 호텔,32,36,35.1781564448,128.1395742698,경상남도 진주시 영천강로 164,(충무공동)
42915,138806,망치몽돌펜션,32,36,34.8120346572,128.6648742187,경상남도 거제시 일운면 망치1길 14-1,
42919,2576773,모다 게스트하우스,32,36,34.8421825121,128.423405544,경상남도 통영시 항남1길 15-4,
42926,2579712,뮤모텔,32,36,34.9411589817,128.3482428263,경상남도 고성군 고성읍 월평1길 81-4,
42933,2572858,바다정원펜션,32,36,34.9898550844,127.9662193887,경상남도 사천시 서포면 토끼로 245-41,
42935,2674782,바다풍경펜션도시어부,32,36,34.7291577097,128.0342451826,경상남도 남해군 미조면 동부대로14번길 27-7,
42938,397685,바람의언덕 리조트,32,36,34.7397899178,128.6634345873,경상남도 거제시 남부면 해금강로 132,
42943,2569687,배쟁이펜션,32,36,34.8721735466,128.420305025,경상남도 통영시 용남면 기호바깥길 7-31,
42957,3102229,비마이아일랜드,32,36,34.8421145465,128.0362087641,경상남도 남해군 창선면 흥선로 1857-33,
42964,2577162,사과나무관광호텔,32,36,35.1687403282,128.5753169506,경상남도 창원시 마산합포구 가포신항북로 16,
42965,1368828,사랑해펜션,32,36,34.7078767918,128.0362983285,경상남도 남해군 미조면 미송로 201,
42969,2565357,산청나리꽃펜션,32,36,35.3947857204,127.8773610283,경상남도 산청군 산청읍 웅석봉로250번길 52-9,
42973,2577499,섬마을 민박낚시,32,36,34.6427903549,128.2361937024,경상남도 통영시 욕지면 도동길 85,
42978,3072231,소은고택,32,36,35.5500997182,128.7003067554,경상남도 밀양시 부북면 퇴로2길 14,
42983,2548523,스탠포드 호텔&리조트 통영,32,36,34.8244958866,128.4394129472,경상남도 통영시 도남로 347,
43005,2577989,에코힐링게스트하우스,32,36,34.8564221675,128.3999627671,경상남도 통영시 평인일주로 870,(평림동)
43007,2950477,엘림마리나 & 리조트[한국관광 품질인증/Korea Quality],32,36,34.8009999964,128.0527444941,경상남도 남해군 동부대로1122번길 74-19,
43019,3044624,옥포비지니스호텔,32,36,34.890304217,128.6940418263,경상남도 거제시 옥포성안로 43 (옥포동),
43022,2578451,욕지 굿모닝펜션,32,36,34.6416960581,128.2376158288,경상남도 통영시 욕지면 욕지일주로 822,
43024,2578641,욕지현재펜션,32,36,34.6372609013,128.2636581216,경상남도 통영시 욕지면 천왕로 46,
43045,2760074,지리산태고재 (정일품농원),32,36,35.5651089702,127.7672967821,경상남도 함양군 지곡면 개평길 39-2,지리산태고재
43049,2579456,초록빛바다펜션,32,36,34.7990958554,128.4342390646,경상남도 통영시 산양읍 이운길 102,
43054,138764,카리브콘도텔,32,36,34.829422986,128.4323051036,경상남도 통영시 도남로 257-29,(도남동)
43080,2580290,통영비치캐슬호텔,32,36,34.8542804432,128.383308719,경상남도 통영시 평인일주로 486-1,(평림동)
43086,2580519,통영한산마리나호텔리조트,32,36,34.8047868854,128.4342055849,경상남도 통영시 산양읍 삼칭이해안길 820,
43090,138794,티파니리조텔,32,36,34.7749272539,128.6406661924,경상남도 거제시 동부면 거제중앙로 3,
43091,607494,파도소리펜션,32,36,34.8221656015,128.4399768484,경상남도 통영시 수륙길 5,
43097,3062302,포르투나호텔,32,36,34.8329917056,128.4140204914,경상남도 통영시 미수해안로 152 (봉평동),
43102,2580703,풍차마을아이리스펜션,32,36,34.8804956756,128.4671451695,경상남도 통영시 용남면 장평신촌1길 251-11,
43108,641688,프로방스 펜션,32,36,34.8083078209,128.6940134516,경상남도 거제시 일운면 거제대로 2093,
43123,138944,해림펜션,32,36,34.7990619951,128.7141813893,경상남도 거제시 일운면 와현로 270,
43127,2581001,해오름황토펜션,32,36,34.6285064694,128.2719798465,경상남도 통영시 욕지면 욕지일주로 1574,
43128,2581056,해품길펜션,32,36,34.6413103577,128.571209071,경상남도 통영시 한산면 매물도대항길 11,
43136,2576397,홈게스트하우스,32,36,34.8313836505,128.4195506075,경상남도 통영시 서송정1길 46-18,(봉평동)
43151,2570326,Encasa펜션(앤까사펜션),32,36,34.7927463677,128.4231624177,경상남도 통영시 산양읍 산양일주로 480,
43158,2579320,on온모텔,32,36,34.9751575304,128.3246995418,경상남도 고성군 고성읍 동외로151번길 24,
43597,2929094,갤럭시 신세계백화점 김해점,38,36,35.2293778284,128.8722699469,경상남도 김해시 김해대로 2232,
43599,132126,"거창장 (1, 6일)",38,36,35.6868644644,127.9140472395,경상남도 거창군 거창읍 중앙로 140,
43603,132384,"경화장 (3, 8일)",38,36,35.1570104028,128.6905433175,경상남도 창원시 진해구 경화시장로 37,
43619,2783868,내서농산물도매시장,38,36,35.2554822066,128.5113729859,경상남도 창원시 마산회원구 내서읍 유통단지로 33,
43633,2923970,대현 주크 롯데김해,38,36,35.185101457,128.8296220926,경상남도 김해시 장유로 469 (신문동) 롯데아울렛 김해,
43636,2795203,덕산마을오일장,38,36,35.2770732962,127.8377648318,경상남도 산청군 시천면 남명로 188-5,
43640,2911685,데코 롯데김해,38,36,35.185101457,128.8296220926,경상남도 김해시 장유로 469,
43651,2903579,랄프로렌_롯데김해아울렛지점,38,36,35.185101457,128.8296220926,경상남도 김해시 장유로 469,
43657,2926663,롯데마트,38,36,35.4126321581,129.1670114169,경상남도 양산시 삼호1길34,
43666,3086012,롯데몰 진주점,38,36,35.1801923316,128.1398630799,경상남도 진주시 동진로 440 (충무공동),
43669,2930397,롯데아울렛 김해점(SJSJ),38,36,35.185101457,128.8296220926,경상남도 김해시 장유로 469,
43676,2915188,롯데하이마트 도동점,38,36,35.1858468528,128.1174648938,경상남도 진주시 대신로 284,
43678,2915159,롯데하이마트 마산역점,38,36,35.229050233,128.5758208394,경상남도 창원시 마산회원구 3.15대로 624,
43688,2926868,루이까또즈 롯데창원,38,36,35.2245998827,128.6818394739,경상남도 창원시 성산구 중앙대로124,
43698,2907086,리스트 롯데김해,38,36,35.185101457,128.8296220926,경상남도 김해시 장유로 469 (신문동) 롯데아울렛 김해 2층,
43702,132152,"마천장 (5, 10일)",38,36,35.3956679475,127.6627021434,경상남도 함양군 마천면 천왕봉로 1144-2,
43704,2925737,먼싱웨어 신세계점,38,36,35.2196376027,128.586917345,경상남도 창원시 마산합포구 합포로251,
43707,2926756,메트로시티 롯데창원,38,36,35.2245998827,128.6818394739,경상남도 창원시 성산구 중앙대로124,
43712,2922934,몽블랑 롯데 창원점,38,36,35.2245998827,128.6818394739,경상남도 창원시 성산구 중앙대로 124,
43718,132277,"밀양장 (2, 7일)",38,36,35.4926603011,128.7728908648,경상남도 밀양시 상설시장1길 11,
43720,2925751,바쏘 신세계점,38,36,35.2196376027,128.586917345,경상남도 창원시 마산합포구 합포로251,
43726,2903132,블랙야크 롯데김해,38,36,35.185101457,128.8296220926,경상남도 김해시 장유로 469 (신문동) 롯데아울렛 김해,
43731,2925381,쁘렝땅 롯데김해,38,36,35.185101457,128.8296220926,경상남도 김해시 장유로 469 (신문동) 롯데아울렛 김해,
43741,132388,"생초시장 (3, 8일)",38,36,35.4924211848,127.8360398646,경상남도 산청군 생초면 생초로 25-17,
43752,2924243,신세계백화점 김해,38,36,35.2293778284,128.8722699469,경상남도 김해시 김해대로 2232,
43757,2909955,아디다스 롯데아울렛 김해점,38,36,35.185101457,128.8296220926,경상남도 김해시 장유로 469,
43769,2810060,어거스트램,38,36,34.8446239809,128.4276273335,경상남도 통영시 통새미길 18,
43774,2923419,엘지베스트샵 양산북정점,38,36,35.35233374,129.0373132891,경상남도 양산시 양산대로 915,
43775,2928749,엠유스포츠 롯데김해,38,36,35.185101457,128.8296220926,경상남도 김해시 장유로 469,B216호엠유스포츠매장
43788,2899929,올리브영 롯데몰 진주점,38,36,35.1801923316,128.1398630799,경상남도 진주시 동진로 440,
43789,3306499,올리브영 롯데몰진주점,38,36,35.1801923316,128.1398630799,경상남도 진주시 동진로 440,롯데몰진주 1층
43790,3306236,올리브영 양산덕계점,38,36,35.3742972727,129.1508805556,경상남도 양산시 번영로 19 (덕계동),
43793,3307226,올리브영 진주평거점,38,36,35.1716224697,128.0621423418,경상남도 진주시 순환로 526,
43803,2915895,올젠 롯데김해,38,36,35.185101457,128.8296220926,경상남도 김해시 장유로 469 (신문동) 롯데아울렛 김해,
43805,2784223,외동시장,38,36,35.2329773099,128.8660342814,경상남도 김해시 내외중앙로 33,(외동)
43819,2904587,이마트 창원,38,36,35.2266301804,128.6802062284,경상남도 창원시 성산구 원이대로 608 (중앙동),
43826,2796734,자유시장 (진주),38,36,35.180147363,128.1101212432,경상남도 진주시 도동천로 93,(상대동)
43836,2915012,지컷,38,36,35.185101457,128.8296220926,경상남도 김해시 장유로 469,
43871,2917224,탠디 롯데김해,38,36,35.185101457,128.8296220926,경상남도 김해시 장유로 469 (신문동) 롯데아울렛 김해,
43872,2915029,토박스,38,36,35.185101457,128.8296220926,경상남도 김해시 장유로 469,2층
43878,2911815,트렉스타 롯데김해,38,36,35.185101457,128.8296220926,경상남도 김해시 장유로 469,
43885,2915183,하이마트 옥포점,38,36,34.8882710748,128.6920448323,경상남도 거제시 거제대로 3710,
43906,2911760,휠라 롯데김해,38,36,35.185101457,128.8296220926,경상남도 김해시 장유로 469 롯데아울렛 김해점 2층,
43914,2924691,ER 뉴코아아울렛 창원,38,36,35.2345452661,128.6422093338,경상남도 창원시 의창구 창원대로397번길 6 뉴코아아울렛,
43915,2911870,FGF 롯데김해(스톤아일랜드),38,36,35.185101457,128.8296220926,경상남도 김해시 장유로 469,
43925,2910467,MH 모던하우스 홈플러스김해,38,36,35.2420374981,128.8711169245,경상남도 김해시 김해대로 2078,
43928,2914710,MUJI 신세계김해,38,36,35.2293778284,128.8722699469,"경상남도 김해시 김해대로 2232,1층(외동,신세계백화점)",
43929,2926741,NICE CLAUP 롯데창원,38,36,35.2245998827,128.6818394739,경상남도 창원시 성산구 중앙대로124,
43932,2926696,SJSJ 롯데창원,38,36,35.2245998827,128.6818394739,경상남도 창원시 성산구 중앙대로124,
43937,2926711,VOV 롯데창원,38,36,35.2245998827,128.6818394739,경상남도 창원시 성산구 중앙대로124,
45122,2575780,강복궁,39,36,35.219386608,128.6834394752,경상남도 창원시 성산구 마디미동로 54,"(상남동),SM빌딩 2층 201호"
45142,2914408,거제해송원조굴구이,39,36,34.8435570747,128.5626739391,경상남도 거제시 거제남서로 3845 해송굴구이촌,
45143,1599121,거창추어탕,39,36,35.6830148265,127.9099171513,경상남도 거창군 거창읍 강남로 114,
45148,2783392,겟인상북,39,36,35.3973401168,129.0545633177,경상남도 양산시 상북면 양산대로 1456,
45157,134261,고바우식당,39,36,35.7911613257,128.0879318387,경상남도 합천군 가야면 치인1길 13-5,
45169,2914467,곳간504 본점,39,36,34.8666845251,128.6879707608,경상남도 거제시 아주1로2길 39,
45200,3014731,금산산장,39,36,34.7516931411,127.9807881567,경상남도 남해군 상주면 보리암로 691,
45206,1905781,금호관,39,36,35.7662538597,128.1335618189,경상남도 합천군 가야면 가야산로 1183,
45227,2572774,남망산충무김밥,39,36,34.8447461753,128.4268274007,경상남도 통영시 통영해안로 359,(동호동)
45234,2807605,남해구판장,39,36,34.8462240656,127.8128420765,경상남도 남해군 남서대로2197번길 77,
45255,2901330,농월초계탕막국수,39,36,35.6227166172,127.7829744229,경상남도 함양군 육십령로 3102,
45267,2851817,다원정,39,36,35.4932471232,128.8150677118,경상남도 밀양시 율전안길 29,
45308,1600383,덕유산 송계산장,39,36,35.8322292786,127.7998339928,경상남도 거창군 북상면 송계사길 189,
45342,134111,동흥식당,39,36,35.0645345134,127.7467561384,경상남도 하동군 하동읍 경서대로 94,
45418,2626962,모닝아일랜드(거제삼성호텔),39,36,34.8961965282,128.6123487774,경상남도 거제시 장평3로 80-37,
45422,2572816,모카당포,39,36,34.7946510103,128.3839102295,경상남도 통영시 산양읍 산양일주로 1564,
45451,2929884,물회명가,39,36,34.7935951748,128.0473451565,경상남도 남해군 동부대로 1053,
45475,2579221,바닷가에 햇살 한스푼,39,36,34.9458220853,128.3335217659,경상남도 고성군 고성읍 신월로 157,
45504,2854311,백제삼계탕13월,39,36,35.157529478,128.6734420181,경상남도 창원시 진해구 태백서로47번길 19,
45508,2782730,버들횟집,39,36,35.1904904164,127.6240081133,경상남도 하동군 화개면 화개로 26,
45524,2851529,보타미,39,36,35.2406647335,128.6811807634,경상남도 창원시 성산구 외동반림로 270-1,
45561,2496514,뽕네프반점,39,36,35.1395102558,128.5742733813,경상남도 창원시 마산합포구 가포로 704,
45564,2902650,산골애,39,36,34.8972522497,128.6281168217,경상남도 거제시 중곡1로 82,
45626,2891645,설야멱 양산본점,39,36,35.3205393566,128.9978370536,경상남도 양산시 백호1길 11,1층
45651,2789421,솟대마을 숯불 장어구이,39,36,35.2183022256,128.9230519325,경상남도 김해시 식만로348번길 21,(불암동)
45665,2832689,수정식당,39,36,35.3203370995,128.2629735614,경상남도 의령군 의병로23길 6 수정식당,
45669,2914961,순봉가,39,36,34.8540059184,128.7174490906,경상남도 거제시 거제대로 2897,
45681,2849078,시골추어탕,39,36,35.7095414944,128.0157209818,경상남도 거창군 가조면 마상리,경남 거창군 가조면 지산로 1487
45701,2844237,심리장어구이,39,36,35.0710685329,128.6075917524,경상남도 창원시 마산합포구 이순신로 353-29,
45704,2868122,쌍계명차,39,36,35.1909320368,127.6242164169,경상남도 하동군 화개로 30,
45725,2576555,약수터가든,39,36,35.2348796949,128.5515950224,경상남도 창원시 마산회원구 회성서1길 11,(회성동)
45735,1369276,어부촌,39,36,34.9409677808,127.9022818091,경상남도 남해군 설천면 강진로 723,
45760,403826,여원식당,39,36,34.8293125948,128.0016204502,경상남도 남해군 삼동면 동부대로 1839,
45794,2578170,외포9번횟집,39,36,34.9389769861,128.7179773354,경상남도 거제시 장목면 외포5길 64,
45805,2574192,우도다찌,39,36,34.8376245343,128.4147841919,경상남도 통영시 도천상가안길 18,"(도천동,동원나폴리빌)"
45820,2867399,웅아물회,39,36,34.8305862108,128.7118474226,경상남도 거제시 지세포해안로 171,
45858,2875165,이가네 가야밀면,39,36,35.2352915908,128.901486682,경상남도 김해시 분성로 508,1층
45915,2788006,조양숯불갈비,39,36,35.1899516079,127.6251274739,경상남도 하동군 화개면 쌍계로 35,
45917,2579284,주남오리궁,39,36,34.9759489776,128.3173668274,경상남도 고성군 고성읍 성내로 76,
45957,1578292,찻잎마술,39,36,35.2298335141,127.6417194244,경상남도 하동군 화개면 화개로 519,
45998,2854704,카사벨라,39,36,35.1645173129,128.8109937198,경상남도 김해시 율하로346번길 41,
46017,2838519,카페귀촌,39,36,35.4503272848,128.529777214,경상남도 창녕군 원다리길 8,2층
46031,2857115,카페스테이지,39,36,34.9743115224,128.695911645,경상남도 거제시 율천두모로 98,
46085,2575016,통영왕새우,39,36,34.8612224849,128.4477806974,경상남도 통영시 용남면 화포2길 176,
46107,2874361,팔도강산,39,36,35.7292195907,128.1571746302,경상남도 합천군 야로면 월광리,29-4
46118,134550,평화횟집,39,36,34.9208921767,128.5240280355,경상남도 거제시 사등면 성포로3길 12,
46187,1019822,합천황토한우프라자,39,36,35.5664103199,128.1624757896,경상남도 합천군 합천읍 동서로 96,
46210,2862713,해초 양산본점,39,36,35.3560389405,129.0405990118,경상남도 양산시 삼성3길 17-12 해초,
46211,2797001,해플스팜사이더리,39,36,35.7153332,127.8993811042,경상남도 거창군 거창읍 갈지2길 192-8,
46241,2915933,화지한우식육식당,39,36,34.8881031454,128.6210454575,경상남도 거제시 서문로6길 10,
