,content_id,title,content_type_id,area_code,latitude,longitude,addr1,addr2
39433,1625224,고부향교,12,37,35.6216686028,126.7707336667,전북특별자치도 정읍시 고부면 교동4길 18,
39461,2778914,공룡테마공원,12,37,35.9907045238,127.102605645,전북특별자치도 익산시 왕궁면 호반로 8,
39472,126328,교룡산국민관광지,12,37,35.4279729781,127.3643137624,전북특별자치도 남원시 산성순환길 714,
39488,1610474,구장군폭포,12,37,35.4083228536,127.0668822579,전북특별자치도 순창군 팔덕면 청계리,
39498,2704650,군산 3.1운동 100주년 기념관,12,37,35.986982064,126.7422712611,전북특별자치도 군산시 영명길 29,(구암동)
39503,3025794,군산 부윤관사,12,37,35.984706723,126.7071466842,전북특별자치도 군산시 월명로 493 (월명동),
39509,914536,군산 해망굴,12,37,35.9911698337,126.7047828394,전북특별자치도 군산시 군산창2길 48,(해망동)
39511,3025912,군산어린이교통공원,12,37,35.9607795808,126.5841527506,전북특별자치도 군산시 동장산로 135 (소룡동),
39538,2782910,기지제,12,37,35.8460758643,127.0627518776,전북특별자치도 전주시 덕진구 장동 1110,
39560,250308,남문안당산,12,37,35.7308250252,126.7349562885,전북특별자치도 부안군 부안읍 남문안길 10,
39570,1607729,남원 진기리 느티나무,12,37,35.4959496219,127.4219818974,전북특별자치도 남원시 보절면 보절신기길 14-3,(보절면) 부근
39639,126320,덕진공원,12,37,35.8475156135,127.1218687977,전북특별자치도 전주시 덕진구 권삼득로 390,
39646,1956969,도동서원(고창),12,37,35.4779705412,126.7419148771,전북특별자치도 고창군 신림면 가평1길 64,
39663,127538,두남천,12,37,35.8430101674,127.4170787716,전북특별자치도 진안군 부귀면 두남리 170,
39688,128609,만돌갯벌체험학습장,12,37,35.5301302431,126.5150115273,전북특별자치도 고창군 심원면 애향갯벌로 320,
39711,127689,모항해수욕장,12,37,35.58286024,126.5077441836,전북특별자치도 부안군 변산면 모항길 22,
39752,126245,미륵산(익산),12,37,36.0258300361,127.0429294914,전북특별자치도 익산시 금마면 신용리,
39784,2605243,뱀사골 와운마을,12,37,35.3626676626,127.5922814381,전북특별자치도 남원시 산내면 와운길 249,
39790,126239,변산반도국립공원,12,37,35.6418575196,126.5797696087,전북특별자치도 부안군 변산면 방파제길 11,
39796,1956995,보령서원,12,37,35.6574544002,126.6645283253,전북특별자치도 부안군 상서면 봉은길 90-5,
39822,1608822,부안향교,12,37,35.7314192819,126.7278457962,전북특별자치도 부안군 부안읍 당간지주1길 15,
39825,1580147,분양서원,12,37,35.9548552709,127.8574727941,전북특별자치도 무주군 무풍면 지성길 119,(무풍면)
39830,2615342,비비정예술열차,12,37,35.8989921483,127.0677778248,전북특별자치도 완주군 삼례읍 비비정길 73-21,
39851,317570,상원사(고창),12,37,35.446390629,126.7323720775,전북특별자치도 고창군 고창읍 월곡리,
39908,2759662,세병공원,12,37,35.876867983,127.1307950117,전북특별자치도 전주시 덕진구 송천동2가 1316,
39933,250311,순창 충신리 석장승,12,37,35.376980574,127.1482786299,전북특별자치도 순창군 순창읍 장류로 407-11,
39935,2663368,순창건강장수체험과학관,12,37,35.4299159695,127.1319703843,전북특별자치도 순창군 인계면 인덕로 427-127,
39945,319705,승련사(남원),12,37,35.4902396985,127.4530515202,전북특별자치도 남원시 산동면 요천로 2675-90,(산동면)
39982,337432,약수암(전주),12,37,35.8450776364,127.1583906107,전북특별자치도 전주시 덕진구 도당산로 46-10,(우아동3가)
39984,1611300,어은정,12,37,35.4237764703,127.2175490762,전북특별자치도 순창군 적성면 평남길 107-32,(적성면)
39990,1954820,여산향교,12,37,36.0548747704,127.0904439278,전북특별자치도 익산시 여산면 여산교동길 23-2,(여산면)
40054,2469199,용담댐 물 문화관,12,37,35.945047749,127.5284883776,전북특별자치도 진안군 안천면 안용로 747,
40059,2778546,용담호자연생태습지공원,12,37,35.8160084606,127.461458879,전북특별자치도 진안군 진안읍 진무로 1514,
40064,1954827,용안향교,12,37,36.1217147729,126.9542765571,전북특별자치도 익산시 용안면 용안교동1길 34-11,
40090,126246,운장산(진안),12,37,35.8826548991,127.3737843468,전북특별자치도 진안군 주천면,"부귀면, 정천면, 완주군 동상면"
40098,347011,원통사(무주),12,37,35.8186679171,127.6992793779,전북특별자치도 무주군 안성면 원통사로 676,
40147,803138,익산 아홉마디풀향기마을,12,37,36.0340678496,126.8745443192,전북특별자치도 익산시 함라면 소룡길 15-14,
40152,231953,익산 입점리 고분,12,37,36.0459053055,126.869841653,전북특별자치도 익산시 웅포면,
40157,126945,익산 토성,12,37,35.9924420801,127.0372808731,전북특별자치도 익산시 금마면 서고도리,산52-2
40160,3025977,익산산림조합산림문화체험관,12,37,36.0586652988,126.8894728967,전북특별자치도 익산시 웅포면 녹차마을길 83-36,
40203,1600674,장철성고택,12,37,35.7703473333,127.0026536441,전북특별자치도 김제시 금구면 서도길 69,(금구면)
40234,2790515,전주드림랜드,12,37,35.8551623554,127.1443249321,전북특별자치도 전주시 덕진구 소리로 68,(덕진동1가)
40274,252578,줄포만 갯벌생태공원,12,37,35.5830519106,126.6741849091,전북특별자치도 부안군 줄포면 생태공원로 38,
40304,1597700,진흥굴,12,37,35.4843335466,126.56746634,전북특별자치도 고창군 아산면 선운사로 250,(아산면)
40305,2932292,착한공작소,12,37,35.8151196708,127.1432566301,전북특별자치도 전주시 완산구 전라감영로 36,
40312,1957086,창주서원,12,37,35.4209798647,127.3954389701,전북특별자치도 남원시 춘향로 64,(도통동)
40316,3018383,책 마을 해리,12,37,35.4694921518,126.4831075526,전북특별자치도 고창군 해리면 월봉성산길 88,
40325,1935601,천호성지,12,37,36.0380857264,127.1310435243,전북특별자치도 완주군 비봉면 천호성지길 124,(비봉면)
40395,1957304,현주서원,12,37,35.5546222699,127.349409015,전북특별자치도 임실군 지사면 계산4길 89,(지사면)
40427,2995168,(유) 복합문화공간 서리울,12,37,36.0151524828,127.1454845087,전북특별자치도 완주군 내월길 92-58,
40765,2994669,가람문학관,14,37,36.0353602265,127.0844949735,전북특별자치도 익산시 가람1길 76 가람문학관,
40769,1750138,고창문화의전당,14,37,35.4333666372,126.7045859853,전북특별자치도 고창군 고창읍 모양성로 11,
40775,3352874,국립무형유산원,14,37,35.8099038819,127.1596636399,전북특별자치도 전주시 완산구 서학로 95 (동서학동),
40776,129721,국립민속국악원,14,37,35.401598655,127.3915259291,전북특별자치도 남원시 양림길 54,(어현동)
40777,130254,국립익산박물관,14,37,36.0114953122,127.0286089242,전북특별자치도 익산시 금마면 미륵사지로 362,
40780,2737317,국립청소년농생명센터,14,37,35.7535771949,126.8510731334,전북특별자치도 김제시 부량면 벽골제로 421,
40781,1904335,국립태권도원,14,37,36.0093532183,127.778678308,전북특별자치도 무주군 설천면 무설로 1482,
40783,129977,군산문화원,14,37,35.9649781853,126.6934067562,전북특별자치도 군산시 대학로 330,(나운동)
40784,2605928,군산평화박물관,14,37,35.9838290675,126.7084327032,전북특별자치도 군산시 동국사길 3,(월명동)
40787,2606139,김환태문학관&최북미술관,14,37,36.0046683688,127.6639219618,전북특별자치도 무주군 무주읍 한풍루로 347,
40789,2660398,남원다움관,14,37,35.4037537154,127.3770243774,전북특별자치도 남원시 검멀1길 14,(금동)
40791,2714794,남원시 옻칠공예관,14,37,35.3954598963,127.3589900746,전북특별자치도 남원시 요천로 1234-5,(조산동)
40792,2559504,남원시립김병종미술관,14,37,35.3986961712,127.3895706212,전북특별자치도 남원시 함파우길 65-14,(어현동)
40796,3066196,다가 여행자 도서관,14,37,35.8158806712,127.1418400701,전북특별자치도 전주시 완산구 전라감영2길 28 (다가동1가),
40801,1594231,동학혁명기념관,14,37,35.8168862888,127.1520252483,전북특별자치도 전주시 완산구 은행로 34,(풍남동3가)
40804,1587301,루이엘모자박물관,14,37,35.8185610364,127.1484810753,전북특별자치도 전주시 완산구 전동성당길 8,
40805,130240,마동도서관,14,37,35.9403690603,126.9691299853,전북특별자치도 익산시 선화1로 99,(마동)
40807,1941168,명봉도서관,14,37,35.6523902597,126.9422148461,전북특별자치도 정읍시 태인면 태인로 33-9,
40809,2609506,무주 산골영화관,14,37,36.0023797159,127.6625471455,전북특별자치도 무주군 무주읍 한풍루로 326-17,
40810,130909,무주양수홍보관,14,37,35.9668985309,127.7124714454,전북특별자치도 무주군 적상면 괴목로 788,
40816,2660811,보석박물관,14,37,35.9907045238,127.102605645,전북특별자치도 익산시 왕궁면 호반로 8,
40821,130194,부안문화원,14,37,35.7211732424,126.728854302,전북특별자치도 부안군 부안읍 매창1길 25,
40825,2946239,새만금홍보관,14,37,35.6966759319,126.5589950731,전북특별자치도 부안군 변산면 대항리 141,
40829,129979,순창문화원,14,37,35.377499945,127.1474370249,전북특별자치도 순창군 순창읍 장류로 407-11,
40830,638976,순창장류박물관,14,37,35.3696835379,127.1110071158,전북특별자치도 순창군 순창읍 장류로 43,
40832,2946705,아현슈퍼,14,37,35.8064653539,127.1579138857,전북특별자치도 전주시 완산구 동서학동 854-7,
40833,1587143,어진박물관,14,37,35.8162252063,127.1493588361,전북특별자치도 전주시 완산구 태조로 44,(풍남동3가)
40838,2606148,오스갤러리,14,37,35.9048083655,127.2397234665,전북특별자치도 완주군 소양면 오도길 24,
40841,3067827,완판본문화관,14,37,35.812006392,127.1579942895,전북특별자치도 전주시 완산구 전주천동로 24 (교동),
40842,3066245,우진 문화 공간,14,37,35.8275569222,127.1304157812,전북특별자치도 전주시 덕진구 전주천동로 376 (진북동),
40845,2778070,유휴열미술관,14,37,35.7251349088,127.1115673508,전북특별자치도 완주군 구이면 신뱅이길 55,
40850,2789438,임실김용택시인문학관,14,37,35.4850880281,127.1627412404,전북특별자치도 임실군 덕치면 장암2길 16,
40851,2606124,장미갤러리,14,37,35.9902089642,126.7125155054,전북특별자치도 군산시 해망로 232,(장미동)
40854,3338212,장수역사전시관,14,37,35.7304704073,127.5883610024,전북특별자치도 장수군 장계면 방천길 11,
40859,2445701,전북도청도서관,14,37,35.8203212592,127.1087845621,전북특별자치도 전주시 완산구 효자로 225,(효자동3가)
40866,130444,전주 전통술박물관,14,37,35.8170807379,127.1535556624,전북특별자치도 전주시 완산구 한지길 74,(풍남동3가)
40869,3056595,전주 한옥 마을 역사관,14,37,35.8160502883,127.1529529652,전북특별자치도 전주시 완산구 최명희길 17-10 (풍남동3가),
40870,130357,전주공예품전시관,14,37,35.8173889921,127.151008659,전북특별자치도 전주시 완산구 태조로 15,
40873,2945608,전주디지털독립영화관,14,37,35.8184026214,127.1427315912,전북특별자치도 전주시 완산구 고사동 429-5 전주영화제작소,
40874,129974,전주문화원,14,37,35.8311788885,127.1394371056,전북특별자치도 전주시 덕진구 팔달로 340-30,(진북동)
40876,130445,전주역사박물관,14,37,35.8011537289,127.0933753228,전북특별자치도 전주시 완산구 쑥고개로 259,(효자동2가)
40882,130043,정읍사국악원,14,37,35.5534084488,126.86114681,전북특별자치도 정읍시 시기4길 23,(시기동)
40884,2742247,정읍시립미술관,14,37,35.5523641321,126.8616579023,전북특별자치도 정읍시 시기4길 7,(시기동)
40889,130332,채만식 문학관,14,37,36.0086437477,126.7578998571,전북특별자치도 군산시 강변로 449,(내흥동)
40890,2721611,첫마중길 여행자도서관,14,37,35.8489133063,127.1580988686,전북특별자치도 전주시 덕진구 백제대로 823 (우아동3가),첫마중길 여행자도서관
40891,231978,최명희문학관,14,37,35.8155031037,127.1514947762,전북특별자치도 전주시 완산구 최명희길 29,
40892,1612096,추령장승촌,14,37,35.4781097935,126.9278428056,전북특별자치도 순창군 복흥면 추령로 1792-12,
40896,1594616,풍남문화관,14,37,35.8141226616,127.1490033672,전북특별자치도 전주시 완산구 전동성당길 110,(전동)
40899,130435,한국소리문화의전당,14,37,35.8552677836,127.1376810758,전북특별자치도 전주시 덕진구 소리로 31,(덕진동1가)
40901,3065619,한해랑 아트홀,14,37,35.8149274282,127.1087513728,전북특별자치도 전주시 완산구 홍산중앙로 13 (효자동2가),돌핀빌딩 3층
41071,2588930,개암동 벚꽃축제,15,37,35.6605539386,126.6580871543,전북특별자치도 부안군 상서면 감교리,869-81 일원
41075,2667307,고창 핑크뮬리 축제,15,37,35.5027352266,126.6264384089,전북특별자치도 고창군 부안면 복분자로 307,
41076,3339982,고창농악 꽃대림축제,15,37,35.3835489835,126.6404457117,전북특별자치도 고창군 성송면 향산1길 106,고창농악전수관
41078,2719229,고창청농원 라벤더시즌,15,37,35.3735622358,126.5349053387,전북특별자치도 고창군 공음면 칠암리,청천길 41-27 고창청농원
41080,511801,고창청보리밭 축제,15,37,35.3754177213,126.543290658,전북특별자치도 고창군 공음면 학원농장길 150,
41081,1358036,고창해풍고추축제,15,37,35.4337773663,126.6846960753,전북특별자치도 고창군 고창읍 녹두로 1265,고창군 농산물 종합유통센터
41082,2737577,국가유산 미디어아트 익산 미륵사지,15,37,36.0136034395,127.0305975801,전북특별자치도 익산시 금마면 기양리,32-7  익산 미륵사지 일원
41083,2853719,군산 수제맥주&블루스 페스티벌,15,37,35.9898145759,126.7131626804,전북특별자치도 군산시 해망로 224 (장미동),
41084,2724153,군산문화유산야행,15,37,35.9877258361,126.7079326463,전북특별자치도 군산시 구영2길 9,군산 내항 및 원도심 일원
41086,2953096,김제 꽃빛드리 축제,15,37,35.8121769519,126.9018893143,전북특별자치도 김제시 도작로 219-25 (검산동),
41087,1248817,김제 모악산 뮤직페스티벌,15,37,35.7205176641,127.0476870396,전북특별자치도 김제시 금산면 금산리,99-2
41089,3349589,김제 새로보미 축제,15,37,35.8130212655,126.8999144686,전북특별자치도 김제시 도작로 220 (검산동),
41090,574285,김제지평선축제,15,37,35.7540632714,126.8522869016,전북특별자치도 김제시 벽골제로 442,
41093,1373481,남원흥부제,15,37,35.4028678706,127.386615219,전북특별자치도 남원시 양림길 12 춘향테마파크,사랑의광장 및 야외무대
41095,2999744,다다영등 얼맥 페스티벌,15,37,35.9601474978,126.9770537614,전북특별자치도 익산시 무왕로13길 18 영등2동주민센터,익산시 영등2동 행정복지센터 앞 주차장 및 고봉로32길 일원
41096,2978174,동아시아문화도시 전주 폐막식,15,37,35.8099038819,127.1596636399,전북특별자치도 전주시 완산구 서학로 95 (동서학동),
41097,2492537,동편제국악축제,15,37,35.4575397577,127.5626732415,전북특별자치도 남원시 운봉읍 비전길 7,(비전마을 정자 앞)
41098,2818501,동학농민혁명 기념식,15,37,35.6318490114,126.8300531282,전북특별자치도 정읍시 동학로 742 동학농민혁명기념관,
41099,1266490,동학농민혁명기념제,15,37,35.6318490114,126.8300531282,전북특별자치도 정읍시 덕천면 동학로 742,
41101,2986574,무주국가유산축전,15,37,36.0040267475,127.6623693393,전북특별자치도 무주군 무주읍 한풍루로 326-5,무주 한풍루
41102,506523,무주반딧불축제,15,37,36.0026685539,127.6615222281,전북특별자치도 무주군 한풍루로 326-14 등나무운동장,
41104,2856656,무형유산이음축제,15,37,35.8157779693,127.1455841839,전북특별자치도 전주시 완산구 전라감영로 55 전라감영,
41105,2996766,변산비치파티,15,37,35.6813299945,126.5315840188,전북특별자치도 부안군 변산면 대항리,567
41106,1560363,부안마실축제,15,37,35.7258451509,126.7416641514,전북특별자치도 부안군 부안읍 별천지로 3,부안 해뜰마루 지방정원
41110,3097133,순창달달놀이,15,37,35.368905875,127.1125625531,전북특별자치도 순창군 순창읍 장류로 55,
41111,3082028,순창맛페스타,15,37,35.368905875,127.1125625531,전북특별자치도 순창군 순창읍 장류로 55,
41113,2987912,완주 대둔산 축제,15,37,36.116102564,127.3316652166,전북특별자치도 완주군 운주면 산북리,
41115,1336591,완주 와일드&로컬푸드축제,15,37,35.974214201,127.231225168,전북특별자치도 완주군 고산면 고산휴양림로 89,
41116,2552235,익산 문화유산 야행,15,37,35.971341994,127.0537577344,전북특별자치도 익산시 왕궁면 궁성로 666,
41118,637276,익산천만송이국화축제,15,37,35.9492655338,126.9844672731,전북특별자치도 익산시 하나로 322 (어양동),
41120,2984556,임실N펫스타,15,37,35.545245264,127.3326940727,전북특별자치도 임실군 충효로 2096-16 임실군문화체육센터,오수의견공원
41124,3338380,장화홍련 : 미로의 비밀,15,37,35.7728431466,127.4174167081,전북특별자치도 진안군 진안읍 단양리,
41126,2832757,전주 모래내 치맥&가맥페스티벌,15,37,35.8336092448,127.1438866461,전북특별자치도 전주시 덕진구 모래내4길 8-8,모래내시장길 일대
41133,3011967,전주예술난장,15,37,35.8183167088,127.1536278459,전북특별자치도 전주시 완산구 기린대로 99 (남노송동),
41135,506838,전주한지문화축제,15,37,35.8208857643,127.1480254995,전북특별자치도 전주시 완산구 현무1길 20 (경원동3가),한지산업지원센터 1층
41136,3007934,정읍 물빛축제,15,37,35.5613102375,126.8557220904,전북특별자치도 정읍시 시기동 407-3,정읍천 어린이축구장 일원
41139,1855589,제17회 전북청소년영화제,15,37,35.8210967513,127.1422621184,전북특별자치도 전주시 완산구 전주객사3길 74-25 (고사동),
41140,2767541,제18회 전북특별자치도 과학축전,15,37,35.855584251,127.1282680169,전북특별자치도 전주시 덕진구 보훈누리로 63 (송천동1가),
41141,141188,제21회 전주국제발효식품엑스포(IFFE 2023),15,37,35.8680567372,127.065187198,전북특별자치도 전주시 덕진구 기린대로 1055,(반월동)
41143,2757751,제3회 전주거리인형극제,15,37,35.8162195083,127.1411179026,전북특별자치도 전주시 완산구 전라감영2길 37,
41144,2861680,제6회 전주국제단편영화제,15,37,35.8210967513,127.1422621184,전북특별자치도 전주시 완산구 전주객사3길 74-25,
41146,3114868,진봉 새만금 보리밭 축제,15,37,35.8427723565,126.6744199332,전북특별자치도 김제시 진봉면 심포리,산 149
41150,506473,춘향제,15,37,35.4021539472,127.3799713796,전북특별자치도 남원시 요천로 1447 광한루,
41151,3011935,탱고 시간을 만지다,15,37,35.8099038819,127.1596636399,전북특별자치도 전주시 완산구 서학로 95 (동서학동),
41152,1078790,필봉마을굿 축제,15,37,35.5363792923,127.1542878904,전북특별자치도 임실군 강진면 강운로 272,필봉문화촌
41154,3115437,함들이 퍼포먼스 <함사세요>,15,37,35.8163139983,127.1443592789,전북특별자치도 전주시 완산구 전라감영4길 13-7 (중앙동2가),
41159,3304411,2024 강천산 산들바람 맨발트래킹,15,37,35.4088116994,127.067596071,전북특별자치도 순창군 팔덕면 강천산길 97,
41161,2557742,2024 국제종자박람회,15,37,35.8558942966,126.9078043209,전북특별자치도 김제시 씨앗길 232,
41164,3340961,2024 순창썸머나잇,15,37,35.3687947722,127.1123375755,전북특별자치도 순창군 순창읍 장류로 55,
41165,3353948,2024 전주 조선팝 상설공연,15,37,35.8785871929,127.1285812756,전북특별자치도 전주시 덕진구 세병로 177-44 (송천동2가),
41410,1857201,가창오리의 화려한 군무를 만나다,25,37,35.8404805922,126.489267094,,
41411,2381376,간판 하나로 유명해진 원촌마을,25,37,35.6910909667,127.3974372999,,
41413,2382589,고추장 익는 마을코스 [웰촌],25,37,35.4860815849,127.1176646547,,
41414,1865179,곤도라를 타고 오르는 덕유산 향적봉,25,37,35.8919603707,127.7429735364,,
41415,2371989,군산역사문화탐방 시간여행,25,37,35.9587417615,126.7958894224,,
41416,2036096,군산의 명물 먹거리 여행,25,37,35.9901671446,126.7032829996,,
41417,2017899,군산의 은파관광단지에서 즐기는 군산여행,25,37,35.9748519236,126.6855377608,,
41418,1874106,꼼꼼하게 둘러보는 전주 한옥마을과 주변 명소들,25,37,35.8137060365,127.1486672969,,
41419,2822525,낮에 보아도 밤에 보아도 아름다운 남원 1박2일 코스,25,37,0.0,0.0,,
41421,2371950,내장산의 단풍과 동학혁명의 뜨거운 열망이 타는 정읍,25,37,35.630493611,126.8301364886,,
41422,2932734,누구나 가기 좋은 익산 나들이 코스,25,37,35.99032124,127.1029417,전북특별자치도 익산시 호반로 8 보석박물관,
41423,2786990,달(月)달(月)한 남원여행,25,37,35.40332603,127.3795325,전북특별자치도 남원시 요천로 1447,(천거동)
41425,2037271,덕유산 너른 풍에서 하룻밤,25,37,35.9007210596,127.7751204501,,
41426,2357736,뙤약볕이 두렵지 않은 조개 캐기 삼매경,25,37,35.5247678098,126.5654405049,,
41427,2679575,"마음이 포근해지는 역사와 예술의 도시, 완주여행",25,37,35.90628574,127.0662555,전북특별자치도 완주군 삼례읍 삼례역로 81-13,
41429,2371988,먹고~ 사고~ 즐기고~ 군산 쓰리고 여행!,25,37,35.9782103895,126.7157655256,,
41434,2381382,바닷길 걸으면 절로 힐링이 돼요,25,37,35.6624202687,126.4860135625,,
41435,2393105,반딧불이 아름다운 청정 무주에서 즐기기 [웰촌],25,37,35.9960244724,127.7950716586,,
41436,2371990,백제 문화의 진향이 진하게 배어나는 곳,25,37,35.9482657035,126.9877281196,,
41437,1865567,변산반도 국립공원의 진면목을 만나다,25,37,35.719334559,126.7286377009,,
41438,2717301,"변산반도해안도로, 파란 바다, 세월의 파도, 꿈틀대는 자연에 취하다!",25,37,0.0,0.0,,
41439,2519159,변치 않는 사랑 이야기를 찾아 떠나는 남원여행 [웰촌],25,37,35.4031899362,127.3796713799,,
41440,2048169,분홍빛 능선을 걷다.,25,37,35.4018152338,127.3878345827,,
41441,1874079,"삼국시대에서 근대까지, 익산이 품은 이야기를 만나다",25,37,36.0111259369,127.0301643512,,
41442,2804869,"서해랑길 (고창, 군산 구간)",25,37,0.0,0.0,,
41443,1874091,섬진강 따라 흐르는 그리움,25,37,35.5891836471,127.1097293693,,
41444,2037718,세계 최대 고인돌 왕국,25,37,35.4303280891,126.7044055224,,
41446,1865572,"숲길 따라 만나는 고색창연한 절집 풍경, 내소사와 개암사",25,37,35.662806321,126.6498850501,,
41447,2786998,시간을 건너 군산에 빠지다,25,37,35.98135483,126.7362275,전북특별자치도 군산시 경촌4길 14,(경암동)
41450,2380932,야생화 숨은 명소를 찾아서  [웰촌],25,37,36.081565915,126.9157338372,,
41451,2660111,어제를 추억하고 오늘을 기록하는 남원 여행,25,37,35.48985706,127.3306263,전북특별자치도 남원시 사매면 서도길 32,구서도역영상촬영장
41452,2514466,여름 바다 100% 즐기기,25,37,35.5173450576,126.4835368733,,
41453,2046271,역사 위에 피어난 봄,25,37,35.9901573398,127.101219672,,
41454,2036076,역사의 향기 그윽한 전통마을 나홀로 여행 1,25,37,35.8161863245,127.1495004912,,
41455,1874147,온몸을 감싸는 피톤치드와 홍삼의 향기,25,37,35.9798608986,127.396343646,,
41456,1874040,웅포캠핑장에서 즐기는 익산투어,25,37,36.1289605936,126.9211515521,,
41457,2700335,유네스코지정 미륵사지와 왕궁리유적코스,25,37,36.01160364,127.0287339,전북특별자치도 익산시 금마면 미륵사지로 362,
41458,1860438,"이몽룡, 성춘향이 되어 남원 읍내를 걸어보자",25,37,35.4024957076,127.3876068076,,
41459,1966516,전북 고창 온천해수찜,25,37,35.4325667023,126.7030889164,,
41460,1960286,전북 고창의 문화와 자연을 찾아서,25,37,35.4303280891,126.7044055224,,
41463,1921196,전주의 고풍을 즐겁게 즐기자!,25,37,35.7227452882,127.0534614685,,
41464,2385661,전주의 유네스코 보물찾기 코스,25,37,35.8119480802,127.1588414376,,
41465,1874123,정읍여행의 백미를 담다,25,37,35.5519086377,126.862268971,,
41469,1874109,천년전주마실길을 걷다,25,37,35.8244075763,127.1474699017,,
41471,1966893,태고의 정적이 감도는 무주 역사 유적지를 찾아서,25,37,36.0101232105,127.658708389,,
41472,1854239,"푸른 보리밭, 하얀 메밀꽃의 바다에 빠지다",25,37,35.4183853069,126.5574077754,,
41473,2519152,"풍천장어, 얼마나 맛있게요?",25,37,35.432416713,126.7027306184,,
41474,2530539,호롱불과 반딧불이 밝히는 무주여행 [웰촌],25,37,36.0171067381,127.714147718,,
41475,2037274,"호젓해서, 너무 호젓해서 좋은",25,37,35.5919184002,127.528819934,,
41476,2036028,1930년대로 떠나는 군산시간여행,25,37,35.990608907,126.7118266679,,
42294,2909055,고창군 선운산 국민여가캠핑장,28,37,35.502581735,126.5829506151,전북특별자치도 고창군 선운사로 158-62,
42300,2793233,구룡치(사무락다무락),28,37,35.3878874755,127.4582342795,전북특별자치도 남원시 주천면 정령치로 210-12,
42301,2734862,구시포노을캠핑장,28,37,35.4421777904,126.4354402547,전북특별자치도 고창군 상하면 구시포안길 38,
42303,2673996,구천동 어사길,28,37,35.900923816,127.7752176578,전북특별자치도 무주군 설천면 구천동1로 159,
42310,2727286,깊은골캠핑장,28,37,35.9262179048,127.7606682656,전북특별자치도 무주군 설천면 구천동로 1284-6,
42315,2778936,내장산골프앤리조트,28,37,35.5026559552,126.8658921254,전북특별자치도 정읍시 첨단과학로 476,(신정동)
42330,2664801,덕동자동차야영장,28,37,35.3658057802,127.568439015,전북특별자치도 남원시 산내면 지리산로 593,
42340,2745707,로뎀하우스,28,37,36.0255298926,127.3506826066,전북특별자치도 완주군 운주면 금고당로 1070-14,
42351,2747450,무주 솔밭야영장,28,37,35.8362182256,127.6724535085,전북특별자치도 무주군 안성면 원통사로 294,
42352,2739393,무주구천동카라반,28,37,35.8956772003,127.7757955263,전북특별자치도 무주군 설천면 백련사길 20,
42358,131237,무주덕유산리조트 썰매장,28,37,35.879081303,127.7443793143,전북특별자치도 무주군 설천면 만선로 185,
42360,561736,무주레저스쿨,28,37,35.9929515733,127.581685142,전북특별자치도 무주군 부남면 굴암로 263,
42364,508196,무주스키텔 스키샵,28,37,35.9095141432,127.7548470105,전북특별자치도 무주군 설천면 만선로 36-19,
42369,2747055,민들레동산 캠핑장,28,37,36.0136321044,127.2411093543,전북특별자치도 완주군 화산면 하용마안길 35-152,
42371,2792006,반디품은마을,28,37,35.9591475817,127.6095696827,전북특별자치도 무주군 적상면 삼방로 476,
42378,2761244,뱀사골자동차야영장,28,37,35.3718247325,127.5791462468,전북특별자치도 남원시 산내면 와운길 10,
42380,2752661,변산리조트,28,37,35.6058155888,126.485459482,전북특별자치도 부안군 변산면 격포로 453-10,
42381,2727290,변산오토캠핑장,28,37,35.6824549013,126.5336671378,전북특별자치도 부안군 변산면 변산로 2054,
42383,2752704,별빛두레펜션 캠핑장,28,37,35.8553200714,127.4280163622,전북특별자치도 진안군 부귀면 석원로 24,
42389,2908907,부엉캠핑클럽,28,37,36.0865368826,127.3538556949,전북특별자치도 완주군 산북신복길 125-72,
42393,2909036,상하농원 파머스글램핑,28,37,35.4477801819,126.4503832295,전북특별자치도 고창군 상하농원길 11-23 농원사무소,
42396,2728204,선야봉캠핑장,28,37,36.0525655678,127.3431742214,전북특별자치도 완주군 운주면 금고당로 727,
42397,2606125,선유 스카이썬라인,28,37,35.8144933151,126.4089443822,전북특별자치도 군산시 선유북길 136 공중하강체험시설,
42402,2351092,섬진강향가오토캠핑장,28,37,35.3392967109,127.1927423271,전북특별자치도 순창군 풍산면 향가로 575,
42403,2749540,성당포구금강체험관야영장,28,37,36.1307381717,126.921387595,전북특별자치도 익산시 성당면 성당로 762,
42409,2792013,숲속 캠핑장(부귀산장펜션),28,37,35.852967596,127.4300079149,전북특별자치도 진안군 부귀면 귀상로 792-23,
42413,510559,스키광장,28,37,35.9079282167,127.7550803659,전북특별자치도 무주군 설천면 만선로 60,
42420,2787401,에덴승마랜드,28,37,35.384509662,127.4342142665,전북특별자치도 남원시 주천면 중송길 77,
42422,2730008,에코캠프오토캠핑장,28,37,35.9806452904,127.303543555,전북특별자치도 완주군 동상면 대아수목로 144-1,
42423,2744428,예원캠핑장,28,37,35.9269200515,127.2577296136,전북특별자치도 완주군 동상면 송광수만로 1079-126,
42424,131231,오봉저수지,28,37,35.6147601583,127.3643394569,전북특별자치도 임실군 성수면 산성로 522,
42427,1961485,완주 에코 어드벤처,28,37,35.9629766259,127.2331252962,전북특별자치도 완주군 고산면 고산휴양림로 246,
42431,3066698,용담섬바위오토캠핑장,28,37,35.9525107839,127.5282298676,전북특별자치도 진안군 안천면 안용로 832-23,
42439,131242,위도바다낚시,28,37,35.5967549089,126.2832194198,전북특별자치도 부안군 위도면 진리안길,
42444,2908870,일곱식구 캠핑장,28,37,35.5870988931,127.0133324259,전북특별자치도 정읍시 행단1길 153,
42446,1064065,자전거 RO 남원여행,28,37,35.4113275872,127.361358899,전북특별자치도 남원시 교룡로 71,(신정동)
42448,2741540,장수누리파크오토캠핑장,28,37,35.6411155055,127.5232663533,전북특별자치도 장수군 장수읍 논개사당길 65,
42457,131192,전주교육문화회관,28,37,35.8291763059,127.137537327,전북특별자치도 전주시 덕진구 안덕원로 71,(진북동)
42461,131722,전주월드컵경기장,28,37,35.8681289403,127.0645233665,전북특별자치도 전주시 덕진구 기린대로 1055,
42462,1625303,전주종합경기장,28,37,35.8390416554,127.1263269556,전북특별자치도 전주시 덕진구 기린대로 451,(덕진동1가)
42467,2749590,지리산산내들펜션야영장,28,37,35.4121268847,127.6447921813,전북특별자치도 남원시 산내면 천왕봉로 892,
42469,2723138,진안국제캠핑장,28,37,35.9650304003,127.4613604791,전북특별자치도 진안군 용담면 와룡길 165-12,
42471,2606119,청암산오토캠핑장,28,37,35.9370269007,126.7566934876,전북특별자치도 군산시 옥산면 대위로 50,
42475,2908885,카라반파크아마존,28,37,35.7199438004,127.1097426481,전북특별자치도 완주군 신전길 75-96,
42478,2734239,파머스힐캠핑장,28,37,35.4477801819,126.4503832295,전북특별자치도 고창군 상하면 상하농원길 11-23,
42485,2747051,회문랜드캠핑장,28,37,35.4775410959,127.1299165655,전북특별자치도 순창군 구림면 안정리,231
42490,508401,ok스키샵,28,37,35.9115584122,127.758024451,전북특별자치도 무주군 설천면 내배방길 6,(설천면)
42491,1034132,[군산 구불길] 구불1길 비단강길,28,37,35.9994450916,126.7750124545,전북특별자치도 군산시 성산면 둔덕리,(내흥동)
42497,1015898,[변산 마실길 3코스] 적벽강 노을길,28,37,35.6619179225,126.5082532575,전북특별자치도 부안군 변산면,(변산면)
42499,1981089,[지리산 둘레길 코스] 운봉~인월,28,37,35.4589403613,127.6061804742,전북특별자치도 남원시 인월면 인월2길 95,
43167,2569871,게스트하우스 소설여행,32,37,35.9858398862,126.7047940872,전북특별자치도 군산시 월명로 516-1,(신흥동)
43170,2609894,경기전 연가,32,37,35.8174361942,127.1501865087,전북특별자치도 전주시 완산구 어진길 82-6,(경원동2가)
43176,2049706,교동가온,32,37,35.8134672507,127.1530502464,전북특별자치도 전주시 완산구 은행로 73-1,(교동)
43180,2779506,궁항리조트,32,37,35.6042349563,126.4701553307,전북특별자치도 부안군 변산면 궁항로 150-1,
43183,2570576,금농헌,32,37,35.8203387678,127.1574468976,전북특별자치도 전주시 완산구 관선5길 32-3,(남노송동)
43185,2593245,기린모텔 [한국관광 품질인증/Korea Quality],32,37,36.0075707325,127.6592084132,전북특별자치도 무주군 무주읍 단천로 74,
43186,2623938,길건너한옥마을,32,37,35.8206192224,127.1534694665,전북특별자치도 전주시 완산구 기린대로 130,(남노송동)
43191,2570681,낭만시대 게스트하우스(낭만시대),32,37,35.8180749794,127.1484144273,전북특별자치도 전주시 완산구 동문길 102,(경원동1가)
43203,2652800,다숲펜션[한국관광 품질인증/Korea Quality],32,37,35.8993934347,127.7752121438,전북특별자치도 무주군 설천면 구천동1로 149,
43206,2652937,달[한국관광 품질인증/Korea Quality],32,37,35.9860399047,126.7071910901,전북특별자치도 군산시 구영3길 21-2,(월명동)
43207,2751703,달팽이,32,37,35.4139789594,127.616602953,전북특별자치도 남원시 산내면 산내원천길 71,
43221,2569656,똘랑(똘랑코티지),32,37,35.8099121569,127.1563472685,전북특별자치도 전주시 완산구 서학로 63-17,(동서학동)
43227,1638588,라비치펜션,32,37,35.654010515,126.5098088734,전북특별자치도 부안군 변산면 고사길 90,
43228,1161581,라비치호텔,32,37,35.9383172811,126.5266334756,전북특별자치도 군산시 비응남로 36,
43229,2574250,라온한옥꿀잠,32,37,35.8158364483,127.1543139612,전북특별자치도 전주시 완산구 한지길 99-6,(풍남동3가)
43240,2570597,마이스테이,32,37,35.8183444356,127.1508364271,전북특별자치도 전주시 완산구 동문길 57-8,(풍남동1가)
43243,2697379,명문가,32,37,35.8132006219,127.1534696606,전북특별자치도 전주시 완산구 오목대길 50-3,(교동)
43247,2362535,모항 해나루 가족호텔,32,37,35.5806216078,126.507899782,전북특별자치도 부안군 변산면 모항해변길 73,
43251,136230,무주덕유산리조트 가족호텔,32,37,35.879081303,127.7443793143,전북특별자치도 무주군 설천면 만선로 185,
43253,142988,무주덕유산리조트 호텔티롤,32,37,35.8897992986,127.731394066,전북특별자치도 무주군 설천면 만선로 185,
43254,1836508,무주스키텔,32,37,35.9095669153,127.7548581195,전북특별자치도 무주군 설천면 만선로 36-19,
43258,2593255,무주해바라기펜션호스텔 [한국관광 품질인증/Korea Quality],32,37,35.8971714591,127.7748900101,전북특별자치도 무주군 설천면 구천동1로 129-15,
43269,2783515,베스트웨스턴플러스전주호텔,32,37,35.8224744551,127.1470199916,전북특별자치도 전주시 완산구 현무1길 41,(서노송동)
43273,2593571,부경당 [한국관광 품질인증/Korea Quality],32,37,35.8159892071,127.1542361861,전북특별자치도 전주시 완산구 한지길 99-5,
43276,2528149,블루보트게스트하우스 전주점[한국관광 품질인증/Korea Quality],32,37,35.8189026431,127.1472700632,전북특별자치도 전주시 완산구 충경로 75,
43278,2569745,비타민호텔,32,37,35.938322843,126.5270445496,전북특별자치도 군산시 비응남1길 21,(비응도동)
43279,2048324,사랑가득[한국관광 품질인증/Korea Quality],32,37,35.8124646729,127.1580137201,전북특별자치도 전주시 완산구 향교길 149-8,(교동)
43285,2569785,생폴드방스 펜션,32,37,35.5958123757,126.557217226,전북특별자치도 부안군 진서면 구름호수길 52,
43287,1972381,서로[한국관광 품질인증/Korea Quality],32,37,35.8157753315,127.1536056922,전북특별자치도 전주시 완산구 한지길 100-12,(풍남동3가)
43288,2573972,서학아트 게스트하우스,32,37,35.8098620588,127.1503700237,전북특별자치도 전주시 완산구 서학로 7,(서서학동)
43293,2760056,소양고요,32,37,35.8218268763,127.2819191208,전북특별자치도 완주군 소양면 곰티로 227,
43298,2572009,스노우밸리펜션(스노우밸리),32,37,35.9091364046,127.754613708,전북특별자치도 무주군 설천면 만선로 36-37,
43305,1635368,아리울파크,32,37,35.6247354303,126.4718352207,전북특별자치도 부안군 변산면 격포항길 5,
43311,2621825,어울림,32,37,35.8133811543,127.1532946716,전북특별자치도 전주시 완산구 은행로 75-5,(교동)
43316,2575760,연우당,32,37,35.8155864558,127.1531362943,전북특별자치도 전주시 완산구 태조로 12-17,(풍남동3가)
43320,2950196,오늘[한국관광 품질인증/Korea Quality],32,37,35.8125091181,127.158352578,전북특별자치도 전주시 완산구 향교길 155-26,
43325,2706590,왕의지밀 고종관 [한국관광 품질인증/Korea Quality],32,37,35.8000747703,127.178406674,전북특별자치도 전주시 완산구 춘향로 5218-8,
43340,3066163,이오이일,32,37,35.8132256523,127.1553861559,전북특별자치도 전주시 완산구 오목대길 5-19 (교동),
43341,2570341,이웃,32,37,35.986014884,126.7058162135,전북특별자치도 군산시 구영1길 11-2,(신흥동)
43344,1883594,익산유스호스텔,32,37,35.9658466444,126.9653018835,전북특별자치도 익산시 마한로 11,
43345,2458168,일락당사랑채 [한국관광 품질인증/Korea Quality],32,37,35.8161724961,127.1528835237,전북특별자치도 전주시 완산구 최명희길 15,(풍남동3가)
43357,2621378,전주한옥고희,32,37,35.8126448613,127.1380071621,전북특별자치도 전주시 완산구 빙고리3길 5,(서완산동1가)
43362,2594218,정가한옥 [한국관광 품질인증/Korea Quality],32,37,35.8163475155,127.1551360966,전북특별자치도 전주시 완산구 기린대로 78-3,(풍남동3가)
43369,2575841,지우당,32,37,35.8128617814,127.1540585062,전북특별자치도 전주시 완산구 오목대길 45-9,(교동)
43374,2570188,청풍헌(시랑골한옥스테이),32,37,35.9796386198,127.2332915073,전북특별자치도 완주군 고산면 동봉길 20-6,
43377,2692296,코지캐빈,32,37,35.6754139575,126.528978845,전북특별자치도 부안군 변산면 변산로 2136-13,
43395,1640255,하얀파크펜션,32,37,35.4043546506,126.9506232173,전북특별자치도 순창군 복흥면 용지길 51,
43399,2570532,한옥미담(전주한옥마을 한옥미담),32,37,35.819324875,127.1505919787,전북특별자치도 전주시 완산구 동문길 54-41,(풍남동1가)
43401,3102083,한옥스테이 오늘,32,37,35.8125091181,127.158352578,전북특별자치도 전주시 완산구 향교길 155-26 (교동),
43416,2950410,호텔원[한국관광 품질인증/Korea Quality],32,37,35.8370018107,127.057733117,전북특별자치도 완주군 오공로 21-13,"109호 4, 5, 6층"
43940,1979610,격포항 수산시장,38,37,35.6221884733,126.4703715269,전북특별자치도 부안군 변산면 격포중앙길 28-4,
43944,522298,고창옹기,38,37,35.4025389708,126.6686232882,전북특별자치도 고창군 고수면 장암길 20,
43949,132252,"관촌시장 (5, 10일)",38,37,35.6787678812,127.267696356,전북특별자치도 임실군 관촌면 사선1길 70-3,
43950,132313,군산 공설시장,38,37,35.9832487811,126.7203038781,전북특별자치도 군산시 신금길 18,
43951,920406,군산수산물종합센터,38,37,35.9940306175,126.70475499,전북특별자치도 군산시 내항2길 216,
43952,132294,"금마장 (2, 7일)",38,37,35.9917646602,127.0534627796,전북특별자치도 익산시 금마면 금마4길 7,
43956,2930540,꼴_전주점,38,37,35.8181333687,127.1520363258,전북특별자치도 전주시 완산구 은행로 21,
43958,132464,남원 목기공예사,38,37,35.3980653799,127.3718166509,전북특별자치도 남원시 요천로 1357,(조산동)
43959,132442,남원 목기사업협동조합 판매장,38,37,35.3902138576,127.3930372009,전북특별자치도 남원시 목공예길 27,
43963,132043,"남원장 / 남원공설시장 (4, 9일)",38,37,35.4046035997,127.3758938988,전북특별자치도 남원시 의총로 51,
43964,2930456,네파 전주고사,38,37,35.8209273522,127.1437564336,전북특별자치도 전주시 완산구 전주객사4길 74-12 (고사동),
43965,2925665,노스페이스 롯데몰군산,38,37,35.9764582119,126.739155146,"전북특별자치도 군산시 조촌로 130, 2층",
43966,522276,농협 목우촌 김제지점,38,37,35.7547102438,127.0038622753,전북특별자치도 김제시 금산면 구성길 630,
43967,2930522,뉴발란스_전주,38,37,35.8189997931,127.1437092665,전북특별자치도 전주시 완산구 전주객사4길 29,
43968,2713241,늘미곡,38,37,35.8159415084,127.1264858786,전북특별자치도 전주시 완산구 선너머로 16,"(중화산동2가,중화산동 광진아파트)"
43971,2783801,대야전통시장,38,37,35.9447436988,126.8157518995,전북특별자치도 군산시 대야면 대야시장로 5,
43976,2930454,로이드 전주NC웨이브,38,37,35.8203690535,127.142095485,전북특별자치도 전주시 완산구 고사동 490,
43980,2914888,롯데하이마트 나운점,38,37,35.9634949757,126.6907403668,전북특별자치도 군산시 공단대로 465,
43982,2922948,롯데하이마트 전주송천점,38,37,35.854617559,127.1204742914,전북특별자치도 전주시 덕진구 송천중앙로 82,
43985,2930551,방짜놋전,38,37,35.8148391854,127.1454397767,전북특별자치도 전주시 완산구 풍남문4길 28 (중앙동4가),
43991,2928121,빈폴 롯데 전주점,38,37,35.8345059826,127.1218524729,전북특별자치도 전주시 완산구 온고을로 2 4층,
43995,132300,"삼례정기시장 (3, 8일)",38,37,35.9104520441,127.0729742841,전북특별자치도 완주군 삼례읍 삼례로 370-2,
43996,2916551,세이브존 전주코아점,38,37,35.8256073919,127.1447145594,전북특별자치도 전주시 완산구 팔달로 262-6,
44000,2917253,아디다스 롯데몰군산,38,37,35.9764582119,126.739155146,"전북특별자치도 군산시 조촌로 130(조촌동, 롯데쇼핑 롯데몰군산점)",
44004,2917507,에잇세컨즈 전주점,38,37,35.8190164626,127.1440175721,전북특별자치도 전주시 완산구 전주객사4길 26,
44005,3307674,엘지베스트샵 수송점,38,37,35.9628454826,126.7160797838,전북특별자치도 군산시 월명로 212,
44006,132295,"여산장 (1, 6일)",38,37,36.0587214304,127.0833694578,전북특별자치도 익산시 여산면 서촌2길 21,
44009,1595026,온고을공예방,38,37,35.812225713,127.1523031232,전북특별자치도 전주시 완산구 향교길 51-9,
44013,3307251,올리브영 전주삼천점,38,37,35.7983488689,127.1151595686,전북특별자치도 전주시 완산구 용리로 46,롯데슈퍼삼천점 1층(삼천동 1가)
44018,3305318,올리브영 전주송천점,38,37,35.8637610801,127.1272262289,전북특별자치도 전주시 덕진구 솔내로 152,
44022,3306400,올리브영 전주인후점,38,37,35.8346483731,127.1644597877,전북특별자치도 전주시 덕진구 건산로 248-1,
44024,3305608,올리브영 전주중화산점,38,37,35.8168080232,127.1233694669,전북특별자치도 전주시 완산구 백제대로 264,
44026,2687343,완주 로컬푸드직매장,38,37,35.8817511904,127.1555176819,전북특별자치도 완주군 용진읍 완주로 187,
44033,2930389,유니클로 전주효자점,38,37,35.8220456624,127.0856421332,전북특별자치도 전주시 완산구 콩쥐팥쥐로 1713 (효자동3가),
44034,2918318,이마트 군산,38,37,35.9817964096,126.7343498818,전북특별자치도 군산시 구암3.1로 137 (경암동),
44036,1845457,익산 주얼팰리스,38,37,35.9911739189,127.1028389452,전북특별자치도 익산시 왕궁면 호반로 8,
44037,2755851,익산 중앙시장,38,37,35.9421046392,126.9497483364,전북특별자치도 익산시 중앙로3길 27,(창인동1가)
44038,2754762,익산시 농수산물도매시장,38,37,35.9192344916,126.9188822427,전북특별자치도 익산시 번영로1길 20,(목천동)
44040,132620,"임실장 / 임실시장 (1, 6일)",38,37,35.6144393316,127.2828189141,전북특별자치도 임실군 임실읍 운수로 26,
44050,229955,전주 이강주,38,37,35.8737609871,127.0272265433,전북특별자치도 전주시 덕진구 매암길 28 (원동),
44051,3056593,전주 한옥 마을 문화장터,38,37,35.8138643627,127.1493005697,전북특별자치도 전주시 완산구 태조로 51 (전동),
44053,2750890,전주시 농수산물도매시장,38,37,35.868199294,127.1174492054,전북특별자치도 전주시 덕진구 동부대로 1185,(송천동2가)
44057,522463,정읍 농산물도매시장,38,37,35.5876209696,126.8457806365,전북특별자치도 정읍시 황토현로 1213-15,
44058,132307,정읍 샘고을시장 (구 제일시장),38,37,35.5629628113,126.8547471349,전북특별자치도 정읍시 태평6길 22-2,
44059,1334747,정읍 신태인시장,38,37,35.6859132875,126.8872744276,전북특별자치도 정읍시 신태인읍 시장2길 14,
44064,132336,"진안장 / 진안시장 (4, 9일)",38,37,35.792168943,127.4296123374,전북특별자치도 진안군 진안읍 진무로 1105-2,
44065,2743380,채석강수산시장,38,37,35.6277795314,126.4719934638,전북특별자치도 부안군 변산면 변산해변로 8,
44067,2906615,카카오프렌즈 전주한옥마을,38,37,35.8140559988,127.1487533912,"전북특별자치도 전주시 완산구 팔달로 126,1층(전동)",
44071,132293,"함열장 (2, 7일)",38,37,36.0806917547,126.9585133681,전북특별자치도 익산시 함열읍 와리2길 8,
44072,2927021,핫트랙스 전주점,38,37,35.8190192481,127.1444508661,전북특별자치도 전주시 완산구 전주객사4길 24-47,
46296,135563,가족마당,39,37,35.9047480294,127.7554693059,전북특별자치도 무주군 설천면 만선1로 60,
46304,2837920,강나루횟집,39,37,35.598074293,127.109037534,전북특별자치도 임실군 종운로 802-5 강나루횟집,
46325,2789428,곰소궁횟집삼대젓갈,39,37,35.5874085754,126.6046965416,전북특별자치도 부안군 진서면 곰소항길 25,
46348,2687850,그랑삐아또 중화산,39,37,35.8130752834,127.1331492499,전북특별자치도 전주시 완산구 서원로 356,
46349,1590810,금강복집,39,37,35.933803031,126.9626946198,전북특별자치도 익산시 서동로 100,
46357,1861084,기차길옆 오막살이,39,37,35.8287297917,127.1754006357,전북특별자치도 전주시 덕진구 인교9길 71,
46363,1604790,까치정,39,37,35.4135139595,127.3906479204,전북특별자치도 남원시 옥정1길 64,
46366,2849586,나마스테,39,37,36.1025902734,127.3349152881,전북특별자치도 완주군 대둔산로 2056,
46370,1603661,남원 허브마을 채마루,39,37,35.4094839539,127.3960808772,전북특별자치도 남원시 원천로 37,
46375,3018385,넓은 들 학원 농장,39,37,35.3754177213,126.543290658,전북특별자치도 고창군 공음면 학원농장길 150,카페 넓은 들
46404,1595140,대만원,39,37,35.6139615547,127.2797080912,전북특별자치도 임실군 임실읍 봉황로 152,
46425,1610489,돼지마을,39,37,35.9585432853,127.5199887721,전북특별자치도 진안군 용담면 안용로 939,
46452,2840149,마식당,39,37,35.6241493774,126.4713380579,전북특별자치도 부안군 격포항길 13 격포식당,
46459,1595051,맛동순두부,39,37,36.011550789,127.0244537384,전북특별자치도 익산시 금마면 미륵사지로 397,
46468,2839149,명문제과,39,37,35.4090698759,127.3824876453,전북특별자치도 남원시 용성로 56 명문제과,
46471,1608666,명인관,39,37,35.4932858815,126.9296311496,전북특별자치도 정읍시 내장산로 941-13,
46475,685143,모산방,39,37,35.9629643268,126.6817217424,전북특별자치도 군산시 부원로 97-9,
46503,1596302,바다꽃게탕 본점,39,37,35.828849146,127.1709899142,전북특별자치도 전주시 덕진구 아중1길 13-1,
46504,2568724,바다회집 현대코아점,39,37,35.9707721508,126.7041167601,전북특별자치도 군산시 문화안길 11,
46514,1592144,백제가든,39,37,35.9523624847,126.9892362108,전북특별자치도 익산시 선화로65길 34-10,
46525,1605003,변산명인바지락죽,39,37,35.664462164,126.5134082893,전북특별자치도 부안군 변산면 변산해변로 794,
46541,2851390,불칸,39,37,35.7640431246,127.1997085004,전북특별자치도 완주군 왜목로 676-6,
46543,2851360,비비정농가레스토랑,39,37,35.9016308363,127.0735327981,전북특별자치도 완주군 비비정길 26,
46565,854516,삼미정,39,37,35.9698162517,126.6776080441,전북특별자치도 군산시 칠성5길 159,
46571,1985787,삼풍식당,39,37,36.014770848,126.7592329118,전북특별자치도 군산시 성산면 철새로 31,
46575,2568786,새만금횟집,39,37,35.9393283762,126.5325107012,전북특별자치도 군산시 비응안7길 13,
46586,1607698,서울반점,39,37,35.5637824091,126.8692652681,전북특별자치도 정읍시 하신경8길 32,(상동)
46593,133585,선심갈비,39,37,35.9373006324,127.1677429103,전북특별자치도 완주군 봉동읍 봉동로 137-6,
46620,2568866,수원성,39,37,35.9691836346,126.7152935791,전북특별자치도 군산시 월명로 281,
46635,134343,신덕식당,39,37,35.5080786152,126.599748982,전북특별자치도 고창군 아산면 선운사로 8,
46656,2778464,아중각,39,37,35.8353538998,127.1674650575,전북특별자치도 전주시 덕진구 석소로 92,(우아동2가)
46657,2841846,아중리 육전골 본점,39,37,35.8289269392,127.1724036753,전북특별자치도 전주시 덕진구 아중1길 24,
46671,1985795,에루화,39,37,35.837066551,127.1073398086,전북특별자치도 전주시 완산구 고사평5길 25,
46722,2568988,유성가든,39,37,36.011657358,126.7617438795,전북특별자치도 군산시 성산면 철새로 6-1,
46740,2904282,작은항구,39,37,35.5425296954,126.566287205,전북특별자치도 고창군 상전1길 45 작은항구,
46743,2811482,장미칼국수,39,37,35.9855484533,126.7165097136,전북특별자치도 군산시 큰샘길 26 장미칼국수,
46758,1594878,전주소바,39,37,35.9289006342,126.9523512263,전북특별자치도 익산시 목천로 281,
46773,2687852,중본이쟁반짜장,39,37,35.8261711273,127.1395511153,전북특별자치도 전주시 완산구 공북로 71,
46784,2873652,진도식당,39,37,35.4523268112,127.1023279914,전북특별자치도 순창군 구림로 474,
46805,2904315,청림정금자할매집,39,37,35.4999908485,126.6118842168,전북특별자치도 고창군 인천강서길 12 청림정금자할매집,
46810,2929910,첼로네시아,39,37,35.9879757877,126.7067688554,전북특별자치도 군산시 구영신창길 88,
46811,1610033,초가정담,39,37,35.7581555556,127.3963023032,전북특별자치도 진안군 마령면 마이산남로 213,
46817,2871145,최동민양푼갈비 군산본점,39,37,35.9628232861,126.7174657717,전북특별자치도 군산시 수송안5길 4,
46828,2855371,카페 리보키,39,37,35.7259209227,127.1111145926,전북특별자치도 완주군 신뱅이길 60-7,
46844,2923670,커피홀릭,39,37,35.9356370143,126.5256086353,전북특별자치도 군산시 비응남로 3 아리울횟집,2층
46888,2840179,할매피순대,39,37,35.7185011609,126.7192496704,전북특별자치도 부안군 부안로 2524 가든,
46901,2837349,향수원,39,37,35.9576784629,127.1445749947,전북특별자치도 완주군 제상로 31,
46909,2840816,형제골뼈다귀순대국,39,37,35.7246119527,126.7413669873,전북특별자치도 부안군 용암로 32,
46931,2563232,[백년가게]늘채움,39,37,35.8465462588,127.1206494873,전북특별자치도 전주시 덕진구 덕진연못3길 6,
46937,2568982,[백년가게]유락식당,39,37,35.9876927196,126.7203926439,전북특별자치도 군산시 해망로 146-25,
